94728KNYC NYC20250801000013908/01/25 00:00:31  5-MIN KNYC 010500Z AUTO 05010G20KT 020V090 10SM BKN011 OVC037 18/17 A3009 0 93 400 070/10G20 030V100 RMK AO2 T01830172 $
94728KNYC NYC20250801000512308/01/25 00:05:31  5-MIN KNYC 010505Z AUTO 05011G20KT 10SM BKN011 OVC038 18/17 A3009 0 90 400 070/11G20 RMK AO2 T01830167 $
94728KNYC NYC20250801001014508/01/25 00:10:31  5-MIN KNYC 010510Z AUTO 04010G17KT 350V080 8SM BKN011 BKN029 OVC038 18/17 A3009 0 93 400 050/10G17 360V090 RMK AO2 T01830172 $
94728KNYC NYC20250801001514808/01/25 00:15:31  5-MIN KNYC 010515Z AUTO 05010G18KT 360V070 5SM BR BKN012 BKN029 OVC038 18/17 A3009 0 90 400 070/10G18 010V080 RMK AO2 T01830167 $
94728KNYC NYC20250801002016408/01/25 00:20:31  5-MIN KNYC 010520Z AUTO 04011G18KT 010V080 5SM -RA BR BKN012 BKN031 OVC038 18/17 A3009 0 93 400 060/11G18 020V090 RMK AO2 RAB16 P0000 T01830172 $
94728KNYC NYC20250801002514108/01/25 00:25:31  5-MIN KNYC 010525Z AUTO 05009G17KT 5SM -RA BR BKN010 OVC031 18/17 A3009 0 93 400 070/09G17 RMK AO2 RAB16 P0000 T01830172 $
94728KNYC NYC20250801003014808/01/25 00:30:31  5-MIN KNYC 010530Z AUTO VRB05G17KT 5SM -RA BR BKN010 BKN013 OVC032 18/17 A3009 0 93 400 VRB/05G17 RMK AO2 RAB16 P0000 T01830172 $
94728KNYC NYC20250801003514208/01/25 00:35:31  5-MIN KNYC 010535Z AUTO 05011G18KT 6SM -RA BR BKN010 OVC032 18/17 A3009 10 90 400 060/11G18 RMK AO2 RAB16 P0000 T01830167 $
94728KNYC NYC20250801004016108/01/25 00:40:31  5-MIN KNYC 010540Z AUTO 05012G18KT 020V080 9SM BKN010 BKN033 OVC046 18/17 A3008 10 90 400 060/12G18 030V090 RMK AO2 RAB16E39 P0000 T01830167 $
94728KNYC NYC20250801004517208/01/25 00:45:31  5-MIN KNYC 010545Z 05011G18KT 10SM BKN010 BKN032 OVC046 18/17 A3009 10 90 400 060/11G18 RMK AO2 RAB16E39 SLP177 P0000 60013 T01830167 10211 20183 53014 $
94728KNYC NYC20250801005017108/01/25 00:50:31  5-MIN KNYC 010550Z VRB05G18KT 10SM BKN010 BKN030 OVC046 18/17 A3009 0 90 400 VRB/05G18 RMK AO2 RAB16E39 SLP179 P0000 60013 T01830167 10211 20183 53014 $
94728KNYC NYC20250801005511808/01/25 00:55:31  5-MIN KNYC 010555Z VRB03G16KT 10SM BKN010 OVC046 18/17 A3009 0 93 400 VRB/03G16 RMK AO2 T01830172 $
94728KNYC NYC20250801010012508/01/25 01:00:31  5-MIN KNYC 010600Z 06010G17KT 10SM BKN011 BKN014 OVC046 18/17 A3009 0 93 400 070/10G17 RMK AO2 T01830172 $
94728KNYC NYC20250801010513408/01/25 01:05:31  5-MIN KNYC 010605Z 04008G17KT 350V080 10SM BKN011 OVC047 18/17 A3009 0 90 400 050/08G17 360V090 RMK AO2 T01830167 $
94728KNYC NYC20250801011012708/01/25 01:10:31  5-MIN KNYC 010610Z 06007G17KT 020V090 10SM OVC011 18/17 A3009 0 90 400 070/07G17 030V100 RMK AO2 T01830167 $
94728KNYC NYC20250801011511108/01/25 01:15:31  5-MIN KNYC 010615Z VRB05G17KT 10SM OVC011 18/17 A3009 0 90 400 VRB/05G17 RMK AO2 T01830167 $
94728KNYC NYC20250801012011108/01/25 01:20:31  5-MIN KNYC 010620Z 06009G15KT 10SM OVC012 18/17 A3009 0 90 400 070/09G15 RMK AO2 T01830167 $
94728KNYC NYC20250801012512708/01/25 01:25:31  5-MIN KNYC 010625Z 04009G16KT 320V080 10SM OVC012 18/17 A3009 0 90 400 050/09G16 330V090 RMK AO2 T01830167 $
94728KNYC NYC20250801013011108/01/25 01:30:31  5-MIN KNYC 010630Z 04008G16KT 10SM OVC012 18/17 A3009 0 90 400 060/08G16 RMK AO2 T01830167 $
94728KNYC NYC20250801013512708/01/25 01:35:31  5-MIN KNYC 010635Z 05008G16KT 020V090 10SM OVC012 18/17 A3009 0 90 400 070/08G16 030V100 RMK AO2 T01830167 $
94728KNYC NYC20250801014012708/01/25 01:40:31  5-MIN KNYC 010640Z 05008G16KT 020V080 10SM OVC012 18/17 A3010 0 90 400 070/08G16 030V090 RMK AO2 T01830167 $
94728KNYC NYC20250801014515008/01/25 01:45:31  5-MIN KNYC 010645Z 03008G16KT 350V050 10SM -RA OVC012 18/17 A3010 0 90 400 040/08G16 360V060 RMK AO2 RAB43 SLP183 P0000 T01830167 $
94728KNYC NYC20250801015013408/01/25 01:50:31  5-MIN KNYC 010650Z 04008G15KT 10SM -RA OVC014 18/16 A3010 0 87 400 060/08G15 RMK AO2 RAB43 SLP183 P0000 T01830161 $
94728KNYC NYC20250801015513908/01/25 01:55:31  5-MIN KNYC 010655Z 05008G15KT 020V080 10SM OVC014 18/16 A3010 0 87 400 060/08G15 030V090 RMK AO2 RAE55 P0000 T01830161 $
94728KNYC NYC20250801020012508/01/25 02:00:31  5-MIN KNYC 010700Z 01009G16KT 10SM OVC014 18/16 A3010 0 90 400 030/09G16 RMK AO2 RAE0655 P0000 T01780161 $
94728KNYC NYC20250801020514308/01/25 02:05:31  5-MIN KNYC 010705Z 03007G16KT 340V090 10SM OVC014 18/16 A3010 -10 90 400 050/07G16 350V100 RMK AO2 RAE0655 P0000 T01780161 $
94728KNYC NYC20250801021013508/01/25 02:10:31  5-MIN KNYC 010710Z 02008KT 300V060 10SM OVC014 18/16 A3010 0 90 400 030/08 310V070 RMK AO2 RAE0655 P0000 T01780161 $
94728KNYC NYC20250801021514308/01/25 02:15:31  5-MIN KNYC 010715Z 03009G16KT 350V060 10SM OVC014 18/16 A3010 -10 90 400 040/09G16 360V070 RMK AO2 RAE0655 P0000 T01780161 $
94728KNYC NYC20250801022014308/01/25 02:20:31  5-MIN KNYC 010720Z 03007G16KT 360V080 10SM OVC015 18/16 A3010 -10 87 400 040/07G16 010V090 RMK AO2 RAE0655 P0000 T01780156 $
94728KNYC NYC20250801022512708/01/25 02:25:31  5-MIN KNYC 010725Z VRB06G15KT 10SM OVC015 18/16 A3010 -10 84 400 VRB/06G15 RMK AO2 RAE0655 P0000 T01830156 $
94728KNYC NYC20250801023012708/01/25 02:30:31  5-MIN KNYC 010730Z 03010G17KT 10SM OVC015 18/16 A3010 -10 87 400 050/10G17 RMK AO2 RAE0655 P0000 T01830161 $
94728KNYC NYC20250801023512708/01/25 02:35:31  5-MIN KNYC 010735Z 04011G19KT 10SM OVC015 18/16 A3010 -10 87 400 060/11G19 RMK AO2 RAE0655 P0000 T01780156 $
94728KNYC NYC20250801024014308/01/25 02:40:31  5-MIN KNYC 010740Z 04008G20KT 360V080 10SM OVC015 18/16 A3010 -10 84 400 050/08G20 010V090 RMK AO2 RAE0655 P0000 T01830156 $
94728KNYC NYC20250801024515008/01/25 02:45:31  5-MIN KNYC 010745Z 04007G20KT 010V070 10SM OVC015 18/16 A3010 -10 87 400 060/07G20 020V080 RMK AO2 RAE0655 SLP185 P0000 T01780156 $
94728KNYC NYC20250801025013408/01/25 02:50:31  5-MIN KNYC 010750Z 03008G17KT 10SM OVC014 18/16 A3011 -10 87 400 040/08G17 RMK AO2 RAE0655 SLP185 P0000 T01780156 $
94728KNYC NYC20250801025512908/01/25 02:55:31  5-MIN KNYC 010755Z 02008G16KT 350V050 10SM OVC014 18/16 A3010 -10 87 400 040/08G16 360V060 RMK AO2 T01780156 $
94728KNYC NYC20250801030011308/01/25 03:00:31  5-MIN KNYC 010800Z 03010G18KT 10SM OVC014 18/16 A3010 -10 87 400 050/10G18 RMK AO2 T01780156 $
94728KNYC NYC20250801030512708/01/25 03:05:31  5-MIN KNYC 010805Z 04009G18KT 010V080 10SM OVC014 18/16 A3010 0 87 400 060/09G18 020V090 RMK AO2 T01780156 $
94728KNYC NYC20250801031011108/01/25 03:10:31  5-MIN KNYC 010810Z 05006G15KT 10SM OVC016 18/16 A3010 0 87 400 070/06G15 RMK AO2 T01780156 $
94728KNYC NYC20250801031512308/01/25 03:15:31  5-MIN KNYC 010815Z 06007KT 010V090 10SM OVC016 18/16 A3010 -10 87 400 070/07 020V100 RMK AO2 T01780156 $
94728KNYC NYC20250801032010708/01/25 03:20:31  5-MIN KNYC 010820Z VRB06KT 10SM OVC016 18/16 A3010 -10 84 400 VRB/06 RMK AO2 T01830156 $
94728KNYC NYC20250801032512908/01/25 03:25:31  5-MIN KNYC 010825Z 05009G16KT 020V080 10SM OVC016 18/16 A3010 -10 87 400 060/09G16 030V090 RMK AO2 T01780156 $
94728KNYC NYC20250801033011108/01/25 03:30:31  5-MIN KNYC 010830Z 03007G16KT 10SM OVC018 18/16 A3010 0 84 400 040/07G16 RMK AO2 T01830156 $
94728KNYC NYC20250801073012508/01/25 07:30:31  5-MIN KNYC 011230Z VRB05KT 5SM -RA BR OVC014 17/15 A3018 -80 87 200 VRB/05 RMK AO2 RAB09 P0000 T01720150 $
94728KNYC NYC20250801073512508/01/25 07:35:31  5-MIN KNYC 011235Z VRB04KT 6SM -RA BR OVC014 17/15 A3018 -80 87 200 VRB/04 RMK AO2 RAB09 P0000 T01720150 $
94728KNYC NYC20250801074012108/01/25 07:40:31  5-MIN KNYC 011240Z VRB05KT 8SM OVC013 17/15 A3019 -80 87 200 VRB/05 RMK AO2 RAB09E39 P0000 T01720150 $
94728KNYC NYC20250801074512808/01/25 07:45:31  5-MIN KNYC 011245Z VRB05KT 8SM OVC013 17/15 A3018 -80 87 200 VRB/05 RMK AO2 RAB09E39 SLP212 P0000 T01720150 $
94728KNYC NYC20250801075012808/01/25 07:50:31  5-MIN KNYC 011250Z 02007KT 9SM OVC015 17/15 A3018 -80 87 200 030/07 RMK AO2 RAB09E39 SLP212 P0000 T01720150 $
94728KNYC NYC20250801075510708/01/25 07:55:31  5-MIN KNYC 011255Z VRB04KT 10SM OVC015 17/15 A3018 -80 87 200 VRB/04 RMK AO2 T01720150 $
94728KNYC NYC20250801080010708/01/25 08:00:31  5-MIN KNYC 011300Z VRB05KT 10SM OVC015 18/15 A3018 -80 83 300 VRB/05 RMK AO2 T01780150 $
94728KNYC NYC20250801080510708/01/25 08:05:31  5-MIN KNYC 011305Z VRB04KT 10SM OVC015 18/15 A3018 -80 83 300 VRB/04 RMK AO2 T01780150 $
94728KNYC NYC20250801081010708/01/25 08:10:31  5-MIN KNYC 011310Z VRB05KT 10SM OVC015 18/15 A3018 -80 83 300 VRB/05 RMK AO2 T01780150 $
94728KNYC NYC20250801081510708/01/25 08:15:31  5-MIN KNYC 011315Z VRB04KT 10SM OVC015 18/15 A3018 -80 83 300 VRB/04 RMK AO2 T01780150 $
94728KNYC NYC20250801082010708/01/25 08:20:31  5-MIN KNYC 011320Z 05009KT 10SM OVC015 18/16 A3018 -80 84 300 060/09 RMK AO2 T01830156 $
94728KNYC NYC20250801082512308/01/25 08:25:31  5-MIN KNYC 011325Z 03007KT 360V070 10SM OVC015 18/15 A3018 -80 81 300 050/07 010V080 RMK AO2 T01830150 $
94728KNYC NYC20250801083012308/01/25 08:30:31  5-MIN KNYC 011330Z 06008KT 030V090 10SM OVC015 18/15 A3018 -80 81 300 070/08 040V100 RMK AO2 T01830150 $
94728KNYC NYC20250801083510708/01/25 08:35:31  5-MIN KNYC 011335Z VRB04KT 10SM OVC015 18/15 A3019 -80 81 300 VRB/04 RMK AO2 T01830150 $
94728KNYC NYC20250801084012308/01/25 08:40:31  5-MIN KNYC 011340Z 05007KT 360V060 10SM OVC015 18/15 A3019 -80 81 300 060/07 010V070 RMK AO2 T01830150 $
94728KNYC NYC20250801084513608/01/25 08:45:31  5-MIN KNYC 011345Z 05009G16KT 020V080 10SM OVC015 18/15 A3019 -80 81 300 060/09G16 030V090 RMK AO2 SLP213 T01830150 $
94728KNYC NYC20250801085012008/01/25 08:50:31  5-MIN KNYC 011350Z VRB05G16KT 10SM OVC015 18/14 A3019 -80 78 300 VRB/05G16 RMK AO2 SLP213 T01830144 $
94728KNYC NYC20250801085510708/01/25 08:55:31  5-MIN KNYC 011355Z VRB06KT 10SM OVC016 19/15 A3019 -80 78 400 VRB/06 RMK AO2 T01890150 $
94728KNYC NYC20250801090012308/01/25 09:00:31  5-MIN KNYC 011400Z 04007KT 340V110 10SM OVC016 19/15 A3019 -90 78 400 060/07 350V120 RMK AO2 T01890150 $
94728KNYC NYC20250801090511308/01/25 09:05:31  5-MIN KNYC 011405Z 06007G17KT 10SM OVC016 19/15 A3019 -90 78 400 070/07G17 RMK AO2 T01890150 $
94728KNYC NYC20250801091011308/01/25 09:10:31  5-MIN KNYC 011410Z 05007G17KT 10SM OVC016 19/15 A3019 -90 78 400 060/07G17 RMK AO2 T01890150 $
94728KNYC NYC20250801091509708/01/25 09:15:31  5-MIN KNYC 011415Z 10SM OVC017 19/15 A3019 -90 78 400 M /M RMK AO2 T01890150 $
94728KNYC NYC20250801092011308/01/25 09:20:31  5-MIN KNYC 011420Z 06011G16KT 10SM OVC017 19/14 A3019 -90 75 400 070/11G16 RMK AO2 T01890144 $
94728KNYC NYC20250801092511308/01/25 09:25:31  5-MIN KNYC 011425Z 04009G16KT 10SM OVC017 19/14 A3020 -90 75 400 060/09G16 RMK AO2 T01890144 $
94728KNYC NYC20250801093011308/01/25 09:30:31  5-MIN KNYC 011430Z VRB04G16KT 10SM OVC017 19/14 A3020 -90 75 400 VRB/04G16 RMK AO2 T01890144 $
94728KNYC NYC20250801093509708/01/25 09:35:31  5-MIN KNYC 011435Z 10SM OVC018 19/14 A3020 -90 75 400 M /M RMK AO2 T01890144 $
94728KNYC NYC20250801094010708/01/25 09:40:31  5-MIN KNYC 011440Z 07008KT 10SM OVC018 19/14 A3020 -90 75 400 080/08 RMK AO2 T01890144 $
94728KNYC NYC20250801094513108/01/25 09:45:31  5-MIN KNYC 011445Z AUTO 06007KT 10SM OVC018 19/14 A3020 -90 75 400 070/07 RMK AO2 SLP217 60000 T01890144 51023 $
94728KNYC NYC20250801095013708/01/25 09:50:31  5-MIN KNYC 011450Z AUTO 05007G15KT 10SM OVC018 19/14 A3020 -90 75 400 060/07G15 RMK AO2 SLP217 60000 T01890144 51023 $
94728KNYC NYC20250801095511808/01/25 09:55:31  5-MIN KNYC 011455Z AUTO 05008G15KT 10SM OVC019 19/14 A3020 -90 72 400 070/08G15 RMK AO2 T01940144 $
94728KNYC NYC20250801100011808/01/25 10:00:31  5-MIN KNYC 011500Z AUTO 06009G16KT 10SM OVC019 19/15 A3020 -90 75 400 080/09G16 RMK AO2 T01940150 $
94728KNYC NYC20250801100511808/01/25 10:05:31  5-MIN KNYC 011505Z AUTO 06009G16KT 10SM OVC019 19/14 A3020 -90 72 400 070/09G16 RMK AO2 T01940144 $
94728KNYC NYC20250801101011208/01/25 10:10:31  5-MIN KNYC 011510Z AUTO 06011KT 10SM OVC019 19/14 A3020 -90 72 400 070/11 RMK AO2 T01940144 $
94728KNYC NYC20250801101511908/01/25 10:15:31  5-MIN KNYC 011515Z AUTO 06009G16KT 10SM OVC019 19/14 A3020 -100 72 400 070/09G16 RMK AO2 T01940144 $
94728KNYC NYC20250801102011208/01/25 10:20:31  5-MIN KNYC 011520Z AUTO 04009KT 10SM OVC020 20/14 A3020 -90 70 500 050/09 RMK AO2 T02000144 $
94728KNYC NYC20250801102513408/01/25 10:25:31  5-MIN KNYC 011525Z AUTO 06007G14KT 020V090 10SM OVC020 19/14 A3020 -90 72 400 070/07G14 030V100 RMK AO2 T01940144 $
94728KNYC NYC20250801103011808/01/25 10:30:31  5-MIN KNYC 011530Z AUTO 06008G14KT 10SM OVC020 20/14 A3020 -90 70 500 070/08G14 RMK AO2 T02000144 $
94728KNYC NYC20250801103511208/01/25 10:35:31  5-MIN KNYC 011535Z AUTO VRB05KT 10SM OVC021 20/14 A3020 -90 70 500 VRB/05 RMK AO2 T02000144 $
94728KNYC NYC20250801104011208/01/25 10:40:31  5-MIN KNYC 011540Z AUTO 04006KT 10SM OVC021 20/15 A3020 -90 72 500 060/06 RMK AO2 T02000150 $
94728KNYC NYC20250801104512008/01/25 10:45:31  5-MIN KNYC 011545Z AUTO VRB06KT 10SM OVC021 20/15 A3020 -100 72 500 VRB/06 RMK AO2 SLP218 T02000150 $
94728KNYC NYC20250801105012008/01/25 10:50:31  5-MIN KNYC 011550Z AUTO 06007KT 10SM OVC021 20/15 A3020 -100 72 500 080/07 RMK AO2 SLP219 T02000150 $
94728KNYC NYC20250801105512908/01/25 10:55:31  5-MIN KNYC 011555Z AUTO 07008KT 040V100 10SM OVC021 20/15 A3020 -100 72 500 080/08 050V110 RMK AO2 T02000150 $
94728KNYC NYC20250801110011808/01/25 11:00:31  5-MIN KNYC 011600Z AUTO VRB06G18KT 10SM OVC021 20/14 A3020 -90 70 500 VRB/06G18 RMK AO2 T02000144 $
94728KNYC NYC20250801110511808/01/25 11:05:31  5-MIN KNYC 011605Z AUTO VRB06G18KT 10SM OVC021 20/15 A3020 -90 72 500 VRB/06G18 RMK AO2 T02000150 $
94728KNYC NYC20250801111011208/01/25 11:10:31  5-MIN KNYC 011610Z AUTO 07008KT 10SM OVC022 21/15 A3020 -90 70 600 090/08 RMK AO2 T02060150 $
94728KNYC NYC20250801111510308/01/25 11:15:31  5-MIN KNYC 011615Z AUTO 10SM OVC022 21/15 A3020 -100 70 600 M /M RMK AO2 T02060150 $
94728KNYC NYC20250801112011208/01/25 11:20:31  5-MIN KNYC 011620Z AUTO VRB05KT 10SM OVC022 21/15 A3020 -90 70 600 VRB/05 RMK AO2 T02060150 $
94728KNYC NYC20250801112511308/01/25 11:25:31  5-MIN KNYC 011625Z AUTO 05005KT 10SM OVC022 20/14 A3020 -100 70 500 060/05 RMK AO2 T02000144 $
94728KNYC NYC20250801113011308/01/25 11:30:31  5-MIN KNYC 011630Z AUTO VRB06KT 10SM OVC023 21/15 A3020 -100 70 600 VRB/06 RMK AO2 T02060150 $
94728KNYC NYC20250801113511208/01/25 11:35:31  5-MIN KNYC 011635Z AUTO VRB06KT 10SM OVC023 21/14 A3020 -90 67 600 VRB/06 RMK AO2 T02060144 $
94728KNYC NYC20250801114011208/01/25 11:40:31  5-MIN KNYC 011640Z AUTO VRB06KT 10SM OVC023 20/14 A3020 -90 70 500 VRB/06 RMK AO2 T02000144 $
94728KNYC NYC20250801114512008/01/25 11:45:31  5-MIN KNYC 011645Z AUTO 09006KT 10SM OVC023 20/15 A3020 -100 72 500 100/06 RMK AO2 SLP218 T02000150 $
94728KNYC NYC20250801115013608/01/25 11:50:31  5-MIN KNYC 011650Z AUTO 07008KT 040V110 10SM OVC023 21/15 A3020 -100 70 600 080/08 050V120 RMK AO2 SLP218 T02060150 $
94728KNYC NYC20250801115511308/01/25 11:55:31  5-MIN KNYC 011655Z AUTO VRB04KT 10SM OVC023 21/15 A3020 -100 70 600 VRB/04 RMK AO2 T02060150 $
94728KNYC NYC20250801120011308/01/25 12:00:31  5-MIN KNYC 011700Z AUTO 05007KT 10SM OVC024 21/15 A3020 -100 70 600 070/07 RMK AO2 T02060150 $
94728KNYC NYC20250801120511308/01/25 12:05:31  5-MIN KNYC 011705Z AUTO 05005KT 10SM OVC026 21/15 A3020 -100 70 600 060/05 RMK AO2 T02060150 $
94728KNYC NYC20250801121011308/01/25 12:10:31  5-MIN KNYC 011710Z AUTO VRB03KT 10SM OVC026 21/15 A3020 -100 68 600 VRB/03 RMK AO2 T02110150 $
94728KNYC NYC20250801121511308/01/25 12:15:31  5-MIN KNYC 011715Z AUTO VRB05KT 10SM OVC026 21/16 A3020 -100 70 600 VRB/05 RMK AO2 T02110156 $
94728KNYC NYC20250801122011308/01/25 12:20:31  5-MIN KNYC 011720Z AUTO 04006KT 10SM OVC027 21/15 A3020 -100 68 600 060/06 RMK AO2 T02110150 $
94728KNYC NYC20250801122512708/01/25 12:25:31  5-MIN KNYC 011725Z AUTO VRB03KT 10SM BKN027 BKN032 OVC043 22/15 A3020 -100 65 700 VRB/03 RMK AO2 T02170150 $
94728KNYC NYC20250801123012008/01/25 12:30:31  5-MIN KNYC 011730Z AUTO VRB04KT 10SM SCT027 OVC032 22/16 A3020 -100 68 700 VRB/04 RMK AO2 T02170156 $
94728KNYC NYC20250801123512008/01/25 12:35:31  5-MIN KNYC 011735Z AUTO 03003KT 10SM BKN029 OVC035 22/15 A3020 -100 65 700 040/03 RMK AO2 T02170150 $
94728KNYC NYC20250801124012008/01/25 12:40:31  5-MIN KNYC 011740Z AUTO 00000KT 10SM BKN029 OVC035 21/15 A3020 -100 68 600 000/00 RMK AO2 T02110150 $
94728KNYC NYC20250801124515108/01/25 12:45:31  5-MIN KNYC 011745Z AUTO VRB05KT 10SM BKN029 OVC035 21/16 A3020 -100 70 600 VRB/05 RMK AO2 SLP219 60000 T02110156 10217 20172 53008 $
94728KNYC NYC20250801125015108/01/25 12:50:31  5-MIN KNYC 011750Z AUTO VRB04KT 10SM BKN029 OVC035 21/16 A3020 -100 70 600 VRB/04 RMK AO2 SLP219 60000 T02110156 10217 20172 53008 $
94728KNYC NYC20250801125512008/01/25 12:55:31  5-MIN KNYC 011755Z AUTO VRB05KT 10SM BKN029 OVC035 22/15 A3021 -100 65 700 VRB/05 RMK AO2 T02170150 $
94728KNYC NYC20250801130012008/01/25 13:00:31  5-MIN KNYC 011800Z AUTO 06003KT 10SM BKN030 OVC036 22/16 A3021 -100 68 700 070/03 RMK AO2 T02170156 $
94728KNYC NYC20250801130511308/01/25 13:05:31  5-MIN KNYC 011805Z AUTO VRB04KT 10SM OVC032 22/15 A3021 -100 65 700 VRB/04 RMK AO2 T02170150 $
94728KNYC NYC20250801131012008/01/25 13:10:31  5-MIN KNYC 011810Z AUTO VRB04KT 10SM SCT029 OVC036 21/15 A3021 -100 68 600 VRB/04 RMK AO2 T02110150 $
94728KNYC NYC20250801131511308/01/25 13:15:31  5-MIN KNYC 011815Z AUTO VRB04KT 10SM OVC034 21/15 A3021 -100 68 600 VRB/04 RMK AO2 T02110150 $
94728KNYC NYC20250801132011308/01/25 13:20:31  5-MIN KNYC 011820Z AUTO 06005KT 10SM OVC032 21/15 A3021 -100 68 600 070/05 RMK AO2 T02110150 $
94728KNYC NYC20250801132512008/01/25 13:25:31  5-MIN KNYC 011825Z AUTO 01003KT 10SM BKN030 OVC036 21/16 A3021 -100 70 600 020/03 RMK AO2 T02110156 $
94728KNYC NYC20250801133012008/01/25 13:30:31  5-MIN KNYC 011830Z AUTO VRB03KT 10SM BKN030 OVC036 21/15 A3021 -100 68 600 VRB/03 RMK AO2 T02110150 $
94728KNYC NYC20250801133511008/01/25 13:35:31  5-MIN KNYC 011835Z AUTO 10SM BKN030 OVC036 21/15 A3021 -100 68 600 M /M RMK AO2 T02110150 $
94728KNYC NYC20250801134012008/01/25 13:40:31  5-MIN KNYC 011840Z AUTO VRB06KT 10SM BKN027 OVC034 21/15 A3021 -100 68 600 VRB/06 RMK AO2 T02110150 $
94728KNYC NYC20250801134512708/01/25 13:45:31  5-MIN KNYC 011845Z AUTO VRB04KT 10SM BKN027 OVC034 21/15 A3021 -100 70 600 VRB/04 RMK AO2 SLP221 T02060150 $
94728KNYC NYC20250801135012708/01/25 13:50:31  5-MIN KNYC 011850Z AUTO VRB04KT 10SM BKN025 OVC034 21/15 A3021 -110 70 600 VRB/04 RMK AO2 SLP221 T02060150 $
94728KNYC NYC20250801135511308/01/25 13:55:31  5-MIN KNYC 011855Z AUTO 04006KT 10SM OVC025 21/15 A3021 -110 70 600 050/06 RMK AO2 T02060150 $
94728KNYC NYC20250801140011308/01/25 14:00:31  5-MIN KNYC 011900Z AUTO VRB06KT 10SM OVC025 21/15 A3021 -100 70 600 VRB/06 RMK AO2 T02060150 $
94728KNYC NYC20250801140511308/01/25 14:05:31  5-MIN KNYC 011905Z AUTO VRB05KT 10SM OVC025 21/15 A3021 -110 70 600 VRB/05 RMK AO2 T02060150 $
94728KNYC NYC20250801141011308/01/25 14:10:31  5-MIN KNYC 011910Z AUTO VRB06KT 10SM OVC027 21/15 A3021 -110 68 600 VRB/06 RMK AO2 T02110150 $
94728KNYC NYC20250801141511308/01/25 14:15:31  5-MIN KNYC 011915Z AUTO VRB03KT 10SM OVC027 21/15 A3021 -110 68 600 VRB/03 RMK AO2 T02110150 $
94728KNYC NYC20250801142010308/01/25 14:20:31  5-MIN KNYC 011920Z AUTO 10SM OVC027 21/15 A3021 -110 70 600 M /M RMK AO2 T02060150 $
94728KNYC NYC20250801142512908/01/25 14:25:31  5-MIN KNYC 011925Z AUTO 04007KT 010V080 10SM OVC027 21/15 A3021 -110 70 600 050/07 020V090 RMK AO2 T02060150 $
94728KNYC NYC20250801143011308/01/25 14:30:31  5-MIN KNYC 011930Z AUTO VRB06KT 10SM OVC027 21/15 A3021 -110 68 600 VRB/06 RMK AO2 T02110150 $
94728KNYC NYC20250801143511308/01/25 14:35:31  5-MIN KNYC 011935Z AUTO VRB06KT 10SM OVC027 21/15 A3021 -110 68 600 VRB/06 RMK AO2 T02110150 $
94728KNYC NYC20250801144011308/01/25 14:40:31  5-MIN KNYC 011940Z AUTO VRB06KT 10SM OVC027 21/15 A3021 -110 68 600 VRB/06 RMK AO2 T02110150 $
94728KNYC NYC20250801144512008/01/25 14:45:31  5-MIN KNYC 011945Z AUTO 02006KT 10SM OVC029 21/15 A3021 -110 68 600 030/06 RMK AO2 SLP222 T02110150 $
94728KNYC NYC20250801145012008/01/25 14:50:31  5-MIN KNYC 011950Z AUTO VRB04KT 10SM OVC029 21/15 A3022 -110 68 600 VRB/04 RMK AO2 SLP223 T02110150 $
94728KNYC NYC20250801145511308/01/25 14:55:31  5-MIN KNYC 011955Z AUTO VRB04KT 10SM OVC029 21/15 A3022 -110 68 600 VRB/04 RMK AO2 T02110150 $
94728KNYC NYC20250801150012008/01/25 15:00:31  5-MIN KNYC 012000Z AUTO 03005KT 10SM BKN026 OVC032 21/16 A3022 -110 70 600 040/05 RMK AO2 T02110156 $
94728KNYC NYC20250801150512008/01/25 15:05:31  5-MIN KNYC 012005Z AUTO VRB04KT 10SM BKN026 OVC032 22/15 A3022 -110 65 700 VRB/04 RMK AO2 T02170150 $
94728KNYC NYC20250801151012008/01/25 15:10:31  5-MIN KNYC 012010Z AUTO 02005KT 10SM BKN026 OVC032 22/15 A3022 -110 65 700 030/05 RMK AO2 T02170150 $
94728KNYC NYC20250801151512708/01/25 15:15:31  5-MIN KNYC 012015Z AUTO 03006KT 10SM BKN026 BKN032 OVC050 22/15 A3022 -110 65 700 040/06 RMK AO2 T02170150 $
94728KNYC NYC20250801152012708/01/25 15:20:31  5-MIN KNYC 012020Z AUTO 06008KT 10SM SCT026 BKN050 OVC060 22/15 A3022 -110 65 700 070/08 RMK AO2 T02170150 $
94728KNYC NYC20250801152512708/01/25 15:25:31  5-MIN KNYC 012025Z AUTO 05008KT 10SM SCT026 BKN050 OVC060 22/15 A3022 -110 65 700 070/08 RMK AO2 T02170150 $
94728KNYC NYC20250801153012708/01/25 15:30:31  5-MIN KNYC 012030Z AUTO VRB05KT 10SM FEW026 BKN043 OVC060 22/15 A3022 -120 65 700 VRB/05 RMK AO2 T02170150 $
94728KNYC NYC20250801153512708/01/25 15:35:31  5-MIN KNYC 012035Z AUTO VRB05KT 10SM FEW026 BKN050 OVC060 22/15 A3022 -110 63 700 VRB/05 RMK AO2 T02220150 $
94728KNYC NYC20250801154012708/01/25 15:40:31  5-MIN KNYC 012040Z AUTO VRB04KT 10SM SCT041 SCT050 OVC060 22/15 A3022 -110 63 700 VRB/04 RMK AO2 T02220150 $
94728KNYC NYC20250801154513308/01/25 15:45:31  5-MIN KNYC 012045Z AUTO VRB04KT 10SM BKN041 OVC060 22/15 A3022 -110 63 700 VRB/04 RMK AO2 SLP225 T02220150 52002 $
94728KNYC NYC20250801155014008/01/25 15:50:31  5-MIN KNYC 012050Z AUTO VRB06KT 10SM FEW029 BKN043 OVC060 22/14 A3022 -120 63 700 VRB/06 RMK AO2 SLP225 T02170144 52002 $
94728KNYC NYC20250801155512708/01/25 15:55:31  5-MIN KNYC 012055Z AUTO 02008KT 10SM FEW029 BKN043 OVC060 22/14 A3022 -120 63 700 040/08 RMK AO2 T02170144 $
94728KNYC NYC20250801160012708/01/25 16:00:31  5-MIN KNYC 012100Z AUTO VRB05KT 10SM FEW030 SCT039 OVC050 22/14 A3023 -120 63 700 VRB/05 RMK AO2 T02170144 $
94728KNYC NYC20250801160512708/01/25 16:05:31  5-MIN KNYC 012105Z AUTO 05006KT 10SM FEW030 BKN050 OVC060 22/14 A3023 -120 63 700 060/06 RMK AO2 T02170144 $
94728KNYC NYC20250801161012708/01/25 16:10:31  5-MIN KNYC 012110Z AUTO 05006KT 10SM FEW030 BKN050 OVC060 22/14 A3023 -120 63 700 060/06 RMK AO2 T02170144 $
94728KNYC NYC20250801161512708/01/25 16:15:31  5-MIN KNYC 012115Z AUTO 05007KT 10SM FEW030 BKN050 OVC065 22/15 A3023 -120 63 700 060/07 RMK AO2 T02220150 $
94728KNYC NYC20250801162012708/01/25 16:20:31  5-MIN KNYC 012120Z AUTO 03006KT 10SM FEW039 BKN050 OVC065 22/14 A3023 -120 61 700 040/06 RMK AO2 T02220144 $
94728KNYC NYC20250801162512008/01/25 16:25:31  5-MIN KNYC 012125Z AUTO VRB06KT 10SM SCT050 OVC070 22/14 A3023 -120 61 700 VRB/06 RMK AO2 T02220144 $
94728KNYC NYC20250801163012008/01/25 16:30:31  5-MIN KNYC 012130Z AUTO VRB04KT 10SM FEW050 OVC070 22/14 A3023 -120 61 700 VRB/04 RMK AO2 T02220144 $
94728KNYC NYC20250801163512708/01/25 16:35:31  5-MIN KNYC 012135Z AUTO VRB03KT 10SM FEW030 FEW050 OVC070 22/14 A3023 -120 61 700 VRB/03 RMK AO2 T02220144 $
94728KNYC NYC20250801164012708/01/25 16:40:31  5-MIN KNYC 012140Z AUTO VRB05KT 10SM FEW030 SCT050 OVC070 22/15 A3022 -120 63 700 VRB/05 RMK AO2 T02220150 $
94728KNYC NYC20250801164512708/01/25 16:45:31  5-MIN KNYC 012145Z AUTO 05004KT 10SM SCT030 BKN070 23/15 A3022 -120 61 800 070/04 RMK AO2 SLP226 T02280150 $
94728KNYC NYC20250801165011708/01/25 16:50:31  5-MIN KNYC 012150Z AUTO 10SM SCT030 OVC070 23/15 A3023 -120 61 800 M /M RMK AO2 SLP226 T02280150 $
94728KNYC NYC20250801165512008/01/25 16:55:31  5-MIN KNYC 012155Z AUTO 06004KT 10SM BKN030 OVC070 23/15 A3022 -120 61 800 070/04 RMK AO2 T02280150 $
94728KNYC NYC20250801170012008/01/25 17:00:31  5-MIN KNYC 012200Z AUTO 09006KT 10SM BKN030 BKN070 22/15 A3022 -110 63 700 100/06 RMK AO2 T02220150 $
94728KNYC NYC20250801170512008/01/25 17:05:31  5-MIN KNYC 012205Z AUTO 08006KT 10SM SCT030 BKN070 22/15 A3022 -110 63 700 090/06 RMK AO2 T02220150 $
94728KNYC NYC20250801171012008/01/25 17:10:31  5-MIN KNYC 012210Z AUTO VRB03KT 10SM SCT030 SCT070 22/15 A3022 -110 65 700 VRB/03 RMK AO2 T02170150 $
94728KNYC NYC20250801171511008/01/25 17:15:31  5-MIN KNYC 012215Z AUTO 10SM FEW030 SCT070 22/15 A3022 -110 65 700 M /M RMK AO2 T02170150 $
94728KNYC NYC20250801172012008/01/25 17:20:31  5-MIN KNYC 012220Z AUTO 00000KT 10SM FEW030 SCT070 22/15 A3022 -110 65 700 000/00 RMK AO2 T02170150 $
94728KNYC NYC20250801172511308/01/25 17:25:31  5-MIN KNYC 012225Z AUTO 00000KT 10SM SCT070 22/16 A3022 -110 68 700 000/00 RMK AO2 T02170156 $
94728KNYC NYC20250801173011308/01/25 17:30:31  5-MIN KNYC 012230Z AUTO 04003KT 10SM FEW070 22/16 A3022 -110 68 700 060/03 RMK AO2 T02170156 $
94728KNYC NYC20250801173511308/01/25 17:35:31  5-MIN KNYC 012235Z AUTO VRB03KT 10SM FEW070 22/16 A3022 -110 68 700 VRB/03 RMK AO2 T02170156 $
94728KNYC NYC20250801174011208/01/25 17:40:31  5-MIN KNYC 012240Z AUTO 00000KT 9SM FEW070 22/16 A3022 -110 68 700 000/00 RMK AO2 T02170156 $
94728KNYC NYC20250801174511908/01/25 17:45:31  5-MIN KNYC 012245Z AUTO 00000KT 9SM FEW070 22/15 A3022 -110 65 700 000/00 RMK AO2 SLP223 T02170150 $
94728KNYC NYC20250801175012008/01/25 17:50:31  5-MIN KNYC 012250Z AUTO 00000KT 10SM FEW070 22/14 A3022 -110 61 700 000/00 RMK AO2 SLP223 T02220144 $
94728KNYC NYC20250801175511008/01/25 17:55:31  5-MIN KNYC 012255Z AUTO 00000KT 10SM CLR 22/15 A3022 -110 63 700 000/00 RMK AO2 T02220150 $
94728KNYC NYC20250801180011008/01/25 18:00:31  5-MIN KNYC 012300Z AUTO 00000KT 10SM CLR 22/15 A3022 -110 65 700 000/00 RMK AO2 T02170150 $
94728KNYC NYC20250801180511008/01/25 18:05:31  5-MIN KNYC 012305Z AUTO 00000KT 10SM CLR 22/15 A3022 -110 65 700 000/00 RMK AO2 T02170150 $
94728KNYC NYC20250801181011008/01/25 18:10:31  5-MIN KNYC 012310Z AUTO 00000KT 10SM CLR 22/15 A3022 -110 65 700 000/00 RMK AO2 T02170150 $
94728KNYC NYC20250801181511008/01/25 18:15:31  5-MIN KNYC 012315Z AUTO 00000KT 10SM CLR 22/15 A3022 -110 65 700 000/00 RMK AO2 T02170150 $
94728KNYC NYC20250801182011008/01/25 18:20:31  5-MIN KNYC 012320Z AUTO 00000KT 10SM CLR 22/15 A3022 -110 65 700 000/00 RMK AO2 T02170150 $
94728KNYC NYC20250801182511008/01/25 18:25:31  5-MIN KNYC 012325Z AUTO 00000KT 10SM CLR 21/15 A3022 -110 68 600 000/00 RMK AO2 T02110150 $
94728KNYC NYC20250801183011008/01/25 18:30:31  5-MIN KNYC 012330Z AUTO 36005KT 10SM CLR 22/15 A3022 -120 65 700 010/05 RMK AO2 T02170150 $
94728KNYC NYC20250801183511008/01/25 18:35:31  5-MIN KNYC 012335Z AUTO VRB03KT 10SM CLR 22/14 A3022 -110 59 700 VRB/03 RMK AO2 T02220139 $
94728KNYC NYC20250801184011008/01/25 18:40:31  5-MIN KNYC 012340Z AUTO 02005KT 10SM CLR 22/14 A3022 -110 59 700 030/05 RMK AO2 T02220139 $
94728KNYC NYC20250801184513508/01/25 18:45:31  5-MIN KNYC 012345Z AUTO 36003KT 10SM CLR 22/14 A3022 -110 59 700 010/03 RMK AO2 SLP225 T02220139 10228 20206 52006 $
94728KNYC NYC20250801185013508/01/25 18:50:31  5-MIN KNYC 012350Z AUTO 02003KT 10SM CLR 22/14 A3022 -110 61 700 030/03 RMK AO2 SLP225 T02170139 10228 20206 52006 $
94728KNYC NYC20250801185511008/01/25 18:55:31  5-MIN KNYC 012355Z AUTO 01005KT 10SM CLR 22/14 A3022 -110 61 700 020/05 RMK AO2 T02170139 $
94728KNYC NYC20250801190011008/01/25 19:00:31  5-MIN KNYC 020000Z AUTO 00000KT 10SM CLR 22/13 A3022 -110 58 700 000/00 RMK AO2 T02170133 $
94728KNYC NYC20250801190511008/01/25 19:05:31  5-MIN KNYC 020005Z AUTO VRB04KT 10SM CLR 21/14 A3022 -120 63 600 VRB/04 RMK AO2 T02110139 $
94728KNYC NYC20250801191011008/01/25 19:10:31  5-MIN KNYC 020010Z AUTO 03003KT 10SM CLR 22/14 A3022 -120 61 700 040/03 RMK AO2 T02170139 $
94728KNYC NYC20250801191511008/01/25 19:15:31  5-MIN KNYC 020015Z AUTO 00000KT 10SM CLR 22/14 A3022 -120 61 700 000/00 RMK AO2 T02170139 $
94728KNYC NYC20250801192011008/01/25 19:20:31  5-MIN KNYC 020020Z AUTO 03003KT 10SM CLR 21/14 A3023 -120 67 500 040/03 RMK AO2 T02060144 $
94728KNYC NYC20250801192511008/01/25 19:25:31  5-MIN KNYC 020025Z AUTO 00000KT 10SM CLR 20/14 A3023 -120 67 500 000/00 RMK AO2 T02000139 $
94728KNYC NYC20250801233511008/01/25 23:35:31  5-MIN KNYC 020435Z AUTO 30003KT 10SM CLR 19/14 A3024 -130 70 400 310/03 RMK AO2 T01940139 $
94728KNYC NYC20250801234011008/01/25 23:40:31  5-MIN KNYC 020440Z AUTO 00000KT 10SM CLR 19/14 A3024 -130 72 400 000/00 RMK AO2 T01940144 $
94728KNYC NYC20250801234512708/01/25 23:45:31  5-MIN KNYC 020445Z AUTO 00000KT 10SM CLR 19/14 A3024 -130 70 400 000/00 RMK AO2 SLP232 T01940139 402280172 $
94728KNYC NYC20250801235012708/01/25 23:50:31  5-MIN KNYC 020450Z AUTO 00000KT 10SM CLR 19/14 A3024 -130 72 400 000/00 RMK AO2 SLP232 T01940144 402280172 $
94728KNYC NYC20250801235511008/01/25 23:55:31  5-MIN KNYC 020455Z AUTO 30003KT 10SM CLR 19/14 A3024 -130 72 400 320/03 RMK AO2 T01940144 $
94728KNYC NYC20250802000011008/02/25 00:00:31  5-MIN KNYC 020500Z AUTO 31003KT 10SM CLR 19/14 A3024 -130 72 400 320/03 RMK AO2 T01940144 $
94728KNYC NYC20250802000510908/02/25 00:05:31  5-MIN KNYC 020505Z AUTO 30003KT 9SM CLR 20/14 A3024 -130 70 500 310/03 RMK AO2 T02000144 $
94728KNYC NYC20250802001010908/02/25 00:10:31  5-MIN KNYC 020510Z AUTO 00000KT 9SM CLR 19/14 A3024 -130 72 400 000/00 RMK AO2 T01940144 $
94728KNYC NYC20250802001510908/02/25 00:15:31  5-MIN KNYC 020515Z AUTO 31003KT 9SM CLR 19/15 A3024 -130 75 400 320/03 RMK AO2 T01940150 $
94728KNYC NYC20250802002010908/02/25 00:20:31  5-MIN KNYC 020520Z AUTO 00000KT 9SM CLR 19/15 A3024 -130 75 400 000/00 RMK AO2 T01940150 $
94728KNYC NYC20250802002510908/02/25 00:25:31  5-MIN KNYC 020525Z AUTO 29003KT 9SM CLR 19/15 A3024 -130 75 400 300/03 RMK AO2 T01940150 $
94728KNYC NYC20250802003010908/02/25 00:30:31  5-MIN KNYC 020530Z AUTO 00000KT 9SM CLR 19/15 A3024 -130 75 400 000/00 RMK AO2 T01940150 $
94728KNYC NYC20250802003510908/02/25 00:35:31  5-MIN KNYC 020535Z AUTO 00000KT 9SM CLR 19/15 A3024 -130 78 300 000/00 RMK AO2 T01890150 $
94728KNYC NYC20250802004010908/02/25 00:40:31  5-MIN KNYC 020540Z AUTO 00000KT 9SM CLR 19/15 A3024 -130 78 300 000/00 RMK AO2 T01890150 $
94728KNYC NYC20250802004513408/02/25 00:45:31  5-MIN KNYC 020545Z AUTO 00000KT 9SM CLR 19/15 A3024 -130 78 300 000/00 RMK AO2 SLP230 T01890150 10217 20189 50010 $
94728KNYC NYC20250802005013408/02/25 00:50:31  5-MIN KNYC 020550Z AUTO 00000KT 9SM CLR 19/15 A3024 -130 78 300 000/00 RMK AO2 SLP231 T01890150 10217 20189 50010 $
94728KNYC NYC20250802005510908/02/25 00:55:31  5-MIN KNYC 020555Z AUTO 00000KT 9SM CLR 19/14 A3024 -130 72 400 000/00 RMK AO2 T01940144 $
94728KNYC NYC20250802010011008/02/25 01:00:31  5-MIN KNYC 020600Z AUTO 00000KT 10SM CLR 19/14 A3024 -130 72 400 000/00 RMK AO2 T01940144 $
94728KNYC NYC20250802010510908/02/25 01:05:31  5-MIN KNYC 020605Z AUTO 00000KT 9SM CLR 19/14 A3024 -130 75 300 000/00 RMK AO2 T01890144 $
94728KNYC NYC20250802011010908/02/25 01:10:31  5-MIN KNYC 020610Z AUTO 00000KT 9SM CLR 19/14 A3024 -130 75 300 000/00 RMK AO2 T01890144 $
94728KNYC NYC20250802011510908/02/25 01:15:31  5-MIN KNYC 020615Z AUTO 00000KT 9SM CLR 19/15 A3024 -130 78 300 000/00 RMK AO2 T01890150 $
94728KNYC NYC20250802012010908/02/25 01:20:31  5-MIN KNYC 020620Z AUTO 00000KT 9SM CLR 19/14 A3024 -130 75 300 000/00 RMK AO2 T01890144 $
94728KNYC NYC20250802012511008/02/25 01:25:31  5-MIN KNYC 020625Z AUTO 00000KT 10SM CLR 19/14 A3024 -130 75 300 000/00 RMK AO2 T01890144 $
94728KNYC NYC20250802013011008/02/25 01:30:31  5-MIN KNYC 020630Z AUTO 31004KT 10SM CLR 18/14 A3024 -130 78 300 320/04 RMK AO2 T01830144 $
94728KNYC NYC20250802013510908/02/25 01:35:31  5-MIN KNYC 020635Z AUTO 30004KT 9SM CLR 19/14 A3024 -130 75 300 310/04 RMK AO2 T01890144 $
94728KNYC NYC20250802014010908/02/25 01:40:31  5-MIN KNYC 020640Z AUTO 30003KT 9SM CLR 19/14 A3024 -130 75 300 310/03 RMK AO2 T01890144 $
94728KNYC NYC20250802014511608/02/25 01:45:31  5-MIN KNYC 020645Z AUTO 29003KT 9SM CLR 19/15 A3024 -130 78 300 310/03 RMK AO2 SLP231 T01890150 $
94728KNYC NYC20250802015011708/02/25 01:50:31  5-MIN KNYC 020650Z AUTO 31003KT 10SM CLR 19/15 A3024 -130 78 300 320/03 RMK AO2 SLP231 T01890150 $
94728KNYC NYC20250802015511008/02/25 01:55:31  5-MIN KNYC 020655Z AUTO 30005KT 10SM CLR 19/15 A3024 -130 78 300 310/05 RMK AO2 T01890150 $
94728KNYC NYC20250802020010908/02/25 02:00:31  5-MIN KNYC 020700Z AUTO 30005KT 9SM CLR 19/15 A3024 -130 75 400 310/05 RMK AO2 T01940150 $
94728KNYC NYC20250802020510908/02/25 02:05:31  5-MIN KNYC 020705Z AUTO 30005KT 9SM CLR 19/15 A3024 -130 78 300 310/05 RMK AO2 T01890150 $
94728KNYC NYC20250802021011008/02/25 02:10:31  5-MIN KNYC 020710Z AUTO 30004KT 10SM CLR 19/15 A3024 -130 78 300 310/04 RMK AO2 T01890150 $
94728KNYC NYC20250802021511008/02/25 02:15:31  5-MIN KNYC 020715Z AUTO 30003KT 10SM CLR 19/15 A3024 -130 78 300 310/03 RMK AO2 T01890150 $
94728KNYC NYC20250802022011008/02/25 02:20:31  5-MIN KNYC 020720Z AUTO 29003KT 10SM CLR 19/15 A3024 -130 78 300 310/03 RMK AO2 T01890150 $
94728KNYC NYC20250802022511008/02/25 02:25:31  5-MIN KNYC 020725Z AUTO 29003KT 10SM CLR 19/15 A3024 -130 78 300 310/03 RMK AO2 T01890150 $
94728KNYC NYC20250802023011008/02/25 02:30:31  5-MIN KNYC 020730Z AUTO 30004KT 10SM CLR 19/15 A3024 -130 78 300 310/04 RMK AO2 T01890150 $
94728KNYC NYC20250802023511008/02/25 02:35:31  5-MIN KNYC 020735Z AUTO 29004KT 10SM CLR 19/15 A3024 -130 78 300 300/04 RMK AO2 T01890150 $
94728KNYC NYC20250802024011008/02/25 02:40:31  5-MIN KNYC 020740Z AUTO 00000KT 10SM CLR 19/15 A3024 -130 78 300 000/00 RMK AO2 T01890150 $
94728KNYC NYC20250802024511708/02/25 02:45:31  5-MIN KNYC 020745Z AUTO 00000KT 10SM CLR 18/15 A3024 -130 81 300 000/00 RMK AO2 SLP231 T01830150 $
94728KNYC NYC20250802025011708/02/25 02:50:31  5-MIN KNYC 020750Z AUTO 00000KT 10SM CLR 18/15 A3024 -130 81 300 000/00 RMK AO2 SLP232 T01830150 $
94728KNYC NYC20250802025511008/02/25 02:55:31  5-MIN KNYC 020755Z AUTO 00000KT 10SM CLR 18/15 A3024 -130 81 300 000/00 RMK AO2 T01830150 $
94728KNYC NYC20250802030011008/02/25 03:00:31  5-MIN KNYC 020800Z AUTO 00000KT 10SM CLR 18/15 A3024 -130 81 300 000/00 RMK AO2 T01830150 $
94728KNYC NYC20250802030511008/02/25 03:05:31  5-MIN KNYC 020805Z AUTO 00000KT 10SM CLR 18/14 A3024 -130 78 300 000/00 RMK AO2 T01830144 $
94728KNYC NYC20250802031011008/02/25 03:10:31  5-MIN KNYC 020810Z AUTO 00000KT 10SM CLR 18/14 A3024 -130 78 300 000/00 RMK AO2 T01830144 $
94728KNYC NYC20250802031511008/02/25 03:15:31  5-MIN KNYC 020815Z AUTO 00000KT 10SM CLR 18/15 A3024 -130 81 300 000/00 RMK AO2 T01830150 $
94728KNYC NYC20250802032011008/02/25 03:20:31  5-MIN KNYC 020820Z AUTO 00000KT 10SM CLR 18/15 A3024 -140 81 300 000/00 RMK AO2 T01830150 $
94728KNYC NYC20250802032511008/02/25 03:25:31  5-MIN KNYC 020825Z AUTO 00000KT 10SM CLR 18/14 A3025 -140 78 300 000/00 RMK AO2 T01830144 $
94728KNYC NYC20250802033011008/02/25 03:30:31  5-MIN KNYC 020830Z AUTO 00000KT 10SM CLR 18/14 A3024 -140 75 300 000/00 RMK AO2 T01830139 $
94728KNYC NYC20250802033511008/02/25 03:35:31  5-MIN KNYC 020835Z AUTO 31003KT 10SM CLR 19/14 A3024 -140 72 300 330/03 RMK AO2 T01890139 $
94728KNYC NYC20250802034011008/02/25 03:40:31  5-MIN KNYC 020840Z AUTO 00000KT 10SM CLR 18/14 A3024 -130 75 300 000/00 RMK AO2 T01830139 $
94728KNYC NYC20250802034512308/02/25 03:45:31  5-MIN KNYC 020845Z AUTO 00000KT 10SM CLR 18/14 A3025 -140 75 300 000/00 RMK AO2 SLP233 T01830139 56004 $
94728KNYC NYC20250802035012308/02/25 03:50:31  5-MIN KNYC 020850Z AUTO 00000KT 10SM CLR 18/14 A3024 -130 78 200 000/00 RMK AO2 SLP232 T01780139 56004 $
94728KNYC NYC20250802035511008/02/25 03:55:31  5-MIN KNYC 020855Z AUTO 00000KT 10SM CLR 18/14 A3025 -140 78 200 000/00 RMK AO2 T01780139 $
94728KNYC NYC20250802040011008/02/25 04:00:31  5-MIN KNYC 020900Z AUTO 30003KT 10SM CLR 17/14 A3025 -140 80 100 310/03 RMK AO2 T01720139 $
94728KNYC NYC20250802040511008/02/25 04:05:31  5-MIN KNYC 020905Z AUTO 00000KT 10SM CLR 17/14 A3025 -140 80 100 000/00 RMK AO2 T01720139 $
94728KNYC NYC20250802041011008/02/25 04:10:31  5-MIN KNYC 020910Z AUTO 00000KT 10SM CLR 18/14 A3025 -140 78 200 000/00 RMK AO2 T01780139 $
94728KNYC NYC20250802041511008/02/25 04:15:31  5-MIN KNYC 020915Z AUTO 28003KT 10SM CLR 18/14 A3025 -140 81 200 300/03 RMK AO2 T01780144 $
94728KNYC NYC20250802042011008/02/25 04:20:31  5-MIN KNYC 020920Z AUTO 00000KT 10SM CLR 18/14 A3026 -150 81 200 000/00 RMK AO2 T01780144 $
94728KNYC NYC20250802042511008/02/25 04:25:31  5-MIN KNYC 020925Z AUTO 00000KT 10SM CLR 18/14 A3026 -150 81 200 000/00 RMK AO2 T01780144 $
94728KNYC NYC20250802043011008/02/25 04:30:31  5-MIN KNYC 020930Z AUTO 00000KT 10SM CLR 18/14 A3026 -150 81 200 000/00 RMK AO2 T01780144 $
94728KNYC NYC20250802043511008/02/25 04:35:31  5-MIN KNYC 020935Z AUTO 00000KT 10SM CLR 18/14 A3026 -150 81 200 000/00 RMK AO2 T01780144 $
94728KNYC NYC20250802044011008/02/25 04:40:31  5-MIN KNYC 020940Z AUTO 00000KT 10SM CLR 18/14 A3026 -150 81 200 000/00 RMK AO2 T01780144 $
94728KNYC NYC20250802044511708/02/25 04:45:31  5-MIN KNYC 020945Z AUTO 30003KT 10SM CLR 18/14 A3026 -150 81 200 310/03 RMK AO2 SLP238 T01780144 $
94728KNYC NYC20250802045011708/02/25 04:50:31  5-MIN KNYC 020950Z AUTO VRB03KT 10SM CLR 17/14 A3026 -150 80 100 VRB/03 RMK AO2 SLP238 T01720139 $
94728KNYC NYC20250802045511008/02/25 04:55:31  5-MIN KNYC 020955Z AUTO VRB03KT 10SM CLR 18/14 A3026 -150 78 200 VRB/03 RMK AO2 T01780139 $
94728KNYC NYC20250802050011008/02/25 05:00:31  5-MIN KNYC 021000Z AUTO 00000KT 10SM CLR 18/14 A3026 -150 78 200 000/00 RMK AO2 T01780139 $
94728KNYC NYC20250802050511008/02/25 05:05:31  5-MIN KNYC 021005Z AUTO VRB03KT 10SM CLR 18/14 A3027 -150 78 200 VRB/03 RMK AO2 T01780139 $
94728KNYC NYC20250802051011008/02/25 05:10:31  5-MIN KNYC 021010Z AUTO 00000KT 10SM CLR 18/14 A3027 -150 78 200 000/00 RMK AO2 T01780139 $
94728KNYC NYC20250802051511008/02/25 05:15:31  5-MIN KNYC 021015Z AUTO 01003KT 10SM CLR 18/13 A3027 -150 72 200 020/03 RMK AO2 T01830133 $
94728KNYC NYC20250802052011008/02/25 05:20:31  5-MIN KNYC 021020Z AUTO 00000KT 10SM CLR 18/13 A3027 -160 70 200 000/00 RMK AO2 T01830128 $
94728KNYC NYC20250802052511008/02/25 05:25:31  5-MIN KNYC 021025Z AUTO 34004KT 10SM CLR 18/13 A3027 -160 72 200 350/04 RMK AO2 T01780128 $
94728KNYC NYC20250802053011008/02/25 05:30:31  5-MIN KNYC 021030Z AUTO VRB04KT 10SM CLR 18/13 A3027 -160 70 200 VRB/04 RMK AO2 T01830128 $
94728KNYC NYC20250802053511008/02/25 05:35:31  5-MIN KNYC 021035Z AUTO 00000KT 10SM CLR 18/12 A3027 -160 67 200 000/00 RMK AO2 T01830122 $
94728KNYC NYC20250802054011008/02/25 05:40:31  5-MIN KNYC 021040Z AUTO 00000KT 10SM CLR 18/13 A3028 -160 70 200 000/00 RMK AO2 T01830128 $
94728KNYC NYC20250802054511708/02/25 05:45:31  5-MIN KNYC 021045Z AUTO 01003KT 10SM CLR 18/13 A3028 -160 70 200 020/03 RMK AO2 SLP243 T01830128 $
94728KNYC NYC20250802055011708/02/25 05:50:31  5-MIN KNYC 021050Z AUTO 00000KT 10SM CLR 18/13 A3028 -160 70 200 000/00 RMK AO2 SLP243 T01830128 $
94728KNYC NYC20250802055511008/02/25 05:55:31  5-MIN KNYC 021055Z AUTO 00000KT 10SM CLR 18/13 A3028 -170 70 200 000/00 RMK AO2 T01830128 $
94728KNYC NYC20250802060011008/02/25 06:00:31  5-MIN KNYC 021100Z AUTO VRB03KT 10SM CLR 18/13 A3028 -170 70 200 VRB/03 RMK AO2 T01830128 $
94728KNYC NYC20250802060511008/02/25 06:05:31  5-MIN KNYC 021105Z AUTO 33003KT 10SM CLR 18/13 A3028 -170 70 200 340/03 RMK AO2 T01830128 $
94728KNYC NYC20250802061011008/02/25 06:10:31  5-MIN KNYC 021110Z AUTO 00000KT 10SM CLR 18/13 A3028 -170 70 200 000/00 RMK AO2 T01830128 $
94728KNYC NYC20250802061511008/02/25 06:15:31  5-MIN KNYC 021115Z AUTO 00000KT 10SM CLR 18/13 A3028 -170 70 200 000/00 RMK AO2 T01830128 $
94728KNYC NYC20250802062011008/02/25 06:20:31  5-MIN KNYC 021120Z AUTO 00000KT 10SM CLR 18/13 A3028 -170 70 200 000/00 RMK AO2 T01830128 $
94728KNYC NYC20250802062511008/02/25 06:25:31  5-MIN KNYC 021125Z AUTO 03003KT 10SM CLR 18/13 A3028 -170 70 200 040/03 RMK AO2 T01830128 $
94728KNYC NYC20250802063011008/02/25 06:30:31  5-MIN KNYC 021130Z AUTO 01005KT 10SM CLR 19/13 A3028 -170 67 300 030/05 RMK AO2 T01890128 $
94728KNYC NYC20250802063511008/02/25 06:35:31  5-MIN KNYC 021135Z AUTO VRB03KT 10SM CLR 19/13 A3028 -170 67 300 VRB/03 RMK AO2 T01890128 $
94728KNYC NYC20250802064011008/02/25 06:40:31  5-MIN KNYC 021140Z AUTO VRB05KT 10SM CLR 19/13 A3028 -170 70 300 VRB/05 RMK AO2 T01890133 $
94728KNYC NYC20250802064515108/02/25 06:45:31  5-MIN KNYC 021145Z AUTO 04007KT 360V080 10SM CLR 19/13 A3028 -170 67 300 050/07 010V090 RMK AO2 SLP245 T01940133 10194 20172 52001 $
94728KNYC NYC20250802065015108/02/25 06:50:31  5-MIN KNYC 021150Z AUTO 05007KT 010V080 10SM CLR 19/13 A3028 -170 65 300 060/07 020V090 RMK AO2 SLP246 T01940128 10194 20172 52001 $
94728KNYC NYC20250802065511008/02/25 06:55:31  5-MIN KNYC 021155Z AUTO VRB05KT 10SM CLR 19/13 A3028 -170 65 300 VRB/05 RMK AO2 T01940128 $
94728KNYC NYC20250802070011008/02/25 07:00:31  5-MIN KNYC 021200Z AUTO 05004KT 10SM CLR 19/13 A3028 -170 65 300 060/04 RMK AO2 T01940128 $
94728KNYC NYC20250802070511008/02/25 07:05:31  5-MIN KNYC 021205Z AUTO VRB03KT 10SM CLR 19/13 A3028 -170 65 300 VRB/03 RMK AO2 T01940128 $
94728KNYC NYC20250802071011008/02/25 07:10:31  5-MIN KNYC 021210Z AUTO 06005KT 10SM CLR 19/13 A3028 -170 65 300 080/05 RMK AO2 T01940128 $
94728KNYC NYC20250802071511008/02/25 07:15:31  5-MIN KNYC 021215Z AUTO VRB04KT 10SM CLR 19/13 A3028 -170 67 300 VRB/04 RMK AO2 T01940133 $
94728KNYC NYC20250802072011008/02/25 07:20:31  5-MIN KNYC 021220Z AUTO 01004KT 10SM CLR 19/13 A3028 -170 67 300 020/04 RMK AO2 T01940133 $
94728KNYC NYC20250802072511008/02/25 07:25:31  5-MIN KNYC 021225Z AUTO VRB06KT 10SM CLR 19/13 A3029 -170 65 300 VRB/06 RMK AO2 T01940128 $
94728KNYC NYC20250802073011008/02/25 07:30:31  5-MIN KNYC 021230Z AUTO 35005KT 10SM CLR 19/13 A3028 -170 65 300 010/05 RMK AO2 T01940128 $
94728KNYC NYC20250802073511008/02/25 07:35:31  5-MIN KNYC 021235Z AUTO VRB04KT 10SM CLR 19/13 A3029 -170 65 300 VRB/04 RMK AO2 T01940128 $
94728KNYC NYC20250802074011008/02/25 07:40:31  5-MIN KNYC 021240Z AUTO 02005KT 10SM CLR 20/13 A3029 -180 63 400 030/05 RMK AO2 T02000128 $
94728KNYC NYC20250802074510708/02/25 07:45:31  5-MIN KNYC 021245Z AUTO 10SM CLR 20/13 A3029 -170 63 400 M /M RMK AO2 SLP247 T02000128 $
94728KNYC NYC20250802075011708/02/25 07:50:31  5-MIN KNYC 021250Z AUTO VRB04KT 10SM CLR 20/13 A3029 -180 63 400 VRB/04 RMK AO2 SLP247 T02000128 $
94728KNYC NYC20250802075511008/02/25 07:55:31  5-MIN KNYC 021255Z AUTO 04007KT 10SM CLR 20/13 A3029 -180 65 400 060/07 RMK AO2 T02000133 $
94728KNYC NYC20250802080011008/02/25 08:00:31  5-MIN KNYC 021300Z AUTO 05006KT 10SM CLR 21/13 A3029 -180 63 500 060/06 RMK AO2 T02060133 $
94728KNYC NYC20250802080511008/02/25 08:05:31  5-MIN KNYC 021305Z AUTO VRB03KT 10SM CLR 20/13 A3029 -180 65 400 VRB/03 RMK AO2 T02000133 $
94728KNYC NYC20250802081011008/02/25 08:10:31  5-MIN KNYC 021310Z AUTO VRB04KT 10SM CLR 21/13 A3029 -180 63 500 VRB/04 RMK AO2 T02060133 $
94728KNYC NYC20250802081510008/02/25 08:15:31  5-MIN KNYC 021315Z AUTO 10SM CLR 21/13 A3029 -180 63 500 M /M RMK AO2 T02060133 $
94728KNYC NYC20250802082011008/02/25 08:20:31  5-MIN KNYC 021320Z AUTO 00000KT 10SM CLR 21/13 A3029 -180 63 500 000/00 RMK AO2 T02060133 $
94728KNYC NYC20250802082511008/02/25 08:25:31  5-MIN KNYC 021325Z AUTO VRB05KT 10SM CLR 21/14 A3029 -180 65 500 VRB/05 RMK AO2 T02060139 $
94728KNYC NYC20250802083011008/02/25 08:30:31  5-MIN KNYC 021330Z AUTO VRB05KT 10SM CLR 21/13 A3029 -180 63 500 VRB/05 RMK AO2 T02060133 $
94728KNYC NYC20250802083511008/02/25 08:35:31  5-MIN KNYC 021335Z AUTO VRB04KT 10SM CLR 21/14 A3029 -180 63 500 VRB/04 RMK AO2 T02110139 $
94728KNYC NYC20250802084011008/02/25 08:40:31  5-MIN KNYC 021340Z AUTO VRB04KT 10SM CLR 21/14 A3029 -180 63 500 VRB/04 RMK AO2 T02110139 $
94728KNYC NYC20250802084511708/02/25 08:45:31  5-MIN KNYC 021345Z AUTO VRB03KT 10SM CLR 21/14 A3029 -180 63 500 VRB/03 RMK AO2 SLP247 T02110139 $
94728KNYC NYC20250802085011708/02/25 08:50:31  5-MIN KNYC 021350Z AUTO VRB03KT 10SM CLR 21/14 A3029 -170 63 500 VRB/03 RMK AO2 SLP247 T02110139 $
94728KNYC NYC20250802085511008/02/25 08:55:31  5-MIN KNYC 021355Z AUTO VRB03KT 10SM CLR 21/14 A3029 -180 63 500 VRB/03 RMK AO2 T02110139 $
94728KNYC NYC20250802090011008/02/25 09:00:31  5-MIN KNYC 021400Z AUTO VRB04KT 10SM CLR 22/14 A3029 -170 61 600 VRB/04 RMK AO2 T02170139 $
94728KNYC NYC20250802090511008/02/25 09:05:31  5-MIN KNYC 021405Z AUTO 00000KT 10SM CLR 22/14 A3029 -170 61 600 000/00 RMK AO2 T02170139 $
94728KNYC NYC20250802091011008/02/25 09:10:31  5-MIN KNYC 021410Z AUTO VRB04KT 10SM CLR 22/14 A3029 -180 61 600 VRB/04 RMK AO2 T02170139 $
94728KNYC NYC20250802091511008/02/25 09:15:31  5-MIN KNYC 021415Z AUTO VRB04KT 10SM CLR 22/14 A3029 -180 63 600 VRB/04 RMK AO2 T02170144 $
94728KNYC NYC20250802092011008/02/25 09:20:31  5-MIN KNYC 021420Z AUTO VRB04KT 10SM CLR 22/14 A3029 -180 59 700 VRB/04 RMK AO2 T02220139 $
94728KNYC NYC20250802092511008/02/25 09:25:31  5-MIN KNYC 021425Z AUTO VRB04KT 10SM CLR 22/14 A3029 -170 59 700 VRB/04 RMK AO2 T02220139 $
94728KNYC NYC20250802093011008/02/25 09:30:31  5-MIN KNYC 021430Z AUTO 00000KT 10SM CLR 22/13 A3029 -170 56 700 000/00 RMK AO2 T02220133 $
94728KNYC NYC20250802093511008/02/25 09:35:31  5-MIN KNYC 021435Z AUTO VRB04KT 10SM CLR 22/14 A3029 -170 59 700 VRB/04 RMK AO2 T02220139 $
94728KNYC NYC20250802094011008/02/25 09:40:31  5-MIN KNYC 021440Z AUTO 00000KT 10SM CLR 23/14 A3028 -170 57 700 000/00 RMK AO2 T02280139 $
94728KNYC NYC20250802094512308/02/25 09:45:31  5-MIN KNYC 021445Z AUTO VRB05KT 10SM CLR 23/14 A3028 -170 57 700 VRB/05 RMK AO2 SLP246 T02280139 51014 $
94728KNYC NYC20250802095012308/02/25 09:50:31  5-MIN KNYC 021450Z AUTO VRB03KT 10SM CLR 23/14 A3028 -170 57 700 VRB/03 RMK AO2 SLP246 T02280139 51014 $
94728KNYC NYC20250802095511008/02/25 09:55:31  5-MIN KNYC 021455Z AUTO VRB03KT 10SM CLR 23/14 A3028 -170 55 800 VRB/03 RMK AO2 T02330139 $
94728KNYC NYC20250802100011008/02/25 10:00:31  5-MIN KNYC 021500Z AUTO VRB03KT 10SM CLR 23/14 A3028 -170 55 800 VRB/03 RMK AO2 T02330139 $
94728KNYC NYC20250802100511008/02/25 10:05:31  5-MIN KNYC 021505Z AUTO 06005KT 10SM CLR 23/13 A3028 -170 55 700 070/05 RMK AO2 T02280133 $
94728KNYC NYC20250802101011008/02/25 10:10:31  5-MIN KNYC 021510Z AUTO 03005KT 10SM CLR 23/14 A3027 -160 55 800 040/05 RMK AO2 T02330139 $
94728KNYC NYC20250802101511008/02/25 10:15:31  5-MIN KNYC 021515Z AUTO VRB03KT 10SM CLR 23/14 A3027 -160 55 800 VRB/03 RMK AO2 T02330139 $
94728KNYC NYC20250802102011008/02/25 10:20:31  5-MIN KNYC 021520Z AUTO VRB05KT 10SM CLR 23/14 A3027 -160 55 800 VRB/05 RMK AO2 T02330139 $
94728KNYC NYC20250802102511308/02/25 10:25:31  5-MIN KNYC 021525Z AUTO 11006KT 10SM FEW041 24/13 A3027 -160 49 900 120/06 RMK AO2 T02390128 $
94728KNYC NYC20250802103011308/02/25 10:30:31  5-MIN KNYC 021530Z AUTO VRB06KT 10SM FEW041 24/13 A3027 -160 49 900 VRB/06 RMK AO2 T02390128 $
94728KNYC NYC20250802103511308/02/25 10:35:31  5-MIN KNYC 021535Z AUTO VRB04KT 10SM FEW041 24/12 A3027 -160 46 900 VRB/04 RMK AO2 T02440122 $
94728KNYC NYC20250802104011308/02/25 10:40:31  5-MIN KNYC 021540Z AUTO VRB03KT 10SM FEW041 24/12 A3027 -160 44 900 VRB/03 RMK AO2 T02440117 $
94728KNYC NYC20250802104511708/02/25 10:45:31  5-MIN KNYC 021545Z AUTO 10SM FEW041 FEW050 23/12 A3027 -160 47 800 M /M RMK AO2 SLP241 T02330117 $
94728KNYC NYC20250802105014308/02/25 10:50:31  5-MIN KNYC 021550Z AUTO 08007KT 050V120 10SM FEW041 SCT050 24/09 A3027 -160 38 900 090/07 060V130 RMK AO2 SLP241 T02390089 $
94728KNYC NYC20250802105511308/02/25 10:55:31  5-MIN KNYC 021555Z AUTO VRB03KT 10SM FEW049 24/09 A3027 -160 38 900 VRB/03 RMK AO2 T02440094 $
94728KNYC NYC20250802110011308/02/25 11:00:31  5-MIN KNYC 021600Z AUTO 09007KT 10SM FEW049 24/09 A3027 -150 36 900 110/07 RMK AO2 T02440089 $
94728KNYC NYC20250802110511308/02/25 11:05:31  5-MIN KNYC 021605Z AUTO 08005KT 10SM FEW049 24/09 A3027 -150 38 900 090/05 RMK AO2 T02440094 $
94728KNYC NYC20250802111011408/02/25 11:10:31  5-MIN KNYC 021610Z AUTO VRB05KT 10SM FEW050 25/10 A3026 -150 38 1000 VRB/05 RMK AO2 T02500100 $
94728KNYC NYC20250802111511408/02/25 11:15:31  5-MIN KNYC 021615Z AUTO VRB06KT 10SM SCT050 25/10 A3026 -150 38 1000 VRB/06 RMK AO2 T02500100 $
94728KNYC NYC20250802112011408/02/25 11:20:31  5-MIN KNYC 021620Z AUTO 06007KT 10SM SCT050 25/09 A3026 -150 37 1000 070/07 RMK AO2 T02500094 $
94728KNYC NYC20250802112511408/02/25 11:25:31  5-MIN KNYC 021625Z AUTO 12006KT 10SM SCT050 26/10 A3025 -140 37 1100 130/06 RMK AO2 T02560100 $
94728KNYC NYC20250802113011408/02/25 11:30:31  5-MIN KNYC 021630Z AUTO VRB03KT 10SM SCT050 24/09 A3025 -140 38 1000 VRB/03 RMK AO2 T02440094 $
94728KNYC NYC20250802113510408/02/25 11:35:31  5-MIN KNYC 021635Z AUTO 10SM SCT055 25/10 A3025 -140 38 1000 M /M RMK AO2 T02500100 $
94728KNYC NYC20250802114011408/02/25 11:40:31  5-MIN KNYC 021640Z AUTO VRB03KT 10SM SCT050 25/09 A3025 -140 37 1000 VRB/03 RMK AO2 T02500094 $
94728KNYC NYC20250802114511108/02/25 11:45:31  5-MIN KNYC 021645Z AUTO 10SM FEW055 26/09 A3025 -140 34 1100 M /M RMK AO2 SLP235 T02560089 $
94728KNYC NYC20250802115011108/02/25 11:50:31  5-MIN KNYC 021650Z AUTO 10SM FEW055 26/09 A3025 -140 34 1100 M /M RMK AO2 SLP234 T02610094 $
94728KNYC NYC20250802115511408/02/25 11:55:31  5-MIN KNYC 021655Z AUTO VRB03KT 10SM FEW055 26/09 A3025 -140 34 1100 VRB/03 RMK AO2 T02560089 $
94728KNYC NYC20250802120011408/02/25 12:00:31  5-MIN KNYC 021700Z AUTO VRB05KT 10SM FEW060 27/09 A3024 -140 33 1200 VRB/05 RMK AO2 T02670094 $
94728KNYC NYC20250802120511408/02/25 12:05:31  5-MIN KNYC 021705Z AUTO 08005KT 10SM FEW060 26/09 A3024 -130 33 1200 090/05 RMK AO2 T02610089 $
94728KNYC NYC20250802121011408/02/25 12:10:31  5-MIN KNYC 021710Z AUTO 11004KT 10SM FEW060 27/09 A3024 -130 33 1200 130/04 RMK AO2 T02670094 $
94728KNYC NYC20250802121511408/02/25 12:15:31  5-MIN KNYC 021715Z AUTO 00000KT 10SM FEW060 25/09 A3024 -130 37 1000 000/00 RMK AO2 T02500094 $
94728KNYC NYC20250802122010408/02/25 12:20:31  5-MIN KNYC 021720Z AUTO 10SM FEW060 26/10 A3024 -130 36 1200 M /M RMK AO2 T02610100 $
94728KNYC NYC20250802122511408/02/25 12:25:31  5-MIN KNYC 021725Z AUTO 05003KT 10SM FEW060 27/09 A3024 -130 33 1200 060/03 RMK AO2 T02670094 $
94728KNYC NYC20250802123011408/02/25 12:30:31  5-MIN KNYC 021730Z AUTO 00000KT 10SM SCT060 26/09 A3024 -130 33 1200 000/00 RMK AO2 T02610089 $
94728KNYC NYC20250802123510408/02/25 12:35:31  5-MIN KNYC 021735Z AUTO 10SM SCT060 26/09 A3024 -130 34 1100 M /M RMK AO2 T02560089 $
94728KNYC NYC20250802124011408/02/25 12:40:31  5-MIN KNYC 021740Z AUTO VRB05KT 10SM SCT060 26/10 A3024 -130 37 1100 VRB/05 RMK AO2 T02560100 $
94728KNYC NYC20250802124513908/02/25 12:45:31  5-MIN KNYC 021745Z AUTO 05005KT 10SM BKN060 26/10 A3024 -130 37 1100 070/05 RMK AO2 SLP231 T02560100 10267 20194 58000 $
94728KNYC NYC20250802125013908/02/25 12:50:31  5-MIN KNYC 021750Z AUTO 05005KT 10SM BKN065 25/10 A3024 -130 38 1000 070/05 RMK AO2 SLP232 T02500100 10267 20194 58000 $
94728KNYC NYC20250802125511408/02/25 12:55:31  5-MIN KNYC 021755Z AUTO 00000KT 10SM BKN065 26/09 A3024 -130 34 1100 000/00 RMK AO2 T02560089 $
94728KNYC NYC20250802130011408/02/25 13:00:31  5-MIN KNYC 021800Z AUTO 00000KT 10SM BKN065 24/08 A3024 -130 35 1000 000/00 RMK AO2 T02440083 $
94728KNYC NYC20250802130511408/02/25 13:05:31  5-MIN KNYC 021805Z AUTO VRB04KT 10SM BKN070 25/09 A3024 -130 37 1000 VRB/04 RMK AO2 T02500094 $
94728KNYC NYC20250802131011408/02/25 13:10:31  5-MIN KNYC 021810Z AUTO 26003KT 10SM BKN070 26/09 A3024 -130 35 1100 270/03 RMK AO2 T02560094 $
94728KNYC NYC20250802131511408/02/25 13:15:31  5-MIN KNYC 021815Z AUTO 00000KT 10SM BKN070 25/09 A3024 -130 35 1000 000/00 RMK AO2 T02500089 $
94728KNYC NYC20250802132011408/02/25 13:20:31  5-MIN KNYC 021820Z AUTO 00000KT 10SM BKN070 25/11 A3024 -130 41 1000 000/00 RMK AO2 T02500111 $
94728KNYC NYC20250802132511408/02/25 13:25:31  5-MIN KNYC 021825Z AUTO VRB04KT 10SM BKN070 26/09 A3024 -130 34 1200 VRB/04 RMK AO2 T02610094 $
94728KNYC NYC20250802133011408/02/25 13:30:31  5-MIN KNYC 021830Z AUTO 00000KT 10SM BKN070 25/09 A3024 -130 37 1000 000/00 RMK AO2 T02500094 $
94728KNYC NYC20250802133511408/02/25 13:35:31  5-MIN KNYC 021835Z AUTO VRB03KT 10SM BKN070 25/10 A3023 -130 38 1000 VRB/03 RMK AO2 T02500100 $
94728KNYC NYC20250802134011408/02/25 13:40:31  5-MIN KNYC 021840Z AUTO VRB03KT 10SM SCT070 26/10 A3023 -130 37 1100 VRB/03 RMK AO2 T02560100 $
94728KNYC NYC20250802134512108/02/25 13:45:31  5-MIN KNYC 021845Z AUTO 00000KT 10SM SCT070 26/09 A3023 -130 33 1200 000/00 RMK AO2 SLP229 T02610089 $
94728KNYC NYC20250802135011108/02/25 13:50:31  5-MIN KNYC 021850Z AUTO 10SM FEW070 27/09 A3023 -120 32 1200 M /M RMK AO2 SLP228 T02670089 $
94728KNYC NYC20250802135511408/02/25 13:55:31  5-MIN KNYC 021855Z AUTO 06005KT 10SM FEW070 27/09 A3023 -120 32 1200 070/05 RMK AO2 T02670089 $
94728KNYC NYC20250802140011408/02/25 14:00:31  5-MIN KNYC 021900Z AUTO VRB04KT 10SM SCT070 27/09 A3023 -120 33 1200 VRB/04 RMK AO2 T02670094 $
94728KNYC NYC20250802140511408/02/25 14:05:31  5-MIN KNYC 021905Z AUTO VRB05KT 10SM BKN070 27/10 A3023 -120 34 1200 VRB/05 RMK AO2 T02670100 $
94728KNYC NYC20250802141011408/02/25 14:10:31  5-MIN KNYC 021910Z AUTO 00000KT 10SM BKN070 26/09 A3023 -120 33 1200 000/00 RMK AO2 T02610089 $
94728KNYC NYC20250802141511408/02/25 14:15:31  5-MIN KNYC 021915Z AUTO 30005KT 10SM SCT070 26/09 A3023 -120 33 1200 320/05 RMK AO2 T02610089 $
94728KNYC NYC20250802142011408/02/25 14:20:31  5-MIN KNYC 021920Z AUTO 00000KT 10SM SCT070 26/08 A3023 -120 33 1100 000/00 RMK AO2 T02560083 $
94728KNYC NYC20250802142511408/02/25 14:25:31  5-MIN KNYC 021925Z AUTO VRB06KT 10SM SCT070 26/08 A3022 -120 33 1100 VRB/06 RMK AO2 T02560083 $
94728KNYC NYC20250802143011408/02/25 14:30:31  5-MIN KNYC 021930Z AUTO VRB04KT 10SM FEW070 26/09 A3022 -120 33 1200 VRB/04 RMK AO2 T02610089 $
94728KNYC NYC20250802143511108/02/25 14:35:31  5-MIN KNYC 021935Z AUTO 00000KT 10SM CLR 26/09 A3022 -120 34 1100 000/00 RMK AO2 T02560089 $
94728KNYC NYC20250802144011108/02/25 14:40:31  5-MIN KNYC 021940Z AUTO VRB03KT 10SM CLR 26/10 A3022 -110 37 1100 VRB/03 RMK AO2 T02560100 $
94728KNYC NYC20250802144511808/02/25 14:45:31  5-MIN KNYC 021945Z AUTO 36004KT 10SM CLR 26/10 A3022 -110 37 1100 010/04 RMK AO2 SLP224 T02560100 $
94728KNYC NYC20250802145011808/02/25 14:50:31  5-MIN KNYC 021950Z AUTO VRB04KT 10SM CLR 26/09 A3022 -110 34 1200 VRB/04 RMK AO2 SLP225 T02610094 $
94728KNYC NYC20250802145511108/02/25 14:55:31  5-MIN KNYC 021955Z AUTO 05005KT 10SM CLR 26/10 A3022 -120 36 1200 070/05 RMK AO2 T02610100 $
94728KNYC NYC20250802150011108/02/25 15:00:31  5-MIN KNYC 022000Z AUTO 00000KT 10SM CLR 26/09 A3022 -120 33 1200 000/00 RMK AO2 T02610089 $
94728KNYC NYC20250802150511108/02/25 15:05:31  5-MIN KNYC 022005Z AUTO 00000KT 10SM CLR 25/09 A3022 -120 35 1100 000/00 RMK AO2 T02500089 $
94728KNYC NYC20250802151011108/02/25 15:10:31  5-MIN KNYC 022010Z AUTO 00000KT 10SM CLR 26/10 A3022 -110 37 1100 000/00 RMK AO2 T02560100 $
94728KNYC NYC20250802151511108/02/25 15:15:31  5-MIN KNYC 022015Z AUTO VRB05KT 10SM CLR 26/09 A3022 -110 35 1100 VRB/05 RMK AO2 T02560094 $
94728KNYC NYC20250802152011108/02/25 15:20:31  5-MIN KNYC 022020Z AUTO 05007KT 10SM CLR 26/09 A3022 -110 34 1200 070/07 RMK AO2 T02610094 $
94728KNYC NYC20250802152511108/02/25 15:25:31  5-MIN KNYC 022025Z AUTO 06007KT 10SM CLR 26/09 A3022 -110 33 1200 070/07 RMK AO2 T02610089 $
94728KNYC NYC20250802153011108/02/25 15:30:31  5-MIN KNYC 022030Z AUTO 00000KT 10SM CLR 26/09 A3022 -110 34 1100 000/00 RMK AO2 T02560089 $
94728KNYC NYC20250802153511108/02/25 15:35:31  5-MIN KNYC 022035Z AUTO 00000KT 10SM CLR 25/09 A3022 -110 37 1100 000/00 RMK AO2 T02500094 $
94728KNYC NYC20250802154010108/02/25 15:40:31  5-MIN KNYC 022040Z AUTO 10SM CLR 26/11 A3022 -110 38 1100 M /M RMK AO2 T02560106 $
94728KNYC NYC20250802154512408/02/25 15:45:31  5-MIN KNYC 022045Z AUTO VRB06KT 10SM CLR 26/09 A3022 -110 34 1200 VRB/06 RMK AO2 SLP224 T02610094 56014 $
94728KNYC NYC20250802155012408/02/25 15:50:31  5-MIN KNYC 022050Z AUTO 06005KT 10SM CLR 26/09 A3022 -110 34 1100 080/05 RMK AO2 SLP224 T02560089 56014 $
94728KNYC NYC20250802155511108/02/25 15:55:31  5-MIN KNYC 022055Z AUTO VRB03KT 10SM CLR 26/08 A3022 -110 33 1100 VRB/03 RMK AO2 T02560083 $
94728KNYC NYC20250802160011108/02/25 16:00:31  5-MIN KNYC 022100Z AUTO 07006KT 10SM CLR 25/08 A3022 -110 34 1100 080/06 RMK AO2 T02500083 $
94728KNYC NYC20250802160511108/02/25 16:05:31  5-MIN KNYC 022105Z AUTO 05007KT 10SM CLR 25/09 A3022 -110 35 1100 060/07 RMK AO2 T02500089 $
94728KNYC NYC20250802161011108/02/25 16:10:31  5-MIN KNYC 022110Z AUTO 06006KT 10SM CLR 25/09 A3022 -110 35 1100 070/06 RMK AO2 T02500089 $
94728KNYC NYC20250802161511108/02/25 16:15:31  5-MIN KNYC 022115Z AUTO 00000KT 10SM CLR 25/09 A3022 -110 37 1100 000/00 RMK AO2 T02500094 $
94728KNYC NYC20250802162011108/02/25 16:20:31  5-MIN KNYC 022120Z AUTO 00000KT 10SM CLR 24/09 A3022 -110 38 1000 000/00 RMK AO2 T02440094 $
94728KNYC NYC20250802162511108/02/25 16:25:31  5-MIN KNYC 022125Z AUTO 00000KT 10SM CLR 25/09 A3022 -120 35 1100 000/00 RMK AO2 T02500089 $
94728KNYC NYC20250802163011108/02/25 16:30:31  5-MIN KNYC 022130Z AUTO 00000KT 10SM CLR 25/09 A3022 -110 37 1100 000/00 RMK AO2 T02500094 $
94728KNYC NYC20250802163511108/02/25 16:35:31  5-MIN KNYC 022135Z AUTO 00000KT 10SM CLR 25/09 A3022 -110 35 1100 000/00 RMK AO2 T02500089 $
94728KNYC NYC20250802164011008/02/25 16:40:31  5-MIN KNYC 022140Z AUTO VRB04KT 10SM CLR 24/11 A3022 -110 44 900 VRB/04 RMK AO2 T02390111 $
94728KNYC NYC20250802164512108/02/25 16:45:31  5-MIN KNYC 022145Z AUTO VRB03KT 10SM FEW070 24/13 A3022 -110 47 1000 VRB/03 RMK AO2 SLP225 T02440128 $
94728KNYC NYC20250802165012008/02/25 16:50:31  5-MIN KNYC 022150Z AUTO VRB03KT 10SM FEW070 24/14 A3022 -110 53 900 VRB/03 RMK AO2 SLP224 T02390139 $
94728KNYC NYC20250802165511308/02/25 16:55:31  5-MIN KNYC 022155Z AUTO VRB03KT 10SM FEW070 24/14 A3022 -110 55 900 VRB/03 RMK AO2 T02390144 $
94728KNYC NYC20250802170011308/02/25 17:00:31  5-MIN KNYC 022200Z AUTO 00000KT 10SM FEW070 24/14 A3022 -110 55 900 000/00 RMK AO2 T02390144 $
94728KNYC NYC20250802170511308/02/25 17:05:31  5-MIN KNYC 022205Z AUTO 00000KT 10SM FEW070 24/14 A3022 -110 55 900 000/00 RMK AO2 T02390144 $
94728KNYC NYC20250802171011308/02/25 17:10:31  5-MIN KNYC 022210Z AUTO 00000KT 10SM FEW070 24/14 A3022 -110 53 900 000/00 RMK AO2 T02390139 $
94728KNYC NYC20250802171511308/02/25 17:15:31  5-MIN KNYC 022215Z AUTO 00000KT 10SM FEW070 24/13 A3022 -110 51 900 000/00 RMK AO2 T02390133 $
94728KNYC NYC20250802172011308/02/25 17:20:31  5-MIN KNYC 022220Z AUTO 00000KT 10SM FEW070 24/14 A3022 -110 53 900 000/00 RMK AO2 T02390139 $
94728KNYC NYC20250802172511308/02/25 17:25:31  5-MIN KNYC 022225Z AUTO 00000KT 10SM FEW070 24/14 A3022 -110 53 900 000/00 RMK AO2 T02390139 $
94728KNYC NYC20250802173011008/02/25 17:30:31  5-MIN KNYC 022230Z AUTO 00000KT 10SM CLR 24/14 A3021 -110 53 900 000/00 RMK AO2 T02390139 $
94728KNYC NYC20250802173511008/02/25 17:35:31  5-MIN KNYC 022235Z AUTO 00000KT 10SM CLR 23/14 A3021 -110 57 900 000/00 RMK AO2 T02330144 $
94728KNYC NYC20250802174011008/02/25 17:40:31  5-MIN KNYC 022240Z AUTO 00000KT 10SM CLR 23/14 A3021 -110 57 900 000/00 RMK AO2 T02330144 $
94728KNYC NYC20250802174511708/02/25 17:45:31  5-MIN KNYC 022245Z AUTO VRB04KT 10SM CLR 23/14 A3021 -110 59 800 VRB/04 RMK AO2 SLP222 T02280144 $
94728KNYC NYC20250802175011708/02/25 17:50:31  5-MIN KNYC 022250Z AUTO 00000KT 10SM CLR 23/14 A3021 -110 59 800 000/00 RMK AO2 SLP222 T02280144 $
94728KNYC NYC20250802175511008/02/25 17:55:31  5-MIN KNYC 022255Z AUTO 00000KT 10SM CLR 23/14 A3022 -110 59 800 000/00 RMK AO2 T02280144 $
94728KNYC NYC20250802180011008/02/25 18:00:31  5-MIN KNYC 022300Z AUTO 00000KT 10SM CLR 23/14 A3021 -110 59 800 000/00 RMK AO2 T02280144 $
94728KNYC NYC20250802180511008/02/25 18:05:31  5-MIN KNYC 022305Z AUTO 00000KT 10SM CLR 23/14 A3021 -110 55 900 000/00 RMK AO2 T02330139 $
94728KNYC NYC20250802181011008/02/25 18:10:31  5-MIN KNYC 022310Z AUTO 00000KT 10SM CLR 23/14 A3021 -110 55 900 000/00 RMK AO2 T02330139 $
94728KNYC NYC20250802181511008/02/25 18:15:31  5-MIN KNYC 022315Z AUTO 00000KT 10SM CLR 23/14 A3021 -110 57 800 000/00 RMK AO2 T02280139 $
94728KNYC NYC20250802182011008/02/25 18:20:31  5-MIN KNYC 022320Z AUTO 00000KT 10SM CLR 23/14 A3021 -110 57 800 000/00 RMK AO2 T02280139 $
94728KNYC NYC20250802182511008/02/25 18:25:31  5-MIN KNYC 022325Z AUTO 00000KT 10SM CLR 23/14 A3021 -110 57 800 000/00 RMK AO2 T02280139 $
94728KNYC NYC20250802183011008/02/25 18:30:31  5-MIN KNYC 022330Z AUTO VRB03KT 10SM CLR 23/14 A3021 -110 57 800 VRB/03 RMK AO2 T02280139 $
94728KNYC NYC20250802183511008/02/25 18:35:31  5-MIN KNYC 022335Z AUTO 00000KT 10SM CLR 22/14 A3021 -110 59 700 000/00 RMK AO2 T02220139 $
94728KNYC NYC20250802184011008/02/25 18:40:31  5-MIN KNYC 022340Z AUTO 00000KT 10SM CLR 23/13 A3021 -110 55 800 000/00 RMK AO2 T02280133 $
94728KNYC NYC20250802184513508/02/25 18:45:31  5-MIN KNYC 022345Z AUTO 00000KT 10SM CLR 23/13 A3021 -110 55 800 000/00 RMK AO2 SLP222 T02280133 10267 20222 56008 $
94728KNYC NYC20250802185013508/02/25 18:50:31  5-MIN KNYC 022350Z AUTO 00000KT 10SM CLR 22/13 A3022 -110 56 700 000/00 RMK AO2 SLP223 T02220133 10267 20222 56008 $
94728KNYC NYC20250802185511008/02/25 18:55:31  5-MIN KNYC 022355Z AUTO VRB03KT 10SM CLR 22/13 A3021 -110 56 700 VRB/03 RMK AO2 T02220133 $
94728KNYC NYC20250802190011008/02/25 19:00:31  5-MIN KNYC 030000Z AUTO VRB03KT 10SM CLR 22/13 A3021 -110 56 700 VRB/03 RMK AO2 T02220133 $
94728KNYC NYC20250802190511008/02/25 19:05:31  5-MIN KNYC 030005Z AUTO VRB03KT 10SM CLR 22/13 A3022 -110 56 700 VRB/03 RMK AO2 T02220133 $
94728KNYC NYC20250802191011008/02/25 19:10:31  5-MIN KNYC 030010Z AUTO 00000KT 10SM CLR 22/13 A3021 -110 58 700 000/00 RMK AO2 T02170133 $
94728KNYC NYC20250802191511008/02/25 19:15:31  5-MIN KNYC 030015Z AUTO 00000KT 10SM CLR 22/13 A3021 -110 56 700 000/00 RMK AO2 T02220133 $
94728KNYC NYC20250802192011008/02/25 19:20:31  5-MIN KNYC 030020Z AUTO 00000KT 10SM CLR 22/13 A3021 -110 58 700 000/00 RMK AO2 T02170133 $
94728KNYC NYC20250802192511008/02/25 19:25:31  5-MIN KNYC 030025Z AUTO 00000KT 10SM CLR 22/13 A3021 -110 58 700 000/00 RMK AO2 T02170133 $
94728KNYC NYC20250802193011008/02/25 19:30:31  5-MIN KNYC 030030Z AUTO 00000KT 10SM CLR 22/13 A3021 -110 56 700 000/00 RMK AO2 T02170128 $
94728KNYC NYC20250802193511008/02/25 19:35:31  5-MIN KNYC 030035Z AUTO 00000KT 10SM CLR 22/13 A3021 -110 56 700 000/00 RMK AO2 T02170128 $
94728KNYC NYC20250802194011008/02/25 19:40:31  5-MIN KNYC 030040Z AUTO 00000KT 10SM CLR 22/13 A3021 -110 56 700 000/00 RMK AO2 T02170128 $
94728KNYC NYC20250802194511708/02/25 19:45:31  5-MIN KNYC 030045Z AUTO 00000KT 10SM CLR 22/13 A3021 -110 56 700 000/00 RMK AO2 SLP222 T02170128 $
94728KNYC NYC20250802195011708/02/25 19:50:31  5-MIN KNYC 030050Z AUTO 00000KT 10SM CLR 22/13 A3021 -110 56 700 000/00 RMK AO2 SLP222 T02170128 $
94728KNYC NYC20250802195511008/02/25 19:55:31  5-MIN KNYC 030055Z AUTO 00000KT 10SM CLR 22/13 A3022 -110 56 700 000/00 RMK AO2 T02170128 $
94728KNYC NYC20250802200011008/02/25 20:00:31  5-MIN KNYC 030100Z AUTO 00000KT 10SM CLR 22/13 A3022 -110 56 700 000/00 RMK AO2 T02170128 $
94728KNYC NYC20250802200511008/02/25 20:05:31  5-MIN KNYC 030105Z AUTO 00000KT 10SM CLR 22/13 A3022 -110 56 700 000/00 RMK AO2 T02170128 $
94728KNYC NYC20250802201011008/02/25 20:10:31  5-MIN KNYC 030110Z AUTO 00000KT 10SM CLR 23/13 A3022 -110 53 800 000/00 RMK AO2 T02280128 $
94728KNYC NYC20250802201511008/02/25 20:15:31  5-MIN KNYC 030115Z AUTO 00000KT 10SM CLR 22/13 A3022 -120 56 700 000/00 RMK AO2 T02170128 $
94728KNYC NYC20250802202011008/02/25 20:20:31  5-MIN KNYC 030120Z AUTO 00000KT 10SM CLR 22/13 A3022 -120 56 700 000/00 RMK AO2 T02170128 $
94728KNYC NYC20250802202511008/02/25 20:25:31  5-MIN KNYC 030125Z AUTO 00000KT 10SM CLR 22/13 A3023 -120 56 700 000/00 RMK AO2 T02170128 $
94728KNYC NYC20250802203011008/02/25 20:30:31  5-MIN KNYC 030130Z AUTO 00000KT 10SM CLR 22/13 A3023 -120 54 700 000/00 RMK AO2 T02220128 $
94728KNYC NYC20250802203511008/02/25 20:35:31  5-MIN KNYC 030135Z AUTO 00000KT 10SM CLR 22/13 A3023 -120 56 700 000/00 RMK AO2 T02170128 $
94728KNYC NYC20250802204011008/02/25 20:40:31  5-MIN KNYC 030140Z AUTO 00000KT 10SM CLR 22/13 A3023 -120 56 700 000/00 RMK AO2 T02170128 $
94728KNYC NYC20250802204511708/02/25 20:45:31  5-MIN KNYC 030145Z AUTO 00000KT 10SM CLR 22/13 A3023 -120 56 700 000/00 RMK AO2 SLP227 T02170128 $
94728KNYC NYC20250802205011708/02/25 20:50:31  5-MIN KNYC 030150Z AUTO 00000KT 10SM CLR 22/13 A3023 -120 56 700 000/00 RMK AO2 SLP227 T02170128 $
94728KNYC NYC20250802205511008/02/25 20:55:31  5-MIN KNYC 030155Z AUTO 00000KT 10SM CLR 22/13 A3023 -120 58 700 000/00 RMK AO2 T02170133 $
94728KNYC NYC20250802210011008/02/25 21:00:31  5-MIN KNYC 030200Z AUTO 24003KT 10SM CLR 21/13 A3023 -120 61 600 260/03 RMK AO2 T02110133 $
94728KNYC NYC20250802210511008/02/25 21:05:31  5-MIN KNYC 030205Z AUTO 00000KT 10SM CLR 22/13 A3023 -120 58 700 000/00 RMK AO2 T02170133 $
94728KNYC NYC20250802211011008/02/25 21:10:31  5-MIN KNYC 030210Z AUTO 00000KT 10SM CLR 21/14 A3023 -120 63 600 000/00 RMK AO2 T02110139 $
94728KNYC NYC20250802211511008/02/25 21:15:31  5-MIN KNYC 030215Z AUTO 00000KT 10SM CLR 21/13 A3023 -120 61 600 000/00 RMK AO2 T02110133 $
94728KNYC NYC20250802212011008/02/25 21:20:31  5-MIN KNYC 030220Z AUTO 00000KT 10SM CLR 21/14 A3023 -120 63 600 000/00 RMK AO2 T02110139 $
94728KNYC NYC20250802212511008/02/25 21:25:31  5-MIN KNYC 030225Z AUTO 22003KT 10SM CLR 21/14 A3023 -120 63 600 230/03 RMK AO2 T02110139 $
94728KNYC NYC20250802213011008/02/25 21:30:31  5-MIN KNYC 030230Z AUTO 00000KT 10SM CLR 21/14 A3023 -120 63 600 000/00 RMK AO2 T02110139 $
94728KNYC NYC20250802213511008/02/25 21:35:31  5-MIN KNYC 030235Z AUTO 00000KT 10SM CLR 21/14 A3023 -120 63 600 000/00 RMK AO2 T02110139 $
94728KNYC NYC20250802214011008/02/25 21:40:31  5-MIN KNYC 030240Z AUTO 00000KT 10SM CLR 21/13 A3023 -120 61 600 000/00 RMK AO2 T02110133 $
94728KNYC NYC20250802214512308/02/25 21:45:31  5-MIN KNYC 030245Z AUTO 00000KT 10SM CLR 21/14 A3022 -120 63 600 000/00 RMK AO2 SLP225 T02110139 55001 $
94728KNYC NYC20250802215012308/02/25 21:50:31  5-MIN KNYC 030250Z AUTO 00000KT 10SM CLR 21/14 A3022 -120 63 600 000/00 RMK AO2 SLP226 T02110139 55001 $
94728KNYC NYC20250802215511008/02/25 21:55:31  5-MIN KNYC 030255Z AUTO 00000KT 10SM CLR 21/13 A3023 -120 61 600 000/00 RMK AO2 T02110133 $
94728KNYC NYC20250802220011008/02/25 22:00:31  5-MIN KNYC 030300Z AUTO 00000KT 10SM CLR 22/13 A3022 -120 58 700 000/00 RMK AO2 T02170133 $
94728KNYC NYC20250802220511008/02/25 22:05:31  5-MIN KNYC 030305Z AUTO 00000KT 10SM CLR 22/13 A3022 -120 58 700 000/00 RMK AO2 T02170133 $
94728KNYC NYC20250802221011008/02/25 22:10:31  5-MIN KNYC 030310Z AUTO 00000KT 10SM CLR 21/13 A3022 -110 61 600 000/00 RMK AO2 T02110133 $
94728KNYC NYC20250802221511008/02/25 22:15:31  5-MIN KNYC 030315Z AUTO 00000KT 10SM CLR 21/13 A3022 -110 61 600 000/00 RMK AO2 T02110133 $
94728KNYC NYC20250802222011008/02/25 22:20:31  5-MIN KNYC 030320Z AUTO 00000KT 10SM CLR 21/14 A3022 -110 63 600 000/00 RMK AO2 T02110139 $
94728KNYC NYC20250802222511008/02/25 22:25:31  5-MIN KNYC 030325Z AUTO 00000KT 10SM CLR 21/13 A3022 -110 61 600 000/00 RMK AO2 T02110133 $
94728KNYC NYC20250802223011008/02/25 22:30:31  5-MIN KNYC 030330Z AUTO 00000KT 10SM CLR 21/13 A3022 -110 61 600 000/00 RMK AO2 T02110133 $
94728KNYC NYC20250802223511308/02/25 22:35:31  5-MIN KNYC 030335Z AUTO 00000KT 10SM FEW060 21/14 A3022 -110 63 600 000/00 RMK AO2 T02110139 $
94728KNYC NYC20250802224011308/02/25 22:40:31  5-MIN KNYC 030340Z AUTO 00000KT 10SM SCT060 21/14 A3022 -110 63 600 000/00 RMK AO2 T02110139 $
94728KNYC NYC20250802224512008/02/25 22:45:31  5-MIN KNYC 030345Z AUTO 00000KT 10SM FEW060 21/14 A3022 -110 65 600 000/00 RMK AO2 SLP223 T02110144 $
94728KNYC NYC20250802225012008/02/25 22:50:31  5-MIN KNYC 030350Z AUTO 00000KT 10SM FEW060 21/14 A3022 -110 65 600 000/00 RMK AO2 SLP224 T02110144 $
94728KNYC NYC20250802225511308/02/25 22:55:31  5-MIN KNYC 030355Z AUTO 00000KT 10SM FEW060 21/14 A3022 -110 65 600 000/00 RMK AO2 T02110144 $
94728KNYC NYC20250802230011308/02/25 23:00:31  5-MIN KNYC 030400Z AUTO 00000KT 10SM FEW060 21/14 A3022 -110 65 600 000/00 RMK AO2 T02110144 $
94728KNYC NYC20250802230511008/02/25 23:05:31  5-MIN KNYC 030405Z AUTO 28003KT 10SM CLR 22/14 A3022 -110 63 700 290/03 RMK AO2 T02170144 $
94728KNYC NYC20250802231011308/02/25 23:10:31  5-MIN KNYC 030410Z AUTO 00000KT 10SM FEW060 21/14 A3022 -110 65 600 000/00 RMK AO2 T02110144 $
94728KNYC NYC20250802231511308/02/25 23:15:31  5-MIN KNYC 030415Z AUTO 00000KT 10SM FEW060 21/14 A3022 -110 65 600 000/00 RMK AO2 T02110144 $
94728KNYC NYC20250802232011008/02/25 23:20:31  5-MIN KNYC 030420Z AUTO 00000KT 10SM CLR 21/14 A3022 -110 65 600 000/00 RMK AO2 T02110144 $
94728KNYC NYC20250802232511008/02/25 23:25:31  5-MIN KNYC 030425Z AUTO 00000KT 10SM CLR 21/14 A3022 -110 65 600 000/00 RMK AO2 T02110144 $
94728KNYC NYC20250802233011008/02/25 23:30:31  5-MIN KNYC 030430Z AUTO 00000KT 10SM CLR 21/15 A3021 -110 68 600 000/00 RMK AO2 T02110150 $
94728KNYC NYC20250802233511008/02/25 23:35:31  5-MIN KNYC 030435Z AUTO 00000KT 10SM CLR 21/15 A3021 -110 68 600 000/00 RMK AO2 T02110150 $
94728KNYC NYC20250802234011008/02/25 23:40:31  5-MIN KNYC 030440Z AUTO 00000KT 10SM CLR 21/15 A3021 -110 68 600 000/00 RMK AO2 T02110150 $
94728KNYC NYC20250802234512708/02/25 23:45:31  5-MIN KNYC 030445Z AUTO 00000KT 10SM CLR 21/14 A3021 -110 65 600 000/00 RMK AO2 SLP221 T02110144 402670172 $
94728KNYC NYC20250802235012708/02/25 23:50:31  5-MIN KNYC 030450Z AUTO 00000KT 10SM CLR 21/14 A3021 -110 67 600 000/00 RMK AO2 SLP221 T02060144 402670172 $
94728KNYC NYC20250802235511008/02/25 23:55:31  5-MIN KNYC 030455Z AUTO 00000KT 10SM CLR 21/14 A3021 -100 67 600 000/00 RMK AO2 T02060144 $
94728KNYC NYC20250803000011008/03/25 00:00:31  5-MIN KNYC 030500Z AUTO 00000KT 10SM CLR 21/14 A3021 -100 65 600 000/00 RMK AO2 T02110144 $
94728KNYC NYC20250803000511008/03/25 00:05:31  5-MIN KNYC 030505Z AUTO 00000KT 10SM CLR 21/14 A3021 -100 67 600 000/00 RMK AO2 T02060144 $
94728KNYC NYC20250803001011008/03/25 00:10:31  5-MIN KNYC 030510Z AUTO 00000KT 10SM CLR 21/14 A3021 -100 67 600 000/00 RMK AO2 T02060144 $
94728KNYC NYC20250803001511008/03/25 00:15:31  5-MIN KNYC 030515Z AUTO VRB03KT 10SM CLR 21/14 A3021 -100 65 600 VRB/03 RMK AO2 T02110144 $
94728KNYC NYC20250803002011008/03/25 00:20:31  5-MIN KNYC 030520Z AUTO 00000KT 10SM CLR 21/14 A3021 -100 67 600 000/00 RMK AO2 T02060144 $
94728KNYC NYC20250803002511008/03/25 00:25:31  5-MIN KNYC 030525Z AUTO 00000KT 10SM CLR 21/14 A3021 -100 67 600 000/00 RMK AO2 T02060144 $
94728KNYC NYC20250803003011008/03/25 00:30:31  5-MIN KNYC 030530Z AUTO 28003KT 10SM CLR 21/14 A3021 -100 67 600 290/03 RMK AO2 T02060144 $
94728KNYC NYC20250803003511008/03/25 00:35:31  5-MIN KNYC 030535Z AUTO 25005KT 10SM CLR 21/14 A3021 -100 65 600 260/05 RMK AO2 T02110144 $
94728KNYC NYC20250803004011008/03/25 00:40:31  5-MIN KNYC 030540Z AUTO 25003KT 10SM CLR 21/14 A3021 -100 67 600 260/03 RMK AO2 T02060144 $
94728KNYC NYC20250803004513508/03/25 00:45:31  5-MIN KNYC 030545Z AUTO 00000KT 10SM CLR 21/14 A3021 -100 65 600 000/00 RMK AO2 SLP219 T02060139 10228 20206 50003 $
94728KNYC NYC20250803005013508/03/25 00:50:31  5-MIN KNYC 030550Z AUTO 00000KT 10SM CLR 21/14 A3021 -100 67 600 000/00 RMK AO2 SLP219 T02060144 10228 20206 50003 $
94728KNYC NYC20250803005511008/03/25 00:55:31  5-MIN KNYC 030555Z AUTO 00000KT 10SM CLR 21/14 A3020 -100 67 600 000/00 RMK AO2 T02060144 $
94728KNYC NYC20250803010011008/03/25 01:00:31  5-MIN KNYC 030600Z AUTO 00000KT 10SM CLR 21/14 A3020 -100 67 600 000/00 RMK AO2 T02060144 $
94728KNYC NYC20250803010511008/03/25 01:05:31  5-MIN KNYC 030605Z AUTO 00000KT 10SM CLR 21/14 A3020 -100 67 600 000/00 RMK AO2 T02060144 $
94728KNYC NYC20250803011011008/03/25 01:10:31  5-MIN KNYC 030610Z AUTO 00000KT 10SM CLR 21/14 A3020 -100 67 600 000/00 RMK AO2 T02060144 $
94728KNYC NYC20250803011511008/03/25 01:15:31  5-MIN KNYC 030615Z AUTO 00000KT 10SM CLR 20/14 A3020 -100 70 500 000/00 RMK AO2 T02000144 $
94728KNYC NYC20250803012011008/03/25 01:20:31  5-MIN KNYC 030620Z AUTO 00000KT 10SM CLR 20/15 A3020 -100 72 500 000/00 RMK AO2 T02000150 $
94728KNYC NYC20250803012511008/03/25 01:25:31  5-MIN KNYC 030625Z AUTO 00000KT 10SM CLR 20/15 A3020 -100 72 500 000/00 RMK AO2 T02000150 $
94728KNYC NYC20250803013011008/03/25 01:30:31  5-MIN KNYC 030630Z AUTO 00000KT 10SM CLR 21/15 A3020 -100 70 600 000/00 RMK AO2 T02060150 $
94728KNYC NYC20250803013511008/03/25 01:35:31  5-MIN KNYC 030635Z AUTO 00000KT 10SM CLR 21/15 A3020 -100 70 600 000/00 RMK AO2 T02060150 $
94728KNYC NYC20250803014010908/03/25 01:40:31  5-MIN KNYC 030640Z AUTO 00000KT 10SM CLR 20/15 A3020 -90 72 500 000/00 RMK AO2 T02000150 $
94728KNYC NYC20250803014511608/03/25 01:45:31  5-MIN KNYC 030645Z AUTO 00000KT 10SM CLR 20/15 A3020 -90 72 500 000/00 RMK AO2 SLP216 T02000150 $
94728KNYC NYC20250803015011608/03/25 01:50:31  5-MIN KNYC 030650Z AUTO 00000KT 10SM CLR 20/15 A3020 -90 72 500 000/00 RMK AO2 SLP216 T02000150 $
94728KNYC NYC20250803015510908/03/25 01:55:31  5-MIN KNYC 030655Z AUTO 00000KT 10SM CLR 20/14 A3020 -90 70 500 000/00 RMK AO2 T02000144 $
94728KNYC NYC20250803020010908/03/25 02:00:31  5-MIN KNYC 030700Z AUTO 00000KT 10SM CLR 20/14 A3020 -90 70 500 000/00 RMK AO2 T02000144 $
94728KNYC NYC20250803020510908/03/25 02:05:31  5-MIN KNYC 030705Z AUTO 00000KT 10SM CLR 20/14 A3020 -90 70 500 000/00 RMK AO2 T02000144 $
94728KNYC NYC20250803021010908/03/25 02:10:31  5-MIN KNYC 030710Z AUTO 00000KT 10SM CLR 20/14 A3020 -90 70 500 000/00 RMK AO2 T02000144 $
94728KNYC NYC20250803021510908/03/25 02:15:31  5-MIN KNYC 030715Z AUTO 31003KT 10SM CLR 20/14 A3020 -90 67 500 320/03 RMK AO2 T02000139 $
94728KNYC NYC20250803022010908/03/25 02:20:31  5-MIN KNYC 030720Z AUTO 30003KT 10SM CLR 20/14 A3019 -90 67 500 310/03 RMK AO2 T02000139 $
94728KNYC NYC20250803022510908/03/25 02:25:31  5-MIN KNYC 030725Z AUTO 30003KT 10SM CLR 20/13 A3019 -90 65 500 310/03 RMK AO2 T02000133 $
94728KNYC NYC20250803023010908/03/25 02:30:31  5-MIN KNYC 030730Z AUTO 30003KT 10SM CLR 20/13 A3019 -90 65 500 310/03 RMK AO2 T02000133 $
94728KNYC NYC20250803023510908/03/25 02:35:31  5-MIN KNYC 030735Z AUTO 30003KT 10SM CLR 19/14 A3019 -80 70 500 310/03 RMK AO2 T01940139 $
94728KNYC NYC20250803024010908/03/25 02:40:31  5-MIN KNYC 030740Z AUTO 00000KT 10SM CLR 20/13 A3019 -80 65 500 000/00 RMK AO2 T02000133 $
94728KNYC NYC20250803024511608/03/25 02:45:31  5-MIN KNYC 030745Z AUTO 00000KT 10SM CLR 19/13 A3019 -80 67 500 000/00 RMK AO2 SLP213 T01940133 $
94728KNYC NYC20250803025011608/03/25 02:50:31  5-MIN KNYC 030750Z AUTO 00000KT 10SM CLR 19/13 A3019 -80 65 500 000/00 RMK AO2 SLP213 T01940128 $
94728KNYC NYC20250803025510908/03/25 02:55:31  5-MIN KNYC 030755Z AUTO 00000KT 10SM CLR 19/13 A3019 -80 65 500 000/00 RMK AO2 T01940128 $
94728KNYC NYC20250803030010908/03/25 03:00:31  5-MIN KNYC 030800Z AUTO 00000KT 10SM CLR 19/13 A3019 -80 67 500 000/00 RMK AO2 T01940133 $
94728KNYC NYC20250803030510908/03/25 03:05:31  5-MIN KNYC 030805Z AUTO 28003KT 10SM CLR 19/13 A3019 -80 67 500 300/03 RMK AO2 T01940133 $
94728KNYC NYC20250803031010908/03/25 03:10:31  5-MIN KNYC 030810Z AUTO 00000KT 10SM CLR 19/13 A3019 -80 70 400 000/00 RMK AO2 T01890133 $
94728KNYC NYC20250803031510908/03/25 03:15:31  5-MIN KNYC 030815Z AUTO 31003KT 10SM CLR 19/13 A3019 -80 70 400 320/03 RMK AO2 T01890133 $
94728KNYC NYC20250803032010908/03/25 03:20:31  5-MIN KNYC 030820Z AUTO 31004KT 10SM CLR 19/13 A3019 -80 70 400 320/04 RMK AO2 T01890133 $
94728KNYC NYC20250803032510908/03/25 03:25:31  5-MIN KNYC 030825Z AUTO 00000KT 10SM CLR 19/13 A3019 -90 70 400 000/00 RMK AO2 T01890133 $
94728KNYC NYC20250803033010908/03/25 03:30:31  5-MIN KNYC 030830Z AUTO 00000KT 10SM CLR 19/14 A3019 -90 72 400 000/00 RMK AO2 T01890139 $
94728KNYC NYC20250803033510908/03/25 03:35:31  5-MIN KNYC 030835Z AUTO 00000KT 10SM CLR 19/14 A3019 -90 72 400 000/00 RMK AO2 T01890139 $
94728KNYC NYC20250803034010908/03/25 03:40:31  5-MIN KNYC 030840Z AUTO 00000KT 10SM CLR 18/14 A3019 -90 75 300 000/00 RMK AO2 T01830139 $
94728KNYC NYC20250803034512208/03/25 03:45:31  5-MIN KNYC 030845Z AUTO 00000KT 10SM CLR 18/14 A3019 -90 75 300 000/00 RMK AO2 SLP215 T01830139 58007 $
94728KNYC NYC20250803035012208/03/25 03:50:31  5-MIN KNYC 030850Z AUTO 00000KT 10SM CLR 18/14 A3019 -90 75 300 000/00 RMK AO2 SLP216 T01830139 58007 $
94728KNYC NYC20250803035510908/03/25 03:55:31  5-MIN KNYC 030855Z AUTO 00000KT 10SM CLR 18/14 A3020 -90 75 300 000/00 RMK AO2 T01830139 $
94728KNYC NYC20250803040010908/03/25 04:00:31  5-MIN KNYC 030900Z AUTO 28003KT 10SM CLR 18/14 A3019 -90 75 300 290/03 RMK AO2 T01830139 $
94728KNYC NYC20250803040510908/03/25 04:05:31  5-MIN KNYC 030905Z AUTO 00000KT 10SM CLR 18/14 A3020 -90 75 300 000/00 RMK AO2 T01830139 $
94728KNYC NYC20250803041010908/03/25 04:10:31  5-MIN KNYC 030910Z AUTO 00000KT 10SM CLR 18/14 A3020 -90 75 300 000/00 RMK AO2 T01830139 $
94728KNYC NYC20250803041510908/03/25 04:15:31  5-MIN KNYC 030915Z AUTO 00000KT 10SM CLR 18/14 A3020 -90 75 300 000/00 RMK AO2 T01830139 $
94728KNYC NYC20250803042010908/03/25 04:20:31  5-MIN KNYC 030920Z AUTO 28003KT 10SM CLR 18/14 A3020 -90 78 300 290/03 RMK AO2 T01830144 $
94728KNYC NYC20250803042510908/03/25 04:25:31  5-MIN KNYC 030925Z AUTO 00000KT 10SM CLR 18/14 A3020 -90 78 300 000/00 RMK AO2 T01830144 $
94728KNYC NYC20250803043010908/03/25 04:30:31  5-MIN KNYC 030930Z AUTO 30003KT 10SM CLR 18/14 A3020 -90 75 300 310/03 RMK AO2 T01830139 $
94728KNYC NYC20250803043510908/03/25 04:35:31  5-MIN KNYC 030935Z AUTO 00000KT 10SM CLR 18/14 A3020 -90 75 300 000/00 RMK AO2 T01830139 $
94728KNYC NYC20250803044011008/03/25 04:40:31  5-MIN KNYC 030940Z AUTO 29003KT 10SM CLR 18/14 A3020 -100 75 300 300/03 RMK AO2 T01830139 $
94728KNYC NYC20250803044511708/03/25 04:45:31  5-MIN KNYC 030945Z AUTO 00000KT 10SM CLR 18/14 A3020 -100 75 300 000/00 RMK AO2 SLP219 T01830139 $
94728KNYC NYC20250803045011708/03/25 04:50:31  5-MIN KNYC 030950Z AUTO 00000KT 10SM CLR 18/14 A3021 -100 78 200 000/00 RMK AO2 SLP219 T01780139 $
94728KNYC NYC20250803045511008/03/25 04:55:31  5-MIN KNYC 030955Z AUTO 00000KT 10SM CLR 18/14 A3021 -100 78 200 000/00 RMK AO2 T01780139 $
94728KNYC NYC20250803050011008/03/25 05:00:31  5-MIN KNYC 031000Z AUTO 00000KT 10SM CLR 18/14 A3021 -100 78 200 000/00 RMK AO2 T01780139 $
94728KNYC NYC20250803050511008/03/25 05:05:31  5-MIN KNYC 031005Z AUTO 00000KT 10SM CLR 18/14 A3021 -100 78 200 000/00 RMK AO2 T01780139 $
94728KNYC NYC20250803051011008/03/25 05:10:31  5-MIN KNYC 031010Z AUTO 00000KT 10SM CLR 18/14 A3021 -100 78 200 000/00 RMK AO2 T01780139 $
94728KNYC NYC20250803051511008/03/25 05:15:31  5-MIN KNYC 031015Z AUTO 00000KT 10SM CLR 18/14 A3021 -100 78 200 000/00 RMK AO2 T01780139 $
94728KNYC NYC20250803052011008/03/25 05:20:31  5-MIN KNYC 031020Z AUTO 00000KT 10SM CLR 18/14 A3021 -100 78 200 000/00 RMK AO2 T01780139 $
94728KNYC NYC20250803052510008/03/25 05:25:31  5-MIN KNYC 031025Z AUTO 10SM CLR 18/14 A3021 -100 78 200 M /M RMK AO2 T01780139 $
94728KNYC NYC20250803053010008/03/25 05:30:31  5-MIN KNYC 031030Z AUTO 10SM CLR 18/14 A3021 -110 78 200 M /M RMK AO2 T01780139 $
94728KNYC NYC20250803053511008/03/25 05:35:31  5-MIN KNYC 031035Z AUTO 00000KT 10SM CLR 18/14 A3021 -110 78 200 000/00 RMK AO2 T01780139 $
94728KNYC NYC20250803054011008/03/25 05:40:31  5-MIN KNYC 031040Z AUTO 00000KT 10SM CLR 18/14 A3021 -110 81 200 000/00 RMK AO2 T01780144 $
94728KNYC NYC20250803054511708/03/25 05:45:31  5-MIN KNYC 031045Z AUTO 00000KT 10SM CLR 18/14 A3021 -110 81 200 000/00 RMK AO2 SLP222 T01780144 $
94728KNYC NYC20250803055011708/03/25 05:50:31  5-MIN KNYC 031050Z AUTO 00000KT 10SM CLR 18/14 A3021 -110 81 200 000/00 RMK AO2 SLP222 T01780144 $
94728KNYC NYC20250803055511008/03/25 05:55:31  5-MIN KNYC 031055Z AUTO 00000KT 10SM CLR 18/14 A3021 -110 78 300 000/00 RMK AO2 T01830144 $
94728KNYC NYC20250803060011008/03/25 06:00:31  5-MIN KNYC 031100Z AUTO 00000KT 10SM CLR 18/14 A3021 -110 75 300 000/00 RMK AO2 T01830139 $
94728KNYC NYC20250803060511008/03/25 06:05:31  5-MIN KNYC 031105Z AUTO 00000KT 10SM CLR 18/14 A3021 -110 75 300 000/00 RMK AO2 T01830139 $
94728KNYC NYC20250803061011008/03/25 06:10:31  5-MIN KNYC 031110Z AUTO 00000KT 10SM CLR 19/14 A3022 -110 72 400 000/00 RMK AO2 T01890139 $
94728KNYC NYC20250803061511008/03/25 06:15:31  5-MIN KNYC 031115Z AUTO 00000KT 10SM CLR 19/14 A3022 -110 72 400 000/00 RMK AO2 T01890139 $
94728KNYC NYC20250803062011008/03/25 06:20:31  5-MIN KNYC 031120Z AUTO 00000KT 10SM CLR 19/14 A3021 -110 72 400 000/00 RMK AO2 T01890139 $
94728KNYC NYC20250803062511008/03/25 06:25:31  5-MIN KNYC 031125Z AUTO 00000KT 10SM CLR 19/14 A3021 -110 70 400 000/00 RMK AO2 T01940139 $
94728KNYC NYC20250803063011008/03/25 06:30:31  5-MIN KNYC 031130Z AUTO 00000KT 10SM CLR 19/14 A3021 -110 70 400 000/00 RMK AO2 T01940139 $
94728KNYC NYC20250803063511008/03/25 06:35:31  5-MIN KNYC 031135Z AUTO 00000KT 10SM CLR 19/14 A3021 -110 70 400 000/00 RMK AO2 T01940139 $
94728KNYC NYC20250803064011008/03/25 06:40:31  5-MIN KNYC 031140Z AUTO 00000KT 10SM CLR 19/14 A3021 -110 70 400 000/00 RMK AO2 T01940139 $
94728KNYC NYC20250803064513508/03/25 06:45:31  5-MIN KNYC 031145Z AUTO 00000KT 10SM CLR 20/14 A3021 -110 67 500 000/00 RMK AO2 SLP221 T02000139 10206 20178 55003 $
94728KNYC NYC20250803065013508/03/25 06:50:31  5-MIN KNYC 031150Z AUTO 00000KT 10SM CLR 20/14 A3021 -110 67 500 000/00 RMK AO2 SLP221 T02000139 10206 20178 55003 $
94728KNYC NYC20250803065511008/03/25 06:55:31  5-MIN KNYC 031155Z AUTO 00000KT 10SM CLR 20/14 A3021 -110 67 500 000/00 RMK AO2 T02000139 $
94728KNYC NYC20250803070011008/03/25 07:00:31  5-MIN KNYC 031200Z AUTO 00000KT 10SM CLR 20/14 A3021 -100 67 500 000/00 RMK AO2 T02000139 $
94728KNYC NYC20250803070511008/03/25 07:05:31  5-MIN KNYC 031205Z AUTO 06003KT 10SM CLR 21/14 A3021 -100 65 600 070/03 RMK AO2 T02060139 $
94728KNYC NYC20250803071011008/03/25 07:10:31  5-MIN KNYC 031210Z AUTO VRB03KT 10SM CLR 21/14 A3021 -100 65 600 VRB/03 RMK AO2 T02060139 $
94728KNYC NYC20250803071511008/03/25 07:15:31  5-MIN KNYC 031215Z AUTO VRB03KT 10SM CLR 21/14 A3021 -100 63 600 VRB/03 RMK AO2 T02110139 $
94728KNYC NYC20250803072011008/03/25 07:20:31  5-MIN KNYC 031220Z AUTO VRB03KT 10SM CLR 21/14 A3021 -100 63 600 VRB/03 RMK AO2 T02110139 $
94728KNYC NYC20250803072511008/03/25 07:25:31  5-MIN KNYC 031225Z AUTO 00000KT 10SM CLR 21/14 A3021 -100 63 600 000/00 RMK AO2 T02110139 $
94728KNYC NYC20250803073011008/03/25 07:30:31  5-MIN KNYC 031230Z AUTO 06005KT 10SM CLR 22/14 A3021 -110 61 700 080/05 RMK AO2 T02170139 $
94728KNYC NYC20250803073511008/03/25 07:35:31  5-MIN KNYC 031235Z AUTO 04005KT 10SM CLR 22/13 A3021 -100 58 700 050/05 RMK AO2 T02170133 $
94728KNYC NYC20250803074011008/03/25 07:40:31  5-MIN KNYC 031240Z AUTO VRB04KT 10SM CLR 22/12 A3021 -100 54 700 VRB/04 RMK AO2 T02170122 $
94728KNYC NYC20250803074511708/03/25 07:45:31  5-MIN KNYC 031245Z AUTO 36003KT 10SM CLR 22/12 A3021 -100 52 700 020/03 RMK AO2 SLP221 T02220122 $
94728KNYC NYC20250803075011708/03/25 07:50:31  5-MIN KNYC 031250Z AUTO VRB03KT 10SM CLR 23/11 A3021 -100 47 800 VRB/03 RMK AO2 SLP221 T02280111 $
94728KNYC NYC20250803075511008/03/25 07:55:31  5-MIN KNYC 031255Z AUTO VRB06KT 10SM CLR 23/11 A3021 -100 47 800 VRB/06 RMK AO2 T02280111 $
94728KNYC NYC20250803080011008/03/25 08:00:31  5-MIN KNYC 031300Z AUTO VRB04KT 10SM CLR 23/10 A3021 -100 44 800 VRB/04 RMK AO2 T02280100 $
94728KNYC NYC20250803080511008/03/25 08:05:31  5-MIN KNYC 031305Z AUTO 05006KT 10SM CLR 23/11 A3021 -100 45 800 070/06 RMK AO2 T02280106 $
94728KNYC NYC20250803081011008/03/25 08:10:31  5-MIN KNYC 031310Z AUTO 00000KT 10SM CLR 23/10 A3021 -110 42 900 000/00 RMK AO2 T02330100 $
94728KNYC NYC20250803081511008/03/25 08:15:31  5-MIN KNYC 031315Z AUTO VRB06KT 10SM CLR 23/10 A3021 -110 42 900 VRB/06 RMK AO2 T02330100 $
94728KNYC NYC20250803082011008/03/25 08:20:31  5-MIN KNYC 031320Z AUTO VRB03KT 10SM CLR 24/10 A3021 -100 41 900 VRB/03 RMK AO2 T02390100 $
94728KNYC NYC20250803082511008/03/25 08:25:31  5-MIN KNYC 031325Z AUTO 05005KT 10SM CLR 23/10 A3021 -110 42 900 060/05 RMK AO2 T02330100 $
94728KNYC NYC20250803083011008/03/25 08:30:31  5-MIN KNYC 031330Z AUTO 05005KT 10SM CLR 24/09 A3021 -110 39 900 060/05 RMK AO2 T02390094 $
94728KNYC NYC20250803083511008/03/25 08:35:31  5-MIN KNYC 031335Z AUTO VRB04KT 10SM CLR 24/10 A3021 -110 41 900 VRB/04 RMK AO2 T02390100 $
94728KNYC NYC20250803084011008/03/25 08:40:31  5-MIN KNYC 031340Z AUTO VRB04KT 10SM CLR 24/11 A3021 -110 42 900 VRB/04 RMK AO2 T02390106 $
94728KNYC NYC20250803084511708/03/25 08:45:31  5-MIN KNYC 031345Z AUTO 06005KT 10SM CLR 24/11 A3021 -110 42 900 070/05 RMK AO2 SLP222 T02390106 $
94728KNYC NYC20250803085011708/03/25 08:50:31  5-MIN KNYC 031350Z AUTO VRB05KT 10SM CLR 24/11 A3021 -110 42 900 VRB/05 RMK AO2 SLP222 T02390106 $
94728KNYC NYC20250803085511008/03/25 08:55:31  5-MIN KNYC 031355Z AUTO VRB03KT 10SM CLR 24/10 A3021 -110 41 900 VRB/03 RMK AO2 T02390100 $
94728KNYC NYC20250803090011008/03/25 09:00:31  5-MIN KNYC 031400Z AUTO VRB03KT 10SM CLR 24/11 A3021 -110 42 900 VRB/03 RMK AO2 T02390106 $
94728KNYC NYC20250803090511108/03/25 09:05:31  5-MIN KNYC 031405Z AUTO VRB05KT 10SM CLR 24/11 A3021 -110 41 1000 VRB/05 RMK AO2 T02440106 $
94728KNYC NYC20250803091011108/03/25 09:10:31  5-MIN KNYC 031410Z AUTO VRB03KT 10SM CLR 24/10 A3021 -110 39 1000 VRB/03 RMK AO2 T02440100 $
94728KNYC NYC20250803091511108/03/25 09:15:31  5-MIN KNYC 031415Z AUTO VRB05KT 10SM CLR 24/11 A3021 -110 41 1000 VRB/05 RMK AO2 T02440106 $
94728KNYC NYC20250803092011108/03/25 09:20:31  5-MIN KNYC 031420Z AUTO 35004KT 10SM CLR 24/10 A3021 -110 39 1000 360/04 RMK AO2 T02440100 $
94728KNYC NYC20250803092511108/03/25 09:25:31  5-MIN KNYC 031425Z AUTO 06005KT 10SM CLR 24/11 A3021 -100 41 1000 070/05 RMK AO2 T02440106 $
94728KNYC NYC20250803093011108/03/25 09:30:31  5-MIN KNYC 031430Z AUTO VRB05KT 10SM CLR 25/11 A3021 -110 39 1100 VRB/05 RMK AO2 T02500106 $
94728KNYC NYC20250803093511108/03/25 09:35:31  5-MIN KNYC 031435Z AUTO VRB06KT 10SM CLR 25/11 A3021 -110 39 1100 VRB/06 RMK AO2 T02500106 $
94728KNYC NYC20250803094011108/03/25 09:40:31  5-MIN KNYC 031440Z AUTO VRB05KT 10SM CLR 25/11 A3021 -110 39 1100 VRB/05 RMK AO2 T02500106 $
94728KNYC NYC20250803094512408/03/25 09:45:31  5-MIN KNYC 031445Z AUTO VRB03KT 10SM CLR 26/11 A3021 -110 38 1100 VRB/03 RMK AO2 SLP221 T02560106 50006 $
94728KNYC NYC20250803095012408/03/25 09:50:31  5-MIN KNYC 031450Z AUTO VRB03KT 10SM CLR 26/11 A3021 -110 38 1100 VRB/03 RMK AO2 SLP220 T02560106 50006 $
94728KNYC NYC20250803095511108/03/25 09:55:31  5-MIN KNYC 031455Z AUTO 05006KT 10SM CLR 26/11 A3021 -100 40 1100 060/06 RMK AO2 T02560111 $
94728KNYC NYC20250803100011108/03/25 10:00:31  5-MIN KNYC 031500Z AUTO 05005KT 10SM CLR 26/10 A3021 -100 37 1100 070/05 RMK AO2 T02560100 $
94728KNYC NYC20250803100511108/03/25 10:05:31  5-MIN KNYC 031505Z AUTO VRB04KT 10SM CLR 26/11 A3021 -100 38 1100 VRB/04 RMK AO2 T02560106 $
94728KNYC NYC20250803101011108/03/25 10:10:31  5-MIN KNYC 031510Z AUTO VRB06KT 10SM CLR 26/10 A3021 -100 37 1100 VRB/06 RMK AO2 T02560100 $
94728KNYC NYC20250803101511108/03/25 10:15:31  5-MIN KNYC 031515Z AUTO VRB05KT 10SM CLR 26/09 A3021 -100 35 1100 VRB/05 RMK AO2 T02560094 $
94728KNYC NYC20250803102011108/03/25 10:20:31  5-MIN KNYC 031520Z AUTO VRB03KT 10SM CLR 26/10 A3021 -100 37 1100 VRB/03 RMK AO2 T02560100 $
94728KNYC NYC20250803102510108/03/25 10:25:31  5-MIN KNYC 031525Z AUTO 10SM CLR 26/09 A3021 -100 34 1200 M /M RMK AO2 T02610094 $
94728KNYC NYC20250803103011108/03/25 10:30:31  5-MIN KNYC 031530Z AUTO 36006KT 10SM CLR 27/10 A3021 -100 34 1300 020/06 RMK AO2 T02670100 $
94728KNYC NYC20250803103511108/03/25 10:35:31  5-MIN KNYC 031535Z AUTO VRB04KT 10SM CLR 26/09 A3021 -100 33 1200 VRB/04 RMK AO2 T02610089 $
94728KNYC NYC20250803104011108/03/25 10:40:31  5-MIN KNYC 031540Z AUTO VRB04KT 10SM CLR 27/10 A3020 -100 34 1300 VRB/04 RMK AO2 T02670100 $
94728KNYC NYC20250803104510808/03/25 10:45:31  5-MIN KNYC 031545Z AUTO 10SM CLR 27/11 A3020 -100 36 1300 M /M RMK AO2 SLP217 T02670106 $
94728KNYC NYC20250803105011808/03/25 10:50:31  5-MIN KNYC 031550Z AUTO VRB03KT 10SM CLR 26/10 A3020 -100 36 1200 VRB/03 RMK AO2 SLP217 T02610100 $
94728KNYC NYC20250803105511108/03/25 10:55:31  5-MIN KNYC 031555Z AUTO 00000KT 10SM CLR 27/09 A3020 -100 33 1300 000/00 RMK AO2 T02670094 $
94728KNYC NYC20250803110011108/03/25 11:00:31  5-MIN KNYC 031600Z AUTO 00000KT 10SM CLR 26/11 A3020 -100 37 1200 000/00 RMK AO2 T02610106 $
94728KNYC NYC20250803110510108/03/25 11:05:31  5-MIN KNYC 031605Z AUTO 10SM CLR 27/09 A3020 -100 32 1300 M /M RMK AO2 T02670089 $
94728KNYC NYC20250803111011008/03/25 11:10:31  5-MIN KNYC 031610Z AUTO 35005KT 10SM CLR 27/08 A3020 -90 29 1300 360/05 RMK AO2 T02670078 $
94728KNYC NYC20250803111511008/03/25 11:15:31  5-MIN KNYC 031615Z AUTO 00000KT 10SM CLR 27/08 A3020 -90 31 1300 000/00 RMK AO2 T02670083 $
94728KNYC NYC20250803112010008/03/25 11:20:31  5-MIN KNYC 031620Z AUTO 10SM CLR 27/09 A3019 -90 31 1300 M /M RMK AO2 T02720089 $
94728KNYC NYC20250803112511008/03/25 11:25:31  5-MIN KNYC 031625Z AUTO 00000KT 10SM CLR 27/08 A3019 -90 30 1300 000/00 RMK AO2 T02720083 $
94728KNYC NYC20250803113011008/03/25 11:30:31  5-MIN KNYC 031630Z AUTO VRB04KT 10SM CLR 27/07 A3019 -80 27 1300 VRB/04 RMK AO2 T02720072 $
94728KNYC NYC20250803113512608/03/25 11:35:31  5-MIN KNYC 031635Z AUTO 03007KT 360V090 10SM CLR 27/07 A3019 -80 27 1300 040/07 010V100 RMK AO2 T02720072 $
94728KNYC NYC20250803114011008/03/25 11:40:31  5-MIN KNYC 031640Z AUTO VRB04KT 10SM CLR 28/06 A3019 -80 25 1400 VRB/04 RMK AO2 T02780061 $
94728KNYC NYC20250803114511708/03/25 11:45:31  5-MIN KNYC 031645Z AUTO 34005KT 10SM CLR 28/07 A3018 -80 26 1400 350/05 RMK AO2 SLP211 T02780067 $
94728KNYC NYC20250803115011708/03/25 11:50:31  5-MIN KNYC 031650Z AUTO 07004KT 10SM CLR 28/08 A3018 -80 29 1400 080/04 RMK AO2 SLP211 T02780083 $
94728KNYC NYC20250803115511008/03/25 11:55:31  5-MIN KNYC 031655Z AUTO 00000KT 10SM CLR 28/10 A3018 -80 32 1400 000/00 RMK AO2 T02780100 $
94728KNYC NYC20250803120011008/03/25 12:00:31  5-MIN KNYC 031700Z AUTO VRB03KT 10SM CLR 27/09 A3018 -80 33 1300 VRB/03 RMK AO2 T02670094 $
94728KNYC NYC20250803120511008/03/25 12:05:31  5-MIN KNYC 031705Z AUTO 00000KT 10SM CLR 26/09 A3018 -80 33 1200 000/00 RMK AO2 T02610089 $
94728KNYC NYC20250803121011008/03/25 12:10:31  5-MIN KNYC 031710Z AUTO VRB03KT 10SM CLR 27/08 A3018 -70 30 1400 VRB/03 RMK AO2 T02720083 $
94728KNYC NYC20250803121511008/03/25 12:15:31  5-MIN KNYC 031715Z AUTO 00000KT 10SM CLR 28/09 A3018 -70 30 1400 000/00 RMK AO2 T02780089 $
94728KNYC NYC20250803122011008/03/25 12:20:31  5-MIN KNYC 031720Z AUTO VRB03KT 10SM CLR 27/11 A3018 -70 34 1400 VRB/03 RMK AO2 T02720106 $
94728KNYC NYC20250803122511008/03/25 12:25:31  5-MIN KNYC 031725Z AUTO VRB03KT 10SM CLR 27/11 A3018 -70 36 1400 VRB/03 RMK AO2 T02720111 $
94728KNYC NYC20250803123011008/03/25 12:30:31  5-MIN KNYC 031730Z AUTO VRB03KT 10SM CLR 28/09 A3017 -70 30 1400 VRB/03 RMK AO2 T02780089 $
94728KNYC NYC20250803123511008/03/25 12:35:31  5-MIN KNYC 031735Z AUTO 00000KT 10SM CLR 28/09 A3017 -70 30 1500 000/00 RMK AO2 T02830094 $
94728KNYC NYC20250803124011008/03/25 12:40:31  5-MIN KNYC 031740Z AUTO VRB05KT 10SM CLR 28/09 A3017 -70 29 1500 VRB/05 RMK AO2 T02830089 $
94728KNYC NYC20250803124513508/03/25 12:45:31  5-MIN KNYC 031745Z AUTO VRB05KT 10SM CLR 28/09 A3017 -70 30 1500 VRB/05 RMK AO2 SLP206 T02830094 10283 20200 58000 $
94728KNYC NYC20250803125013508/03/25 12:50:31  5-MIN KNYC 031750Z AUTO VRB05KT 10SM CLR 28/09 A3017 -70 30 1500 VRB/05 RMK AO2 SLP206 T02830094 10283 20200 58000 $
94728KNYC NYC20250803125511008/03/25 12:55:31  5-MIN KNYC 031755Z AUTO 12006KT 10SM CLR 29/09 A3017 -60 28 1600 130/06 RMK AO2 T02890089 $
94728KNYC NYC20250803130010908/03/25 13:00:31  5-MIN KNYC 031800Z AUTO 09005KT 9SM CLR 28/09 A3017 -60 29 1500 110/05 RMK AO2 T02830089 $
94728KNYC NYC20250803130510908/03/25 13:05:31  5-MIN KNYC 031805Z AUTO VRB03KT 9SM CLR 28/09 A3017 -60 29 1500 VRB/03 RMK AO2 T02830089 $
94728KNYC NYC20250803131009908/03/25 13:10:31  5-MIN KNYC 031810Z AUTO 9SM CLR 28/08 A3016 -60 28 1500 M /M RMK AO2 T02830083 $
94728KNYC NYC20250803131510908/03/25 13:15:31  5-MIN KNYC 031815Z AUTO 05004KT 9SM CLR 28/09 A3016 -60 30 1500 060/04 RMK AO2 T02830094 $
94728KNYC NYC20250803132010908/03/25 13:20:31  5-MIN KNYC 031820Z AUTO 00000KT 9SM CLR 28/08 A3016 -60 28 1500 000/00 RMK AO2 T02830083 $
94728KNYC NYC20250803132510908/03/25 13:25:31  5-MIN KNYC 031825Z AUTO VRB03KT 9SM CLR 28/09 A3016 -60 30 1400 VRB/03 RMK AO2 T02780089 $
94728KNYC NYC20250803133010908/03/25 13:30:31  5-MIN KNYC 031830Z AUTO 30004KT 9SM CLR 28/09 A3016 -50 31 1400 310/04 RMK AO2 T02780094 $
94728KNYC NYC20250803133510908/03/25 13:35:31  5-MIN KNYC 031835Z AUTO VRB05KT 9SM CLR 28/09 A3016 -50 30 1400 VRB/05 RMK AO2 T02780089 $
94728KNYC NYC20250803134010908/03/25 13:40:31  5-MIN KNYC 031840Z AUTO VRB05KT 9SM CLR 28/09 A3016 -50 29 1500 VRB/05 RMK AO2 T02830089 $
94728KNYC NYC20250803134511608/03/25 13:45:31  5-MIN KNYC 031845Z AUTO 00000KT 9SM CLR 28/08 A3015 -50 28 1500 000/00 RMK AO2 SLP200 T02830083 $
94728KNYC NYC20250803135011608/03/25 13:50:31  5-MIN KNYC 031850Z AUTO 05005KT 9SM CLR 28/09 A3015 -50 30 1400 060/05 RMK AO2 SLP199 T02780089 $
94728KNYC NYC20250803135510908/03/25 13:55:31  5-MIN KNYC 031855Z AUTO 00000KT 9SM CLR 29/08 A3015 -50 27 1600 000/00 RMK AO2 T02890083 $
94728KNYC NYC20250803140010908/03/25 14:00:31  5-MIN KNYC 031900Z AUTO VRB03KT 9SM CLR 28/09 A3015 -50 29 1500 VRB/03 RMK AO2 T02830089 $
94728KNYC NYC20250803140510908/03/25 14:05:31  5-MIN KNYC 031905Z AUTO VRB06KT 9SM CLR 29/09 A3015 -40 28 1600 VRB/06 RMK AO2 T02890089 $
94728KNYC NYC20250803141010908/03/25 14:10:31  5-MIN KNYC 031910Z AUTO 00000KT 8SM CLR 29/08 A3015 -40 27 1600 000/00 RMK AO2 T02890083 $
94728KNYC NYC20250803141510908/03/25 14:15:31  5-MIN KNYC 031915Z AUTO VRB04KT 8SM CLR 28/08 A3015 -40 28 1500 VRB/04 RMK AO2 T02830083 $
94728KNYC NYC20250803142010908/03/25 14:20:31  5-MIN KNYC 031920Z AUTO VRB04KT 8SM CLR 28/10 A3015 -40 32 1500 VRB/04 RMK AO2 T02780100 $
94728KNYC NYC20250803142510908/03/25 14:25:31  5-MIN KNYC 031925Z AUTO VRB04KT 8SM CLR 28/08 A3014 -40 28 1500 VRB/04 RMK AO2 T02830083 $
94728KNYC NYC20250803143010908/03/25 14:30:31  5-MIN KNYC 031930Z AUTO 08006KT 8SM CLR 28/08 A3014 -40 27 1500 090/06 RMK AO2 T02830078 $
94728KNYC NYC20250803143510908/03/25 14:35:31  5-MIN KNYC 031935Z AUTO VRB06KT 8SM CLR 28/08 A3014 -40 28 1500 VRB/06 RMK AO2 T02830083 $
94728KNYC NYC20250803144010908/03/25 14:40:31  5-MIN KNYC 031940Z AUTO VRB03KT 8SM CLR 28/08 A3014 -40 28 1500 VRB/03 RMK AO2 T02780078 $
94728KNYC NYC20250803144511608/03/25 14:45:31  5-MIN KNYC 031945Z AUTO 00000KT 8SM CLR 27/07 A3014 -40 27 1400 000/00 RMK AO2 SLP196 T02720072 $
94728KNYC NYC20250803145011608/03/25 14:50:31  5-MIN KNYC 031950Z AUTO VRB03KT 8SM CLR 28/07 A3014 -40 27 1500 VRB/03 RMK AO2 SLP196 T02780072 $
94728KNYC NYC20250803145510908/03/25 14:55:31  5-MIN KNYC 031955Z AUTO VRB04KT 8SM CLR 29/07 A3014 -40 25 1600 VRB/04 RMK AO2 T02890072 $
94728KNYC NYC20250803150010908/03/25 15:00:31  5-MIN KNYC 032000Z AUTO VRB04KT 8SM CLR 28/08 A3014 -40 27 1500 VRB/04 RMK AO2 T02830078 $
94728KNYC NYC20250803150510908/03/25 15:05:31  5-MIN KNYC 032005Z AUTO 00000KT 8SM CLR 28/07 A3014 -40 27 1500 000/00 RMK AO2 T02780072 $
94728KNYC NYC20250803151010908/03/25 15:10:31  5-MIN KNYC 032010Z AUTO VRB03KT 8SM CLR 28/08 A3014 -40 28 1500 VRB/03 RMK AO2 T02780078 $
94728KNYC NYC20250803151510908/03/25 15:15:31  5-MIN KNYC 032015Z AUTO 00000KT 8SM CLR 28/08 A3014 -40 28 1500 000/00 RMK AO2 T02780078 $
94728KNYC NYC20250803152010908/03/25 15:20:31  5-MIN KNYC 032020Z AUTO VRB04KT 8SM CLR 27/09 A3014 -40 32 1400 VRB/04 RMK AO2 T02720094 $
94728KNYC NYC20250803152510908/03/25 15:25:31  5-MIN KNYC 032025Z AUTO VRB03KT 9SM CLR 28/09 A3014 -40 31 1500 VRB/03 RMK AO2 T02780094 $
94728KNYC NYC20250803153010008/03/25 15:30:31  5-MIN KNYC 032030Z AUTO 10SM CLR 28/10 A3014 -40 32 1500 M /M RMK AO2 T02780100 $
94728KNYC NYC20250803153510008/03/25 15:35:31  5-MIN KNYC 032035Z AUTO 10SM CLR 27/09 A3014 -40 32 1400 M /M RMK AO2 T02720094 $
94728KNYC NYC20250803154011008/03/25 15:40:31  5-MIN KNYC 032040Z AUTO 00000KT 10SM CLR 27/11 A3014 -40 36 1300 000/00 RMK AO2 T02670106 $
94728KNYC NYC20250803154512308/03/25 15:45:31  5-MIN KNYC 032045Z AUTO 00000KT 10SM CLR 27/11 A3014 -40 36 1300 000/00 RMK AO2 SLP196 T02670106 58015 $
94728KNYC NYC20250803155012308/03/25 15:50:31  5-MIN KNYC 032050Z AUTO 00000KT 10SM CLR 27/10 A3013 -30 33 1400 000/00 RMK AO2 SLP195 T02720100 58015 $
94728KNYC NYC20250803155511008/03/25 15:55:31  5-MIN KNYC 032055Z AUTO 00000KT 10SM CLR 27/12 A3013 -30 38 1300 000/00 RMK AO2 T02670117 $
94728KNYC NYC20250803160011008/03/25 16:00:31  5-MIN KNYC 032100Z AUTO VRB05KT 10SM CLR 27/11 A3013 -30 37 1300 VRB/05 RMK AO2 T02670111 $
94728KNYC NYC20250803160511008/03/25 16:05:31  5-MIN KNYC 032105Z AUTO VRB03KT 10SM CLR 27/10 A3013 -30 34 1300 VRB/03 RMK AO2 T02670100 $
94728KNYC NYC20250803161010008/03/25 16:10:31  5-MIN KNYC 032110Z AUTO 10SM CLR 27/11 A3013 -30 36 1300 M /M RMK AO2 T02670106 $
94728KNYC NYC20250803161511008/03/25 16:15:31  5-MIN KNYC 032115Z AUTO 00000KT 10SM CLR 27/09 A3013 -30 33 1300 000/00 RMK AO2 T02670094 $
94728KNYC NYC20250803162011008/03/25 16:20:31  5-MIN KNYC 032120Z AUTO VRB03KT 10SM CLR 26/11 A3013 -30 37 1300 VRB/03 RMK AO2 T02610106 $
94728KNYC NYC20250803162511008/03/25 16:25:31  5-MIN KNYC 032125Z AUTO VRB05KT 10SM CLR 26/09 A3013 -30 34 1300 VRB/05 RMK AO2 T02610094 $
94728KNYC NYC20250803163011008/03/25 16:30:31  5-MIN KNYC 032130Z AUTO VRB03KT 10SM CLR 26/10 A3013 -30 36 1300 VRB/03 RMK AO2 T02610100 $
94728KNYC NYC20250803163511008/03/25 16:35:31  5-MIN KNYC 032135Z AUTO VRB03KT 10SM CLR 26/11 A3013 -30 37 1300 VRB/03 RMK AO2 T02610106 $
94728KNYC NYC20250803164011008/03/25 16:40:31  5-MIN KNYC 032140Z AUTO VRB03KT 10SM CLR 26/10 A3013 -30 36 1300 VRB/03 RMK AO2 T02610100 $
94728KNYC NYC20250803164511708/03/25 16:45:31  5-MIN KNYC 032145Z AUTO VRB03KT 10SM CLR 26/10 A3013 -30 36 1300 VRB/03 RMK AO2 SLP193 T02610100 $
94728KNYC NYC20250803165011708/03/25 16:50:31  5-MIN KNYC 032150Z AUTO VRB05KT 10SM CLR 26/10 A3013 -30 36 1300 VRB/05 RMK AO2 SLP193 T02610100 $
94728KNYC NYC20250803165511008/03/25 16:55:31  5-MIN KNYC 032155Z AUTO 15004KT 10SM CLR 26/11 A3013 -30 37 1300 160/04 RMK AO2 T02610106 $
94728KNYC NYC20250803170011008/03/25 17:00:31  5-MIN KNYC 032200Z AUTO VRB04KT 10SM CLR 26/10 A3013 -30 37 1200 VRB/04 RMK AO2 T02560100 $
94728KNYC NYC20250803170510008/03/25 17:05:31  5-MIN KNYC 032205Z AUTO 10SM CLR 26/11 A3013 -30 38 1200 M /M RMK AO2 T02560106 $
94728KNYC NYC20250803171010008/03/25 17:10:31  5-MIN KNYC 032210Z AUTO 10SM CLR 26/10 A3014 -40 37 1200 M /M RMK AO2 T02560100 $
94728KNYC NYC20250803171511008/03/25 17:15:31  5-MIN KNYC 032215Z AUTO VRB05KT 10SM CLR 26/09 A3013 -30 35 1200 VRB/05 RMK AO2 T02560094 $
94728KNYC NYC20250803172011008/03/25 17:20:31  5-MIN KNYC 032220Z AUTO VRB05KT 10SM CLR 26/09 A3013 -30 35 1200 VRB/05 RMK AO2 T02560094 $
94728KNYC NYC20250803172510008/03/25 17:25:31  5-MIN KNYC 032225Z AUTO 10SM CLR 25/10 A3013 -30 38 1200 M /M RMK AO2 T02500100 $
94728KNYC NYC20250803173011008/03/25 17:30:31  5-MIN KNYC 032230Z AUTO VRB03KT 10SM CLR 25/10 A3014 -40 38 1100 VRB/03 RMK AO2 T02500100 $
94728KNYC NYC20250803173510008/03/25 17:35:31  5-MIN KNYC 032235Z AUTO 10SM CLR 25/11 A3014 -40 39 1100 M /M RMK AO2 T02500106 $
94728KNYC NYC20250803174011008/03/25 17:40:31  5-MIN KNYC 032240Z AUTO 00000KT 10SM CLR 25/11 A3014 -40 39 1100 000/00 RMK AO2 T02500106 $
94728KNYC NYC20250803174511708/03/25 17:45:31  5-MIN KNYC 032245Z AUTO VRB03KT 10SM CLR 25/10 A3014 -40 38 1100 VRB/03 RMK AO2 SLP198 T02500100 $
94728KNYC NYC20250803175011708/03/25 17:50:31  5-MIN KNYC 032250Z AUTO 19005KT 10SM CLR 25/11 A3014 -40 39 1100 200/05 RMK AO2 SLP198 T02500106 $
94728KNYC NYC20250803175511008/03/25 17:55:31  5-MIN KNYC 032255Z AUTO VRB05KT 10SM CLR 25/11 A3014 -40 39 1100 VRB/05 RMK AO2 T02500106 $
94728KNYC NYC20250803180011008/03/25 18:00:31  5-MIN KNYC 032300Z AUTO 00000KT 10SM CLR 25/10 A3014 -40 38 1100 000/00 RMK AO2 T02500100 $
94728KNYC NYC20250803180510008/03/25 18:05:31  5-MIN KNYC 032305Z AUTO 10SM CLR 24/11 A3014 -40 41 1100 M /M RMK AO2 T02440106 $
94728KNYC NYC20250803181010008/03/25 18:10:31  5-MIN KNYC 032310Z AUTO 10SM CLR 24/11 A3014 -40 42 1000 M /M RMK AO2 T02390106 $
94728KNYC NYC20250803181511008/03/25 18:15:31  5-MIN KNYC 032315Z AUTO VRB03KT 10SM CLR 24/10 A3014 -40 39 1100 VRB/03 RMK AO2 T02440100 $
94728KNYC NYC20250803182011008/03/25 18:20:31  5-MIN KNYC 032320Z AUTO 00000KT 10SM CLR 24/11 A3014 -40 41 1100 000/00 RMK AO2 T02440106 $
94728KNYC NYC20250803182511008/03/25 18:25:31  5-MIN KNYC 032325Z AUTO VRB03KT 10SM CLR 24/11 A3014 -40 42 1000 VRB/03 RMK AO2 T02390106 $
94728KNYC NYC20250803183011008/03/25 18:30:31  5-MIN KNYC 032330Z AUTO VRB04KT 10SM CLR 24/11 A3014 -40 42 1000 VRB/04 RMK AO2 T02390106 $
94728KNYC NYC20250803183511008/03/25 18:35:31  5-MIN KNYC 032335Z AUTO VRB03KT 10SM CLR 24/11 A3014 -40 42 1000 VRB/03 RMK AO2 T02390106 $
94728KNYC NYC20250803184011008/03/25 18:40:31  5-MIN KNYC 032340Z AUTO VRB03KT 10SM CLR 24/11 A3014 -40 42 1000 VRB/03 RMK AO2 T02390106 $
94728KNYC NYC20250803184513508/03/25 18:45:31  5-MIN KNYC 032345Z AUTO 00000KT 10SM CLR 24/10 A3014 -40 41 1000 000/00 RMK AO2 SLP198 T02390100 10289 20239 56012 $
94728KNYC NYC20250803185013508/03/25 18:50:31  5-MIN KNYC 032350Z AUTO 00000KT 10SM CLR 24/10 A3014 -40 41 1000 000/00 RMK AO2 SLP198 T02390100 10289 20239 56012 $
94728KNYC NYC20250803185511008/03/25 18:55:31  5-MIN KNYC 032355Z AUTO 00000KT 10SM CLR 24/09 A3014 -40 39 1000 000/00 RMK AO2 T02390094 $
94728KNYC NYC20250803190011008/03/25 19:00:31  5-MIN KNYC 040000Z AUTO VRB03KT 10SM CLR 24/09 A3014 -40 39 1000 VRB/03 RMK AO2 T02390094 $
94728KNYC NYC20250803190511008/03/25 19:05:31  5-MIN KNYC 040005Z AUTO 00000KT 10SM CLR 24/10 A3014 -40 41 1000 000/00 RMK AO2 T02390100 $
94728KNYC NYC20250803191011008/03/25 19:10:31  5-MIN KNYC 040010Z AUTO 00000KT 10SM CLR 23/10 A3014 -40 42 1000 000/00 RMK AO2 T02330100 $
94728KNYC NYC20250803191511008/03/25 19:15:31  5-MIN KNYC 040015Z AUTO 00000KT 10SM CLR 23/10 A3014 -40 42 1000 000/00 RMK AO2 T02330100 $
94728KNYC NYC20250803192011008/03/25 19:20:31  5-MIN KNYC 040020Z AUTO 00000KT 10SM CLR 23/10 A3014 -40 42 1000 000/00 RMK AO2 T02330100 $
94728KNYC NYC20250803192511008/03/25 19:25:31  5-MIN KNYC 040025Z AUTO 00000KT 10SM CLR 23/10 A3014 -40 42 1000 000/00 RMK AO2 T02330100 $
94728KNYC NYC20250803193011008/03/25 19:30:31  5-MIN KNYC 040030Z AUTO VRB03KT 10SM CLR 23/10 A3014 -40 42 1000 VRB/03 RMK AO2 T02330100 $
94728KNYC NYC20250803193511008/03/25 19:35:31  5-MIN KNYC 040035Z AUTO 00000KT 10SM CLR 23/11 A3014 -40 44 1000 000/00 RMK AO2 T02330106 $
94728KNYC NYC20250803194011008/03/25 19:40:31  5-MIN KNYC 040040Z AUTO 00000KT 10SM CLR 23/10 A3014 -40 42 1000 000/00 RMK AO2 T02330100 $
94728KNYC NYC20250803194511708/03/25 19:45:31  5-MIN KNYC 040045Z AUTO 00000KT 10SM CLR 23/10 A3014 -40 42 1000 000/00 RMK AO2 SLP198 T02330100 $
94728KNYC NYC20250803195011708/03/25 19:50:31  5-MIN KNYC 040050Z AUTO 00000KT 10SM CLR 23/10 A3014 -40 42 1000 000/00 RMK AO2 SLP197 T02330100 $
94728KNYC NYC20250803195510908/03/25 19:55:31  5-MIN KNYC 040055Z AUTO 00000KT 10SM CLR 23/10 A3015 -40 44 900 000/00 RMK AO2 T02280100 $
94728KNYC NYC20250803200010908/03/25 20:00:31  5-MIN KNYC 040100Z AUTO 00000KT 10SM CLR 23/10 A3015 -50 44 900 000/00 RMK AO2 T02280100 $
94728KNYC NYC20250803200510908/03/25 20:05:31  5-MIN KNYC 040105Z AUTO 00000KT 10SM CLR 23/11 A3015 -50 45 900 000/00 RMK AO2 T02280106 $
94728KNYC NYC20250803201010908/03/25 20:10:31  5-MIN KNYC 040110Z AUTO 00000KT 10SM CLR 22/10 A3015 -50 45 800 000/00 RMK AO2 T02220100 $
94728KNYC NYC20250803201510908/03/25 20:15:31  5-MIN KNYC 040115Z AUTO 00000KT 10SM CLR 22/11 A3016 -50 47 800 000/00 RMK AO2 T02220106 $
94728KNYC NYC20250803202010908/03/25 20:20:31  5-MIN KNYC 040120Z AUTO 00000KT 10SM CLR 22/11 A3016 -60 47 800 000/00 RMK AO2 T02220106 $
94728KNYC NYC20250803202510908/03/25 20:25:31  5-MIN KNYC 040125Z AUTO 00000KT 10SM CLR 23/11 A3016 -60 45 900 000/00 RMK AO2 T02280106 $
94728KNYC NYC20250803203010908/03/25 20:30:31  5-MIN KNYC 040130Z AUTO 00000KT 10SM CLR 22/11 A3016 -60 47 800 000/00 RMK AO2 T02220106 $
94728KNYC NYC20250803203510908/03/25 20:35:31  5-MIN KNYC 040135Z AUTO 00000KT 10SM CLR 22/11 A3016 -60 47 800 000/00 RMK AO2 T02220106 $
94728KNYC NYC20250803204010908/03/25 20:40:31  5-MIN KNYC 040140Z AUTO 00000KT 10SM CLR 23/11 A3016 -60 45 900 000/00 RMK AO2 T02280106 $
94728KNYC NYC20250803204511608/03/25 20:45:31  5-MIN KNYC 040145Z AUTO 00000KT 10SM CLR 22/11 A3016 -60 47 800 000/00 RMK AO2 SLP202 T02220106 $
94728KNYC NYC20250803205011608/03/25 20:50:31  5-MIN KNYC 040150Z AUTO 00000KT 10SM CLR 23/11 A3016 -60 45 900 000/00 RMK AO2 SLP202 T02280106 $
94728KNYC NYC20250803205510908/03/25 20:55:31  5-MIN KNYC 040155Z AUTO VRB03KT 10SM CLR 22/11 A3016 -60 47 800 VRB/03 RMK AO2 T02220106 $
94728KNYC NYC20250803210010908/03/25 21:00:31  5-MIN KNYC 040200Z AUTO 20003KT 10SM CLR 23/11 A3016 -60 45 900 210/03 RMK AO2 T02280106 $
94728KNYC NYC20250803210510908/03/25 21:05:31  5-MIN KNYC 040205Z AUTO 00000KT 10SM CLR 23/11 A3016 -50 45 900 000/00 RMK AO2 T02280106 $
94728KNYC NYC20250803211010908/03/25 21:10:31  5-MIN KNYC 040210Z AUTO 00000KT 10SM CLR 23/11 A3015 -50 45 900 000/00 RMK AO2 T02280106 $
94728KNYC NYC20250803211510908/03/25 21:15:31  5-MIN KNYC 040215Z AUTO 00000KT 10SM CLR 23/10 A3015 -50 44 900 000/00 RMK AO2 T02280100 $
94728KNYC NYC20250803212010908/03/25 21:20:31  5-MIN KNYC 040220Z AUTO 00000KT 10SM CLR 22/11 A3015 -50 47 800 000/00 RMK AO2 T02220106 $
94728KNYC NYC20250803212510908/03/25 21:25:31  5-MIN KNYC 040225Z AUTO 00000KT 10SM CLR 22/11 A3015 -50 47 800 000/00 RMK AO2 T02220106 $
94728KNYC NYC20250803213010908/03/25 21:30:31  5-MIN KNYC 040230Z AUTO 20003KT 10SM CLR 22/10 A3015 -50 45 800 210/03 RMK AO2 T02220100 $
94728KNYC NYC20250803213510908/03/25 21:35:31  5-MIN KNYC 040235Z AUTO 00000KT 10SM CLR 22/10 A3015 -50 45 800 000/00 RMK AO2 T02220100 $
94728KNYC NYC20250803214010908/03/25 21:40:31  5-MIN KNYC 040240Z AUTO 00000KT 10SM CLR 22/09 A3015 -50 43 800 000/00 RMK AO2 T02220094 $
94728KNYC NYC20250803214512208/03/25 21:45:31  5-MIN KNYC 040245Z AUTO 00000KT 10SM CLR 22/10 A3015 -50 45 800 000/00 RMK AO2 SLP200 T02220100 53003 $
94728KNYC NYC20250803215012208/03/25 21:50:31  5-MIN KNYC 040250Z AUTO 00000KT 10SM CLR 22/09 A3015 -50 43 800 000/00 RMK AO2 SLP199 T02220094 53003 $
94728KNYC NYC20250803215510908/03/25 21:55:31  5-MIN KNYC 040255Z AUTO 00000KT 10SM CLR 22/10 A3015 -50 45 800 000/00 RMK AO2 T02220100 $
94728KNYC NYC20250803220010908/03/25 22:00:31  5-MIN KNYC 040300Z AUTO 00000KT 10SM CLR 22/10 A3015 -50 45 800 000/00 RMK AO2 T02220100 $
94728KNYC NYC20250803220510908/03/25 22:05:31  5-MIN KNYC 040305Z AUTO 00000KT 10SM CLR 22/10 A3015 -50 45 800 000/00 RMK AO2 T02220100 $
94728KNYC NYC20250803221010908/03/25 22:10:31  5-MIN KNYC 040310Z AUTO 00000KT 10SM CLR 22/10 A3015 -50 45 800 000/00 RMK AO2 T02220100 $
94728KNYC NYC20250803221510908/03/25 22:15:31  5-MIN KNYC 040315Z AUTO 00000KT 10SM CLR 22/11 A3015 -50 49 800 000/00 RMK AO2 T02220111 $
94728KNYC NYC20250803222010908/03/25 22:20:31  5-MIN KNYC 040320Z AUTO 00000KT 10SM CLR 22/11 A3015 -50 47 800 000/00 RMK AO2 T02220106 $
94728KNYC NYC20250803222510908/03/25 22:25:31  5-MIN KNYC 040325Z AUTO 00000KT 10SM CLR 22/11 A3015 -50 49 800 000/00 RMK AO2 T02170106 $
94728KNYC NYC20250803223010908/03/25 22:30:31  5-MIN KNYC 040330Z AUTO 00000KT 10SM CLR 22/11 A3015 -50 49 800 000/00 RMK AO2 T02170106 $
94728KNYC NYC20250803223510908/03/25 22:35:31  5-MIN KNYC 040335Z AUTO 00000KT 10SM CLR 22/11 A3015 -50 49 800 000/00 RMK AO2 T02220111 $
94728KNYC NYC20250803224010908/03/25 22:40:31  5-MIN KNYC 040340Z AUTO 00000KT 10SM CLR 22/11 A3015 -50 47 800 000/00 RMK AO2 T02220106 $
94728KNYC NYC20250803224511608/03/25 22:45:31  5-MIN KNYC 040345Z AUTO 00000KT 10SM CLR 22/11 A3015 -50 49 800 000/00 RMK AO2 SLP199 T02170106 $
94728KNYC NYC20250803225011608/03/25 22:50:31  5-MIN KNYC 040350Z AUTO 00000KT 10SM CLR 22/11 A3015 -50 49 800 000/00 RMK AO2 SLP198 T02170106 $
94728KNYC NYC20250803225510908/03/25 22:55:31  5-MIN KNYC 040355Z AUTO 00000KT 10SM CLR 22/11 A3015 -50 49 800 000/00 RMK AO2 T02170106 $
94728KNYC NYC20250803230010908/03/25 23:00:31  5-MIN KNYC 040400Z AUTO 00000KT 10SM CLR 22/11 A3015 -50 47 800 000/00 RMK AO2 T02220106 $
94728KNYC NYC20250803230510908/03/25 23:05:31  5-MIN KNYC 040405Z AUTO 00000KT 10SM CLR 22/10 A3015 -50 45 800 000/00 RMK AO2 T02220100 $
94728KNYC NYC20250803231010908/03/25 23:10:31  5-MIN KNYC 040410Z AUTO 00000KT 10SM CLR 22/10 A3015 -50 47 800 000/00 RMK AO2 T02170100 $
94728KNYC NYC20250803231510908/03/25 23:15:31  5-MIN KNYC 040415Z AUTO 25003KT 10SM CLR 22/11 A3015 -50 49 800 260/03 RMK AO2 T02170106 $
94728KNYC NYC20250803232010908/03/25 23:20:31  5-MIN KNYC 040420Z AUTO 23004KT 10SM CLR 22/09 A3015 -50 43 800 250/04 RMK AO2 T02220094 $
94728KNYC NYC20250803232510908/03/25 23:25:31  5-MIN KNYC 040425Z AUTO VRB03KT 10SM CLR 22/09 A3015 -50 43 800 VRB/03 RMK AO2 T02220094 $
94728KNYC NYC20250803233010908/03/25 23:30:31  5-MIN KNYC 040430Z AUTO 24003KT 10SM CLR 22/10 A3015 -50 45 800 250/03 RMK AO2 T02220100 $
94728KNYC NYC20250803233510908/03/25 23:35:31  5-MIN KNYC 040435Z AUTO 00000KT 10SM CLR 23/10 A3015 -50 44 900 000/00 RMK AO2 T02280100 $
94728KNYC NYC20250803234010908/03/25 23:40:31  5-MIN KNYC 040440Z AUTO 00000KT 10SM CLR 22/10 A3015 -50 45 800 000/00 RMK AO2 T02220100 $
94728KNYC NYC20250803234512608/03/25 23:45:31  5-MIN KNYC 040445Z AUTO 00000KT 10SM CLR 22/10 A3015 -50 45 800 000/00 RMK AO2 SLP200 T02220100 402890178 $
94728KNYC NYC20250803235012608/03/25 23:50:31  5-MIN KNYC 040450Z AUTO VRB03KT 10SM CLR 22/10 A3015 -50 47 800 VRB/03 RMK AO2 SLP200 T02170100 402890178 $
94728KNYC NYC20250803235510908/03/25 23:55:31  5-MIN KNYC 040455Z AUTO VRB03KT 10SM CLR 22/09 A3015 -50 43 800 VRB/03 RMK AO2 T02220094 $
94728KNYC NYC20250804000010908/04/25 00:00:31  5-MIN KNYC 040500Z AUTO 23003KT 10SM CLR 22/09 A3015 -50 43 800 240/03 RMK AO2 T02220094 $
94728KNYC NYC20250804000510908/04/25 00:05:31  5-MIN KNYC 040505Z AUTO 23003KT 10SM CLR 22/09 A3015 -40 43 800 240/03 RMK AO2 T02220094 $
94728KNYC NYC20250804001010908/04/25 00:10:31  5-MIN KNYC 040510Z AUTO 25003KT 10SM CLR 22/09 A3014 -40 43 800 260/03 RMK AO2 T02220094 $
94728KNYC NYC20250804001510908/04/25 00:15:31  5-MIN KNYC 040515Z AUTO 23003KT 10SM CLR 22/09 A3014 -40 43 800 250/03 RMK AO2 T02220094 $
94728KNYC NYC20250804002010908/04/25 00:20:31  5-MIN KNYC 040520Z AUTO 24004KT 10SM CLR 22/09 A3014 -40 43 800 250/04 RMK AO2 T02220094 $
94728KNYC NYC20250804002510908/04/25 00:25:31  5-MIN KNYC 040525Z AUTO 23003KT 10SM CLR 22/09 A3014 -40 45 800 240/03 RMK AO2 T02170094 $
94728KNYC NYC20250804003010908/04/25 00:30:31  5-MIN KNYC 040530Z AUTO 00000KT 10SM CLR 22/09 A3014 -40 42 800 000/00 RMK AO2 T02220089 $
94728KNYC NYC20250804003510908/04/25 00:35:31  5-MIN KNYC 040535Z AUTO 00000KT 10SM CLR 22/09 A3014 -40 42 800 000/00 RMK AO2 T02220089 $
94728KNYC NYC20250804004010908/04/25 00:40:31  5-MIN KNYC 040540Z AUTO 00000KT 10SM CLR 22/09 A3014 -40 45 800 000/00 RMK AO2 T02170094 $
94728KNYC NYC20250804004513408/04/25 00:45:31  5-MIN KNYC 040545Z AUTO 00000KT 10SM CLR 22/09 A3014 -40 45 800 000/00 RMK AO2 SLP197 T02170094 10239 20217 50002 $
94728KNYC NYC20250804005013408/04/25 00:50:31  5-MIN KNYC 040550Z AUTO 00000KT 10SM CLR 22/09 A3014 -40 45 800 000/00 RMK AO2 SLP197 T02170094 10239 20217 50002 $
94728KNYC NYC20250804005510908/04/25 00:55:31  5-MIN KNYC 040555Z AUTO 23003KT 10SM CLR 22/09 A3014 -40 45 800 250/03 RMK AO2 T02170094 $
94728KNYC NYC20250804010010908/04/25 01:00:31  5-MIN KNYC 040600Z AUTO VRB03KT 10SM CLR 22/09 A3014 -40 45 800 VRB/03 RMK AO2 T02170094 $
94728KNYC NYC20250804010510908/04/25 01:05:31  5-MIN KNYC 040605Z AUTO VRB03KT 10SM CLR 22/09 A3014 -40 45 800 VRB/03 RMK AO2 T02170094 $
94728KNYC NYC20250804011010908/04/25 01:10:31  5-MIN KNYC 040610Z AUTO 24003KT 10SM CLR 22/10 A3014 -40 47 800 260/03 RMK AO2 T02170100 $
94728KNYC NYC20250804011510908/04/25 01:15:31  5-MIN KNYC 040615Z AUTO 24003KT 10SM CLR 22/10 A3014 -40 47 800 250/03 RMK AO2 T02170100 $
94728KNYC NYC20250804012010908/04/25 01:20:31  5-MIN KNYC 040620Z AUTO 25004KT 10SM CLR 22/09 A3014 -40 45 800 260/04 RMK AO2 T02170094 $
94728KNYC NYC20250804012510908/04/25 01:25:31  5-MIN KNYC 040625Z AUTO 00000KT 10SM CLR 22/10 A3014 -40 47 800 000/00 RMK AO2 T02170100 $
94728KNYC NYC20250804013010908/04/25 01:30:31  5-MIN KNYC 040630Z AUTO VRB03KT 10SM CLR 22/10 A3014 -40 47 800 VRB/03 RMK AO2 T02170100 $
94728KNYC NYC20250804013510908/04/25 01:35:31  5-MIN KNYC 040635Z AUTO 25003KT 10SM CLR 22/10 A3014 -40 47 800 260/03 RMK AO2 T02170100 $
94728KNYC NYC20250804014010908/04/25 01:40:31  5-MIN KNYC 040640Z AUTO 24003KT 10SM CLR 22/10 A3014 -40 47 800 250/03 RMK AO2 T02170100 $
94728KNYC NYC20250804014511608/04/25 01:45:31  5-MIN KNYC 040645Z AUTO 23003KT 10SM CLR 22/10 A3014 -40 47 800 240/03 RMK AO2 SLP195 T02170100 $
94728KNYC NYC20250804015011608/04/25 01:50:31  5-MIN KNYC 040650Z AUTO 00000KT 10SM CLR 21/10 A3014 -40 48 700 000/00 RMK AO2 SLP195 T02110100 $
94728KNYC NYC20250804015510908/04/25 01:55:31  5-MIN KNYC 040655Z AUTO 00000KT 10SM CLR 21/10 A3013 -30 48 700 000/00 RMK AO2 T02110100 $
94728KNYC NYC20250804020010908/04/25 02:00:31  5-MIN KNYC 040700Z AUTO 00000KT 10SM CLR 21/11 A3013 -30 50 700 000/00 RMK AO2 T02110106 $
94728KNYC NYC20250804020510908/04/25 02:05:31  5-MIN KNYC 040705Z AUTO 00000KT 10SM CLR 21/11 A3013 -30 50 700 000/00 RMK AO2 T02110106 $
94728KNYC NYC20250804021010908/04/25 02:10:31  5-MIN KNYC 040710Z AUTO 00000KT 10SM CLR 22/10 A3013 -30 47 800 000/00 RMK AO2 T02170100 $
94728KNYC NYC20250804021510908/04/25 02:15:31  5-MIN KNYC 040715Z AUTO VRB03KT 10SM CLR 21/10 A3013 -30 48 700 VRB/03 RMK AO2 T02110100 $
94728KNYC NYC20250804022010908/04/25 02:20:31  5-MIN KNYC 040720Z AUTO 00000KT 10SM CLR 21/11 A3013 -30 50 700 000/00 RMK AO2 T02110106 $
94728KNYC NYC20250804022510908/04/25 02:25:31  5-MIN KNYC 040725Z AUTO 00000KT 10SM CLR 21/10 A3013 -30 48 700 000/00 RMK AO2 T02110100 $
94728KNYC NYC20250804023010908/04/25 02:30:31  5-MIN KNYC 040730Z AUTO 00000KT 10SM CLR 22/10 A3013 -30 47 800 000/00 RMK AO2 T02170100 $
94728KNYC NYC20250804023510908/04/25 02:35:31  5-MIN KNYC 040735Z AUTO 00000KT 10SM CLR 22/10 A3013 -30 47 800 000/00 RMK AO2 T02170100 $
94728KNYC NYC20250804024010908/04/25 02:40:31  5-MIN KNYC 040740Z AUTO 00000KT 10SM CLR 22/10 A3013 -30 47 800 000/00 RMK AO2 T02170100 $
94728KNYC NYC20250804024511608/04/25 02:45:31  5-MIN KNYC 040745Z AUTO 00000KT 10SM CLR 22/10 A3013 -30 47 800 000/00 RMK AO2 SLP193 T02170100 $
94728KNYC NYC20250804025011608/04/25 02:50:31  5-MIN KNYC 040750Z AUTO 00000KT 10SM CLR 22/10 A3013 -30 47 800 000/00 RMK AO2 SLP193 T02170100 $
94728KNYC NYC20250804025510908/04/25 02:55:31  5-MIN KNYC 040755Z AUTO 00000KT 10SM CLR 21/10 A3013 -30 48 700 000/00 RMK AO2 T02110100 $
94728KNYC NYC20250804030010908/04/25 03:00:31  5-MIN KNYC 040800Z AUTO 00000KT 10SM CLR 21/10 A3013 -30 48 700 000/00 RMK AO2 T02110100 $
94728KNYC NYC20250804030510908/04/25 03:05:31  5-MIN KNYC 040805Z AUTO 00000KT 10SM CLR 21/11 A3013 -30 50 700 000/00 RMK AO2 T02110106 $
94728KNYC NYC20250804031010908/04/25 03:10:31  5-MIN KNYC 040810Z AUTO 00000KT 10SM CLR 21/11 A3013 -30 54 600 000/00 RMK AO2 T02060111 $
94728KNYC NYC20250804031510908/04/25 03:15:31  5-MIN KNYC 040815Z AUTO 00000KT 10SM CLR 21/11 A3013 -30 54 600 000/00 RMK AO2 T02060111 $
94728KNYC NYC20250804032010908/04/25 03:20:31  5-MIN KNYC 040820Z AUTO 00000KT 10SM CLR 21/11 A3013 -30 52 600 000/00 RMK AO2 T02060106 $
94728KNYC NYC20250804032510908/04/25 03:25:31  5-MIN KNYC 040825Z AUTO 00000KT 10SM CLR 21/11 A3013 -30 54 600 000/00 RMK AO2 T02060111 $
94728KNYC NYC20250804033010908/04/25 03:30:31  5-MIN KNYC 040830Z AUTO 00000KT 10SM CLR 21/11 A3013 -30 54 600 000/00 RMK AO2 T02060111 $
94728KNYC NYC20250804073510908/04/25 07:35:31  5-MIN KNYC 041235Z AUTO 00000KT 10SM CLR 21/13 A3019 -80 58 600 000/00 RMK AO2 T02110128 $
94728KNYC NYC20250804074010908/04/25 07:40:31  5-MIN KNYC 041240Z AUTO 00000KT 10SM CLR 22/13 A3018 -80 58 700 000/00 RMK AO2 T02170133 $
94728KNYC NYC20250804074511608/04/25 07:45:31  5-MIN KNYC 041245Z AUTO 00000KT 10SM CLR 22/13 A3019 -80 56 800 000/00 RMK AO2 SLP213 T02220133 $
94728KNYC NYC20250804075011608/04/25 07:50:31  5-MIN KNYC 041250Z AUTO 00000KT 10SM CLR 23/13 A3019 -80 53 800 000/00 RMK AO2 SLP211 T02280128 $
94728KNYC NYC20250804075510908/04/25 07:55:31  5-MIN KNYC 041255Z AUTO 00000KT 10SM CLR 22/13 A3018 -80 54 800 000/00 RMK AO2 T02220128 $
94728KNYC NYC20250804080010908/04/25 08:00:31  5-MIN KNYC 041300Z AUTO 00000KT 10SM CLR 23/13 A3019 -80 53 800 000/00 RMK AO2 T02280128 $
94728KNYC NYC20250804080510908/04/25 08:05:31  5-MIN KNYC 041305Z AUTO 00000KT 10SM CLR 23/13 A3019 -80 55 800 000/00 RMK AO2 T02280133 $
94728KNYC NYC20250804081010908/04/25 08:10:31  5-MIN KNYC 041310Z AUTO 00000KT 10SM CLR 23/13 A3019 -80 55 800 000/00 RMK AO2 T02280133 $
94728KNYC NYC20250804081510908/04/25 08:15:31  5-MIN KNYC 041315Z AUTO 00000KT 10SM CLR 23/13 A3019 -80 53 800 000/00 RMK AO2 T02280128 $
94728KNYC NYC20250804082010908/04/25 08:20:31  5-MIN KNYC 041320Z AUTO 00000KT 10SM CLR 23/13 A3019 -80 51 900 000/00 RMK AO2 T02330128 $
94728KNYC NYC20250804082510908/04/25 08:25:31  5-MIN KNYC 041325Z AUTO 00000KT 10SM CLR 23/13 A3018 -80 51 900 000/00 RMK AO2 T02330128 $
94728KNYC NYC20250804083010908/04/25 08:30:31  5-MIN KNYC 041330Z AUTO 00000KT 10SM CLR 23/13 A3018 -80 51 900 000/00 RMK AO2 T02330128 $
94728KNYC NYC20250804083511008/04/25 08:35:31  5-MIN KNYC 041335Z AUTO 00000KT 10SM CLR 24/13 A3018 -80 49 1000 000/00 RMK AO2 T02390128 $
94728KNYC NYC20250804084010908/04/25 08:40:31  5-MIN KNYC 041340Z AUTO 00000KT 9SM CLR 24/13 A3018 -80 49 1000 000/00 RMK AO2 T02390128 $
94728KNYC NYC20250804084511608/04/25 08:45:31  5-MIN KNYC 041345Z AUTO VRB03KT 9SM CLR 24/13 A3019 -80 49 1000 VRB/03 RMK AO2 SLP211 T02390128 $
94728KNYC NYC20250804085011708/04/25 08:50:31  5-MIN KNYC 041350Z AUTO 00000KT 10SM CLR 24/13 A3019 -80 51 1000 000/00 RMK AO2 SLP212 T02390133 $
94728KNYC NYC20250804085511008/04/25 08:55:31  5-MIN KNYC 041355Z AUTO 00000KT 10SM CLR 24/13 A3018 -80 47 1000 000/00 RMK AO2 T02440128 $
94728KNYC NYC20250804090011008/04/25 09:00:31  5-MIN KNYC 041400Z AUTO 00000KT 10SM CLR 24/13 A3018 -80 51 1000 000/00 RMK AO2 T02390133 $
94728KNYC NYC20250804090511008/04/25 09:05:31  5-MIN KNYC 041405Z AUTO 00000KT 10SM CLR 24/14 A3018 -80 51 1000 000/00 RMK AO2 T02440139 $
94728KNYC NYC20250804091010908/04/25 09:10:31  5-MIN KNYC 041410Z AUTO 00000KT 9SM CLR 25/13 A3019 -80 48 1100 000/00 RMK AO2 T02500133 $
94728KNYC NYC20250804091510908/04/25 09:15:31  5-MIN KNYC 041415Z AUTO 00000KT 9SM CLR 25/13 A3018 -80 46 1100 000/00 RMK AO2 T02500128 $
94728KNYC NYC20250804092010908/04/25 09:20:31  5-MIN KNYC 041420Z AUTO 00000KT 9SM CLR 26/13 A3018 -80 46 1200 000/00 RMK AO2 T02560133 $
94728KNYC NYC20250804092510908/04/25 09:25:31  5-MIN KNYC 041425Z AUTO 00000KT 9SM CLR 26/13 A3019 -80 46 1200 000/00 RMK AO2 T02560133 $
94728KNYC NYC20250804093010908/04/25 09:30:31  5-MIN KNYC 041430Z AUTO 00000KT 9SM CLR 26/14 A3018 -80 48 1200 000/00 RMK AO2 T02560139 $
94728KNYC NYC20250804093510908/04/25 09:35:31  5-MIN KNYC 041435Z AUTO 00000KT 9SM CLR 26/13 A3018 -80 44 1200 000/00 RMK AO2 T02610133 $
94728KNYC NYC20250804094010908/04/25 09:40:31  5-MIN KNYC 041440Z AUTO 00000KT 9SM CLR 26/13 A3018 -80 44 1200 000/00 RMK AO2 T02610133 $
94728KNYC NYC20250804094512208/04/25 09:45:31  5-MIN KNYC 041445Z AUTO 29004KT 9SM CLR 26/13 A3018 -80 44 1200 300/04 RMK AO2 SLP211 T02610133 51019 $
94728KNYC NYC20250804095012208/04/25 09:50:31  5-MIN KNYC 041450Z AUTO 27004KT 9SM CLR 26/13 A3018 -80 43 1200 290/04 RMK AO2 SLP210 T02610128 51019 $
94728KNYC NYC20250804095510908/04/25 09:55:31  5-MIN KNYC 041455Z AUTO VRB03KT 9SM CLR 26/13 A3018 -80 43 1200 VRB/03 RMK AO2 T02610128 $
94728KNYC NYC20250804100010908/04/25 10:00:31  5-MIN KNYC 041500Z AUTO 29004KT 9SM CLR 26/13 A3018 -80 44 1200 300/04 RMK AO2 T02610133 $
94728KNYC NYC20250804100510908/04/25 10:05:31  5-MIN KNYC 041505Z AUTO 29004KT 9SM CLR 27/14 A3018 -80 45 1300 300/04 RMK AO2 T02670139 $
94728KNYC NYC20250804101010908/04/25 10:10:31  5-MIN KNYC 041510Z AUTO VRB03KT 9SM CLR 27/14 A3018 -80 45 1300 VRB/03 RMK AO2 T02670139 $
94728KNYC NYC20250804101510908/04/25 10:15:31  5-MIN KNYC 041515Z AUTO VRB03KT 9SM CLR 27/14 A3018 -80 45 1300 VRB/03 RMK AO2 T02670139 $
94728KNYC NYC20250804102010908/04/25 10:20:31  5-MIN KNYC 041520Z AUTO 28003KT 9SM CLR 27/13 A3018 -70 42 1400 290/03 RMK AO2 T02720133 $
94728KNYC NYC20250804102510908/04/25 10:25:31  5-MIN KNYC 041525Z AUTO 05005KT 9SM CLR 27/13 A3017 -70 42 1400 070/05 RMK AO2 T02720133 $
94728KNYC NYC20250804103010908/04/25 10:30:31  5-MIN KNYC 041530Z AUTO VRB04KT 9SM CLR 28/14 A3017 -70 42 1400 VRB/04 RMK AO2 T02780139 $
94728KNYC NYC20250804103510908/04/25 10:35:31  5-MIN KNYC 041535Z AUTO 00000KT 9SM CLR 28/13 A3017 -70 39 1400 000/00 RMK AO2 T02780128 $
94728KNYC NYC20250804104010908/04/25 10:40:31  5-MIN KNYC 041540Z AUTO 00000KT 8SM CLR 28/13 A3017 -70 40 1400 000/00 RMK AO2 T02780133 $
94728KNYC NYC20250804104511608/04/25 10:45:31  5-MIN KNYC 041545Z AUTO 00000KT 8SM CLR 28/12 A3017 -70 35 1500 000/00 RMK AO2 SLP206 T02830117 $
94728KNYC NYC20250804105011608/04/25 10:50:31  5-MIN KNYC 041550Z AUTO 08004KT 8SM CLR 29/12 A3017 -70 34 1600 100/04 RMK AO2 SLP206 T02890117 $
94728KNYC NYC20250804105510908/04/25 10:55:31  5-MIN KNYC 041555Z AUTO 06006KT 8SM CLR 29/12 A3017 -70 35 1600 070/06 RMK AO2 T02890122 $
94728KNYC NYC20250804110010908/04/25 11:00:31  5-MIN KNYC 041600Z AUTO 00000KT 8SM CLR 29/12 A3017 -70 34 1600 000/00 RMK AO2 T02890117 $
94728KNYC NYC20250804110510908/04/25 11:05:31  5-MIN KNYC 041605Z AUTO 00000KT 8SM CLR 29/12 A3017 -70 34 1600 000/00 RMK AO2 T02890117 $
94728KNYC NYC20250804111010908/04/25 11:10:31  5-MIN KNYC 041610Z AUTO 00000KT 8SM CLR 29/12 A3017 -70 35 1600 000/00 RMK AO2 T02890122 $
94728KNYC NYC20250804111510908/04/25 11:15:31  5-MIN KNYC 041615Z AUTO 00000KT 8SM CLR 29/12 A3017 -70 34 1600 000/00 RMK AO2 T02890117 $
94728KNYC NYC20250804112010908/04/25 11:20:31  5-MIN KNYC 041620Z AUTO 00000KT 8SM CLR 29/12 A3017 -70 35 1600 000/00 RMK AO2 T02890122 $
94728KNYC NYC20250804112510908/04/25 11:25:31  5-MIN KNYC 041625Z AUTO VRB03KT 8SM CLR 29/13 A3017 -70 35 1600 VRB/03 RMK AO2 T02940128 $
94728KNYC NYC20250804113010908/04/25 11:30:31  5-MIN KNYC 041630Z AUTO 00000KT 8SM CLR 29/13 A3017 -70 36 1600 000/00 RMK AO2 T02890128 $
94728KNYC NYC20250804113510908/04/25 11:35:31  5-MIN KNYC 041635Z AUTO 34005KT 8SM CLR 30/12 A3017 -70 31 1700 350/05 RMK AO2 T03000117 $
94728KNYC NYC20250804114010908/04/25 11:40:31  5-MIN KNYC 041640Z AUTO VRB03KT 8SM CLR 29/11 A3017 -70 30 1600 VRB/03 RMK AO2 T02940106 $
94728KNYC NYC20250804114511608/04/25 11:45:31  5-MIN KNYC 041645Z AUTO VRB06KT 8SM CLR 29/11 A3017 -70 31 1600 VRB/06 RMK AO2 SLP206 T02940111 $
94728KNYC NYC20250804115011608/04/25 11:50:31  5-MIN KNYC 041650Z AUTO VRB03KT 8SM CLR 30/11 A3017 -70 30 1700 VRB/03 RMK AO2 SLP206 T03000111 $
94728KNYC NYC20250804115510908/04/25 11:55:31  5-MIN KNYC 041655Z AUTO 04004KT 8SM CLR 30/11 A3017 -70 29 1700 050/04 RMK AO2 T03000106 $
94728KNYC NYC20250804120010908/04/25 12:00:31  5-MIN KNYC 041700Z AUTO VRB03KT 8SM CLR 31/12 A3017 -70 30 1700 VRB/03 RMK AO2 T03060117 $
94728KNYC NYC20250804120510908/04/25 12:05:31  5-MIN KNYC 041705Z AUTO 00000KT 7SM CLR 31/12 A3017 -70 30 1700 000/00 RMK AO2 T03060117 $
94728KNYC NYC20250804121009908/04/25 12:10:31  5-MIN KNYC 041710Z AUTO 8SM CLR 29/12 A3017 -70 34 1600 M /M RMK AO2 T02940122 $
94728KNYC NYC20250804121510908/04/25 12:15:31  5-MIN KNYC 041715Z AUTO 01003KT 8SM CLR 31/12 A3017 -60 30 1700 030/03 RMK AO2 T03060117 $
94728KNYC NYC20250804122010908/04/25 12:20:31  5-MIN KNYC 041720Z AUTO 28004KT 7SM CLR 30/12 A3017 -60 33 1700 290/04 RMK AO2 T03000122 $
94728KNYC NYC20250804122510908/04/25 12:25:31  5-MIN KNYC 041725Z AUTO 00000KT 7SM CLR 29/11 A3016 -60 31 1600 000/00 RMK AO2 T02940111 $
94728KNYC NYC20250804123010908/04/25 12:30:31  5-MIN KNYC 041730Z AUTO 00000KT 7SM CLR 30/12 A3016 -60 31 1700 000/00 RMK AO2 T03000117 $
94728KNYC NYC20250804123510908/04/25 12:35:31  5-MIN KNYC 041735Z AUTO VRB05KT 7SM CLR 31/12 A3016 -60 30 1700 VRB/05 RMK AO2 T03060117 $
94728KNYC NYC20250804124010908/04/25 12:40:31  5-MIN KNYC 041740Z AUTO 05006KT 7SM CLR 31/12 A3016 -60 32 1700 060/06 RMK AO2 T03060122 $
94728KNYC NYC20250804124513408/04/25 12:45:31  5-MIN KNYC 041745Z AUTO 07004KT 7SM CLR 31/12 A3016 -60 31 1800 090/04 RMK AO2 SLP202 T03110122 10311 20206 58002 $
94728KNYC NYC20250804125013408/04/25 12:50:31  5-MIN KNYC 041750Z AUTO VRB03KT 7SM CLR 31/12 A3016 -50 30 1800 VRB/03 RMK AO2 SLP201 T03060117 10311 20206 58002 $
94728KNYC NYC20250804125510908/04/25 12:55:31  5-MIN KNYC 041755Z AUTO VRB03KT 7SM CLR 31/11 A3015 -50 29 1800 VRB/03 RMK AO2 T03060111 $
94728KNYC NYC20250804130010908/04/25 13:00:31  5-MIN KNYC 041800Z AUTO VRB03KT 7SM CLR 31/12 A3015 -50 30 1800 VRB/03 RMK AO2 T03060117 $
94728KNYC NYC20250804130510908/04/25 13:05:31  5-MIN KNYC 041805Z AUTO VRB03KT 7SM CLR 31/12 A3015 -50 30 1800 VRB/03 RMK AO2 T03060117 $
94728KNYC NYC20250804131010908/04/25 13:10:31  5-MIN KNYC 041810Z AUTO VRB04KT 7SM CLR 31/12 A3015 -50 30 1800 VRB/04 RMK AO2 T03060117 $
94728KNYC NYC20250804131510908/04/25 13:15:31  5-MIN KNYC 041815Z AUTO 00000KT 7SM CLR 31/12 A3015 -50 29 1800 000/00 RMK AO2 T03110117 $
94728KNYC NYC20250804132010908/04/25 13:20:31  5-MIN KNYC 041820Z AUTO 00000KT 7SM CLR 31/11 A3015 -50 28 1800 000/00 RMK AO2 T03110111 $
94728KNYC NYC20250804132510908/04/25 13:25:31  5-MIN KNYC 041825Z AUTO 07003KT 7SM CLR 31/11 A3015 -50 28 1800 090/03 RMK AO2 T03110111 $
94728KNYC NYC20250804133010908/04/25 13:30:31  5-MIN KNYC 041830Z AUTO VRB03KT 7SM CLR 31/11 A3015 -50 28 1800 VRB/03 RMK AO2 T03110111 $
94728KNYC NYC20250804133510908/04/25 13:35:31  5-MIN KNYC 041835Z AUTO 00000KT 7SM CLR 31/11 A3015 -50 29 1800 000/00 RMK AO2 T03060111 $
94728KNYC NYC20250804134010908/04/25 13:40:31  5-MIN KNYC 041840Z AUTO 08004KT 7SM CLR 31/11 A3015 -50 28 1800 090/04 RMK AO2 T03110111 $
94728KNYC NYC20250804134511608/04/25 13:45:31  5-MIN KNYC 041845Z AUTO VRB04KT 7SM CLR 31/11 A3015 -50 28 1800 VRB/04 RMK AO2 SLP199 T03110111 $
94728KNYC NYC20250804135011608/04/25 13:50:31  5-MIN KNYC 041850Z AUTO 08004KT 7SM CLR 31/12 A3015 -50 31 1800 090/04 RMK AO2 SLP198 T03110122 $
94728KNYC NYC20250804135510908/04/25 13:55:31  5-MIN KNYC 041855Z AUTO 00000KT 7SM CLR 31/11 A3015 -40 29 1800 000/00 RMK AO2 T03060111 $
94728KNYC NYC20250804140010908/04/25 14:00:31  5-MIN KNYC 041900Z AUTO VRB03KT 7SM CLR 31/12 A3015 -50 30 1800 VRB/03 RMK AO2 T03060117 $
94728KNYC NYC20250804140510908/04/25 14:05:31  5-MIN KNYC 041905Z AUTO 07005KT 7SM CLR 31/12 A3015 -50 32 1800 080/05 RMK AO2 T03060122 $
94728KNYC NYC20250804141010908/04/25 14:10:31  5-MIN KNYC 041910Z AUTO 09004KT 7SM CLR 31/13 A3014 -40 32 1800 100/04 RMK AO2 T03110128 $
94728KNYC NYC20250804141510908/04/25 14:15:31  5-MIN KNYC 041915Z AUTO 00000KT 7SM CLR 31/12 A3014 -40 32 1800 000/00 RMK AO2 T03060122 $
94728KNYC NYC20250804142010908/04/25 14:20:31  5-MIN KNYC 041920Z AUTO 05003KT 7SM CLR 31/12 A3014 -40 31 1800 060/03 RMK AO2 T03110122 $
94728KNYC NYC20250804142510908/04/25 14:25:31  5-MIN KNYC 041925Z AUTO VRB03KT 7SM CLR 31/12 A3014 -40 29 1800 VRB/03 RMK AO2 T03110117 $
94728KNYC NYC20250804143010908/04/25 14:30:31  5-MIN KNYC 041930Z AUTO 00000KT 7SM CLR 30/12 A3014 -40 33 1700 000/00 RMK AO2 T03000122 $
94728KNYC NYC20250804143510908/04/25 14:35:31  5-MIN KNYC 041935Z AUTO 00000KT 7SM CLR 30/13 A3014 -40 34 1700 000/00 RMK AO2 T03000128 $
94728KNYC NYC20250804144010908/04/25 14:40:31  5-MIN KNYC 041940Z AUTO 07004KT 7SM CLR 31/13 A3014 -40 32 1800 090/04 RMK AO2 T03110128 $
94728KNYC NYC20250804144511608/04/25 14:45:31  5-MIN KNYC 041945Z AUTO 00000KT 7SM CLR 31/13 A3014 -40 33 1800 000/00 RMK AO2 SLP196 T03060128 $
94728KNYC NYC20250804145011608/04/25 14:50:31  5-MIN KNYC 041950Z AUTO 00000KT 7SM CLR 30/12 A3014 -40 33 1700 000/00 RMK AO2 SLP195 T03000122 $
94728KNYC NYC20250804145510908/04/25 14:55:31  5-MIN KNYC 041955Z AUTO 35003KT 7SM CLR 31/12 A3014 -40 32 1800 360/03 RMK AO2 T03060122 $
94728KNYC NYC20250804150010908/04/25 15:00:31  5-MIN KNYC 042000Z AUTO 00000KT 7SM CLR 31/12 A3014 -40 31 1800 000/00 RMK AO2 T03110122 $
94728KNYC NYC20250804150510908/04/25 15:05:31  5-MIN KNYC 042005Z AUTO 00000KT 7SM CLR 31/12 A3014 -40 32 1800 000/00 RMK AO2 T03060122 $
94728KNYC NYC20250804151010908/04/25 15:10:31  5-MIN KNYC 042010Z AUTO 00000KT 7SM CLR 30/12 A3014 -40 33 1700 000/00 RMK AO2 T03000122 $
94728KNYC NYC20250804151510908/04/25 15:15:31  5-MIN KNYC 042015Z AUTO 29003KT 7SM CLR 30/13 A3014 -40 35 1700 300/03 RMK AO2 T03000133 $
94728KNYC NYC20250804152010908/04/25 15:20:31  5-MIN KNYC 042020Z AUTO 00000KT 7SM CLR 30/13 A3014 -40 34 1700 000/00 RMK AO2 T03000128 $
94728KNYC NYC20250804152510908/04/25 15:25:31  5-MIN KNYC 042025Z AUTO 00000KT 7SM CLR 31/11 A3014 -40 29 1800 000/00 RMK AO2 T03060111 $
94728KNYC NYC20250804153010908/04/25 15:30:31  5-MIN KNYC 042030Z AUTO 00000KT 7SM CLR 30/12 A3014 -40 33 1700 000/00 RMK AO2 T03000122 $
94728KNYC NYC20250804153510908/04/25 15:35:31  5-MIN KNYC 042035Z AUTO VRB03KT 7SM CLR 30/13 A3014 -40 34 1700 VRB/03 RMK AO2 T03000128 $
94728KNYC NYC20250804154010908/04/25 15:40:31  5-MIN KNYC 042040Z AUTO 00000KT 7SM CLR 31/12 A3014 -40 32 1800 000/00 RMK AO2 T03060122 $
94728KNYC NYC20250804154512208/04/25 15:45:31  5-MIN KNYC 042045Z AUTO 06004KT 7SM CLR 30/13 A3014 -40 34 1700 070/04 RMK AO2 SLP197 T03000128 58009 $
94728KNYC NYC20250804155012208/04/25 15:50:31  5-MIN KNYC 042050Z AUTO 07005KT 7SM CLR 31/13 A3014 -40 33 1800 080/05 RMK AO2 SLP197 T03060128 58009 $
94728KNYC NYC20250804155510908/04/25 15:55:31  5-MIN KNYC 042055Z AUTO 10004KT 7SM CLR 31/13 A3014 -40 33 1800 120/04 RMK AO2 T03060128 $
94728KNYC NYC20250804160010908/04/25 16:00:31  5-MIN KNYC 042100Z AUTO VRB04KT 7SM CLR 29/13 A3014 -40 36 1600 VRB/04 RMK AO2 T02940133 $
94728KNYC NYC20250804160510908/04/25 16:05:31  5-MIN KNYC 042105Z AUTO VRB03KT 7SM CLR 29/13 A3014 -40 35 1600 VRB/03 RMK AO2 T02940128 $
94728KNYC NYC20250804161010908/04/25 16:10:31  5-MIN KNYC 042110Z AUTO VRB03KT 7SM CLR 29/13 A3014 -40 36 1600 VRB/03 RMK AO2 T02940133 $
94728KNYC NYC20250804161510908/04/25 16:15:31  5-MIN KNYC 042115Z AUTO 00000KT 7SM CLR 29/13 A3014 -40 36 1600 000/00 RMK AO2 T02940133 $
94728KNYC NYC20250804162010908/04/25 16:20:31  5-MIN KNYC 042120Z AUTO VRB03KT 7SM CLR 29/13 A3014 -40 35 1600 VRB/03 RMK AO2 T02940128 $
94728KNYC NYC20250804162510908/04/25 16:25:31  5-MIN KNYC 042125Z AUTO 00000KT 7SM CLR 29/13 A3013 -30 36 1700 000/00 RMK AO2 T02940133 $
94728KNYC NYC20250804163010908/04/25 16:30:31  5-MIN KNYC 042130Z AUTO 00000KT 7SM CLR 29/13 A3013 -30 36 1700 000/00 RMK AO2 T02940133 $
94728KNYC NYC20250804163510908/04/25 16:35:31  5-MIN KNYC 042135Z AUTO 00000KT 7SM CLR 30/12 A3013 -30 33 1700 000/00 RMK AO2 T03000122 $
94728KNYC NYC20250804164010908/04/25 16:40:31  5-MIN KNYC 042140Z AUTO 00000KT 7SM CLR 29/12 A3013 -30 34 1700 000/00 RMK AO2 T02940122 $
94728KNYC NYC20250804164511608/04/25 16:45:31  5-MIN KNYC 042145Z AUTO 00000KT 7SM CLR 29/13 A3013 -30 36 1600 000/00 RMK AO2 SLP193 T02890128 $
94728KNYC NYC20250804165011608/04/25 16:50:31  5-MIN KNYC 042150Z AUTO 08003KT 7SM CLR 29/13 A3013 -30 35 1700 100/03 RMK AO2 SLP193 T02940128 $
94728KNYC NYC20250804165510908/04/25 16:55:31  5-MIN KNYC 042155Z AUTO VRB03KT 7SM CLR 29/13 A3013 -30 35 1700 VRB/03 RMK AO2 T02940128 $
94728KNYC NYC20250804170010908/04/25 17:00:31  5-MIN KNYC 042200Z AUTO 13004KT 7SM CLR 29/13 A3014 -40 36 1600 150/04 RMK AO2 T02890128 $
94728KNYC NYC20250804170510908/04/25 17:05:31  5-MIN KNYC 042205Z AUTO VRB04KT 7SM CLR 29/14 A3014 -40 39 1600 VRB/04 RMK AO2 T02890139 $
94728KNYC NYC20250804171010908/04/25 17:10:31  5-MIN KNYC 042210Z AUTO 18003KT 7SM CLR 29/14 A3014 -40 39 1600 190/03 RMK AO2 T02890139 $
94728KNYC NYC20250804171510908/04/25 17:15:31  5-MIN KNYC 042215Z AUTO VRB03KT 7SM CLR 28/14 A3014 -40 42 1500 VRB/03 RMK AO2 T02830144 $
94728KNYC NYC20250804172010908/04/25 17:20:31  5-MIN KNYC 042220Z AUTO VRB03KT 7SM CLR 28/13 A3014 -40 39 1500 VRB/03 RMK AO2 T02830133 $
94728KNYC NYC20250804172510908/04/25 17:25:31  5-MIN KNYC 042225Z AUTO VRB04KT 7SM CLR 28/14 A3014 -40 40 1500 VRB/04 RMK AO2 T02830139 $
94728KNYC NYC20250804173010908/04/25 17:30:31  5-MIN KNYC 042230Z AUTO 00000KT 7SM CLR 28/14 A3014 -40 43 1500 000/00 RMK AO2 T02780144 $
94728KNYC NYC20250804173509908/04/25 17:35:31  5-MIN KNYC 042235Z AUTO 7SM CLR 28/14 A3015 -50 40 1500 M /M RMK AO2 T02830139 $
94728KNYC NYC20250804174010908/04/25 17:40:31  5-MIN KNYC 042240Z AUTO VRB03KT 7SM CLR 28/13 A3015 -50 39 1500 VRB/03 RMK AO2 T02830133 $
94728KNYC NYC20250804174511608/04/25 17:45:31  5-MIN KNYC 042245Z AUTO VRB03KT 7SM CLR 28/13 A3015 -50 39 1500 VRB/03 RMK AO2 SLP199 T02830133 $
94728KNYC NYC20250804175011608/04/25 17:50:31  5-MIN KNYC 042250Z AUTO 00000KT 7SM CLR 28/14 A3015 -50 42 1400 000/00 RMK AO2 SLP200 T02780139 $
94728KNYC NYC20250804175510908/04/25 17:55:31  5-MIN KNYC 042255Z AUTO 00000KT 7SM CLR 28/14 A3015 -50 42 1400 000/00 RMK AO2 T02780139 $
94728KNYC NYC20250804180010908/04/25 18:00:31  5-MIN KNYC 042300Z AUTO 00000KT 7SM CLR 28/14 A3016 -50 43 1400 000/00 RMK AO2 T02780144 $
94728KNYC NYC20250804180510908/04/25 18:05:31  5-MIN KNYC 042305Z AUTO 00000KT 7SM CLR 28/14 A3016 -60 43 1400 000/00 RMK AO2 T02780144 $
94728KNYC NYC20250804181010908/04/25 18:10:31  5-MIN KNYC 042310Z AUTO 00000KT 7SM CLR 27/14 A3016 -60 45 1400 000/00 RMK AO2 T02720144 $
94728KNYC NYC20250804181510908/04/25 18:15:31  5-MIN KNYC 042315Z AUTO 00000KT 7SM CLR 28/14 A3016 -60 42 1400 000/00 RMK AO2 T02780139 $
94728KNYC NYC20250804182010908/04/25 18:20:31  5-MIN KNYC 042320Z AUTO VRB03KT 7SM CLR 27/13 A3016 -60 42 1400 VRB/03 RMK AO2 T02720133 $
94728KNYC NYC20250804182510908/04/25 18:25:31  5-MIN KNYC 042325Z AUTO 00000KT 7SM CLR 27/13 A3016 -60 42 1400 000/00 RMK AO2 T02720133 $
94728KNYC NYC20250804183010908/04/25 18:30:31  5-MIN KNYC 042330Z AUTO 00000KT 7SM CLR 27/13 A3016 -60 42 1400 000/00 RMK AO2 T02720133 $
94728KNYC NYC20250804183510908/04/25 18:35:31  5-MIN KNYC 042335Z AUTO 00000KT 7SM CLR 27/13 A3017 -60 42 1400 000/00 RMK AO2 T02720133 $
94728KNYC NYC20250804184010908/04/25 18:40:31  5-MIN KNYC 042340Z AUTO 00000KT 7SM CLR 27/13 A3017 -70 42 1400 000/00 RMK AO2 T02720133 $
94728KNYC NYC20250804184513408/04/25 18:45:31  5-MIN KNYC 042345Z AUTO 00000KT 7SM CLR 27/14 A3017 -70 45 1300 000/00 RMK AO2 SLP206 T02670139 10317 20267 55004 $
94728KNYC NYC20250804185013408/04/25 18:50:31  5-MIN KNYC 042350Z AUTO 00000KT 7SM CLR 27/14 A3017 -70 45 1300 000/00 RMK AO2 SLP207 T02670139 10317 20267 55004 $
94728KNYC NYC20250804185510908/04/25 18:55:31  5-MIN KNYC 042355Z AUTO 00000KT 7SM CLR 27/14 A3017 -70 45 1300 000/00 RMK AO2 T02670139 $
94728KNYC NYC20250804190010908/04/25 19:00:31  5-MIN KNYC 050000Z AUTO 00000KT 8SM CLR 27/14 A3017 -70 45 1300 000/00 RMK AO2 T02670139 $
94728KNYC NYC20250804190510908/04/25 19:05:31  5-MIN KNYC 050005Z AUTO 00000KT 9SM CLR 26/14 A3017 -70 46 1200 000/00 RMK AO2 T02610139 $
94728KNYC NYC20250804191010908/04/25 19:10:31  5-MIN KNYC 050010Z AUTO 00000KT 9SM CLR 26/14 A3017 -70 46 1200 000/00 RMK AO2 T02610139 $
94728KNYC NYC20250804191510908/04/25 19:15:31  5-MIN KNYC 050015Z AUTO 00000KT 9SM CLR 26/14 A3017 -70 46 1200 000/00 RMK AO2 T02610139 $
94728KNYC NYC20250804192010908/04/25 19:20:31  5-MIN KNYC 050020Z AUTO 00000KT 9SM CLR 26/14 A3017 -70 48 1200 000/00 RMK AO2 T02610144 $
94728KNYC NYC20250804192510908/04/25 19:25:31  5-MIN KNYC 050025Z AUTO 00000KT 8SM CLR 26/14 A3018 -70 48 1200 000/00 RMK AO2 T02560139 $
94728KNYC NYC20250804193010908/04/25 19:30:31  5-MIN KNYC 050030Z AUTO 00000KT 8SM CLR 26/14 A3018 -70 48 1200 000/00 RMK AO2 T02560139 $
94728KNYC NYC20250804193510908/04/25 19:35:31  5-MIN KNYC 050035Z AUTO 00000KT 8SM CLR 26/13 A3018 -70 43 1200 000/00 RMK AO2 T02610128 $
94728KNYC NYC20250804194010908/04/25 19:40:31  5-MIN KNYC 050040Z AUTO 00000KT 8SM CLR 26/12 A3018 -70 43 1200 000/00 RMK AO2 T02560122 $
94728KNYC NYC20250804194511608/04/25 19:45:31  5-MIN KNYC 050045Z AUTO 00000KT 8SM CLR 26/12 A3018 -80 43 1200 000/00 RMK AO2 SLP209 T02560122 $
94728KNYC NYC20250804195011608/04/25 19:50:31  5-MIN KNYC 050050Z AUTO 00000KT 8SM CLR 26/12 A3018 -80 43 1200 000/00 RMK AO2 SLP210 T02560122 $
94728KNYC NYC20250804195510908/04/25 19:55:31  5-MIN KNYC 050055Z AUTO 00000KT 8SM CLR 26/12 A3018 -80 43 1200 000/00 RMK AO2 T02560122 $
94728KNYC NYC20250804200010908/04/25 20:00:31  5-MIN KNYC 050100Z AUTO 00000KT 8SM CLR 26/12 A3018 -80 43 1200 000/00 RMK AO2 T02560122 $
94728KNYC NYC20250804200510908/04/25 20:05:31  5-MIN KNYC 050105Z AUTO 13003KT 8SM CLR 26/12 A3019 -80 43 1200 150/03 RMK AO2 T02560122 $
94728KNYC NYC20250804201010908/04/25 20:10:31  5-MIN KNYC 050110Z AUTO 00000KT 8SM CLR 26/12 A3019 -80 43 1200 000/00 RMK AO2 T02560122 $
94728KNYC NYC20250804201510908/04/25 20:15:31  5-MIN KNYC 050115Z AUTO 00000KT 8SM CLR 25/12 A3019 -90 44 1100 000/00 RMK AO2 T02500122 $
94728KNYC NYC20250804202010908/04/25 20:20:31  5-MIN KNYC 050120Z AUTO 00000KT 8SM CLR 25/13 A3019 -90 46 1100 000/00 RMK AO2 T02500128 $
94728KNYC NYC20250804202510908/04/25 20:25:31  5-MIN KNYC 050125Z AUTO 00000KT 8SM CLR 25/13 A3019 -90 46 1100 000/00 RMK AO2 T02500128 $
94728KNYC NYC20250804203010908/04/25 20:30:31  5-MIN KNYC 050130Z AUTO 00000KT 8SM CLR 25/13 A3019 -90 46 1100 000/00 RMK AO2 T02500128 $
94728KNYC NYC20250804203510908/04/25 20:35:31  5-MIN KNYC 050135Z AUTO 00000KT 8SM CLR 25/13 A3019 -90 46 1100 000/00 RMK AO2 T02500128 $
94728KNYC NYC20250804204010908/04/25 20:40:31  5-MIN KNYC 050140Z AUTO 00000KT 8SM CLR 25/13 A3019 -90 46 1100 000/00 RMK AO2 T02500128 $
94728KNYC NYC20250804204511608/04/25 20:45:31  5-MIN KNYC 050145Z AUTO 00000KT 8SM CLR 25/13 A3019 -90 48 1100 000/00 RMK AO2 SLP213 T02500133 $
94728KNYC NYC20250804205011608/04/25 20:50:31  5-MIN KNYC 050150Z AUTO 00000KT 8SM CLR 25/13 A3019 -90 48 1100 000/00 RMK AO2 SLP214 T02500133 $
94728KNYC NYC20250804205510908/04/25 20:55:31  5-MIN KNYC 050155Z AUTO 00000KT 8SM CLR 25/13 A3019 -90 48 1100 000/00 RMK AO2 T02500133 $
94728KNYC NYC20250804210010908/04/25 21:00:31  5-MIN KNYC 050200Z AUTO 00000KT 8SM CLR 25/14 A3020 -90 49 1100 000/00 RMK AO2 T02500139 $
94728KNYC NYC20250804210510908/04/25 21:05:31  5-MIN KNYC 050205Z AUTO 00000KT 8SM CLR 24/14 A3020 -90 51 1000 000/00 RMK AO2 T02440139 $
94728KNYC NYC20250804211010908/04/25 21:10:31  5-MIN KNYC 050210Z AUTO 00000KT 8SM CLR 24/14 A3020 -90 51 1000 000/00 RMK AO2 T02440139 $
94728KNYC NYC20250804211511008/04/25 21:15:31  5-MIN KNYC 050215Z AUTO 00000KT 8SM CLR 24/14 A3020 -100 51 1000 000/00 RMK AO2 T02440139 $
94728KNYC NYC20250804212011008/04/25 21:20:31  5-MIN KNYC 050220Z AUTO 00000KT 8SM CLR 24/14 A3020 -100 51 1000 000/00 RMK AO2 T02440139 $
94728KNYC NYC20250804212511008/04/25 21:25:31  5-MIN KNYC 050225Z AUTO 00000KT 8SM CLR 24/14 A3020 -100 51 1000 000/00 RMK AO2 T02440139 $
94728KNYC NYC20250804213011008/04/25 21:30:31  5-MIN KNYC 050230Z AUTO 00000KT 8SM CLR 24/14 A3021 -100 53 1000 000/00 RMK AO2 T02440144 $
94728KNYC NYC20250804213511008/04/25 21:35:31  5-MIN KNYC 050235Z AUTO 00000KT 8SM CLR 24/14 A3021 -100 53 1000 000/00 RMK AO2 T02440144 $
94728KNYC NYC20250804214010908/04/25 21:40:31  5-MIN KNYC 050240Z AUTO 00000KT 8SM CLR 24/14 A3021 -100 55 900 000/00 RMK AO2 T02390144 $
94728KNYC NYC20250804214512208/04/25 21:45:31  5-MIN KNYC 050245Z AUTO 00000KT 8SM CLR 24/14 A3021 -100 55 900 000/00 RMK AO2 SLP220 T02390144 53009 $
94728KNYC NYC20250804215012308/04/25 21:50:31  5-MIN KNYC 050250Z AUTO 00000KT 8SM CLR 24/15 A3021 -100 55 1000 000/00 RMK AO2 SLP220 T02440150 53009 $
94728KNYC NYC20250804215511008/04/25 21:55:31  5-MIN KNYC 050255Z AUTO 00000KT 8SM CLR 25/14 A3021 -100 51 1100 000/00 RMK AO2 T02500144 $
94728KNYC NYC20250804220011008/04/25 22:00:31  5-MIN KNYC 050300Z AUTO 00000KT 8SM CLR 24/14 A3021 -100 53 1000 000/00 RMK AO2 T02440144 $
94728KNYC NYC20250804220511008/04/25 22:05:31  5-MIN KNYC 050305Z AUTO 00000KT 8SM CLR 24/14 A3021 -100 53 1000 000/00 RMK AO2 T02440144 $
94728KNYC NYC20250804221011008/04/25 22:10:31  5-MIN KNYC 050310Z AUTO 00000KT 8SM CLR 24/14 A3021 -110 53 1000 000/00 RMK AO2 T02440144 $
94728KNYC NYC20250804221510908/04/25 22:15:31  5-MIN KNYC 050315Z AUTO VRB04KT 8SM CLR 24/14 A3021 -110 55 900 VRB/04 RMK AO2 T02390144 $
94728KNYC NYC20250804222011008/04/25 22:20:31  5-MIN KNYC 050320Z AUTO 23004KT 8SM CLR 24/14 A3022 -110 51 1000 240/04 RMK AO2 T02440139 $
94728KNYC NYC20250804222510908/04/25 22:25:31  5-MIN KNYC 050325Z AUTO 23003KT 9SM CLR 24/14 A3022 -110 53 900 240/03 RMK AO2 T02390139 $
94728KNYC NYC20250804223011008/04/25 22:30:31  5-MIN KNYC 050330Z AUTO 00000KT 9SM CLR 24/14 A3022 -110 53 1000 000/00 RMK AO2 T02440144 $
94728KNYC NYC20250804223511008/04/25 22:35:31  5-MIN KNYC 050335Z AUTO VRB03KT 9SM CLR 24/14 A3022 -120 51 1000 VRB/03 RMK AO2 T02440139 $
94728KNYC NYC20250804224011008/04/25 22:40:31  5-MIN KNYC 050340Z AUTO VRB03KT 9SM CLR 24/14 A3022 -120 51 1000 VRB/03 RMK AO2 T02440139 $
94728KNYC NYC20250804224511708/04/25 22:45:31  5-MIN KNYC 050345Z AUTO VRB03KT 9SM CLR 24/14 A3023 -120 51 1000 VRB/03 RMK AO2 SLP225 T02440139 $
94728KNYC NYC20250804225011708/04/25 22:50:31  5-MIN KNYC 050350Z AUTO VRB03KT 9SM CLR 24/14 A3023 -120 51 1000 VRB/03 RMK AO2 SLP225 T02440139 $
94728KNYC NYC20250804225511008/04/25 22:55:31  5-MIN KNYC 050355Z AUTO 00000KT 9SM CLR 24/14 A3023 -120 51 1000 000/00 RMK AO2 T02440139 $
94728KNYC NYC20250804230011008/04/25 23:00:31  5-MIN KNYC 050400Z AUTO 22003KT 9SM CLR 24/14 A3023 -120 53 1000 230/03 RMK AO2 T02440144 $
94728KNYC NYC20250804230511008/04/25 23:05:31  5-MIN KNYC 050405Z AUTO VRB03KT 9SM CLR 24/14 A3023 -120 53 1000 VRB/03 RMK AO2 T02440144 $
94728KNYC NYC20250804231011008/04/25 23:10:31  5-MIN KNYC 050410Z AUTO VRB03KT 9SM CLR 24/14 A3023 -120 53 1000 VRB/03 RMK AO2 T02440144 $
94728KNYC NYC20250804231511008/04/25 23:15:31  5-MIN KNYC 050415Z AUTO 00000KT 9SM CLR 24/14 A3023 -120 53 1000 000/00 RMK AO2 T02440144 $
94728KNYC NYC20250804232011008/04/25 23:20:31  5-MIN KNYC 050420Z AUTO 00000KT 9SM CLR 24/14 A3023 -120 53 1000 000/00 RMK AO2 T02440144 $
94728KNYC NYC20250804232511008/04/25 23:25:31  5-MIN KNYC 050425Z AUTO 00000KT 9SM CLR 24/14 A3023 -120 53 1000 000/00 RMK AO2 T02440144 $
94728KNYC NYC20250804233011008/04/25 23:30:31  5-MIN KNYC 050430Z AUTO 25003KT 9SM CLR 24/14 A3023 -120 53 1000 260/03 RMK AO2 T02440144 $
94728KNYC NYC20250804233511008/04/25 23:35:31  5-MIN KNYC 050435Z AUTO 00000KT 9SM CLR 24/14 A3023 -120 53 1000 000/00 RMK AO2 T02440144 $
94728KNYC NYC20250804234010908/04/25 23:40:31  5-MIN KNYC 050440Z AUTO 00000KT 9SM CLR 24/15 A3023 -120 57 900 000/00 RMK AO2 T02390150 $
94728KNYC NYC20250804234512608/04/25 23:45:31  5-MIN KNYC 050445Z AUTO 00000KT 9SM CLR 24/14 A3023 -120 55 900 000/00 RMK AO2 SLP225 T02390144 403170194 $
94728KNYC NYC20250804235012608/04/25 23:50:31  5-MIN KNYC 050450Z AUTO 00000KT 9SM CLR 24/14 A3023 -120 55 900 000/00 RMK AO2 SLP225 T02390144 403170194 $
94728KNYC NYC20250804235510908/04/25 23:55:31  5-MIN KNYC 050455Z AUTO VRB03KT 9SM CLR 24/14 A3023 -120 55 900 VRB/03 RMK AO2 T02390144 $
94728KNYC NYC20250805000010908/05/25 00:00:31  5-MIN KNYC 050500Z AUTO 00000KT 9SM CLR 24/14 A3023 -120 55 900 000/00 RMK AO2 T02390144 $
94728KNYC NYC20250805000510908/05/25 00:05:31  5-MIN KNYC 050505Z AUTO VRB03KT 9SM CLR 24/14 A3023 -120 55 900 VRB/03 RMK AO2 T02390144 $
94728KNYC NYC20250805001010908/05/25 00:10:31  5-MIN KNYC 050510Z AUTO 24003KT 9SM CLR 24/14 A3023 -120 55 900 250/03 RMK AO2 T02390144 $
94728KNYC NYC20250805001510908/05/25 00:15:31  5-MIN KNYC 050515Z AUTO 00000KT 9SM CLR 24/14 A3023 -120 55 900 000/00 RMK AO2 T02390144 $
94728KNYC NYC20250805002010908/05/25 00:20:31  5-MIN KNYC 050520Z AUTO 00000KT 9SM CLR 24/14 A3023 -120 55 900 000/00 RMK AO2 T02390144 $
94728KNYC NYC20250805002510908/05/25 00:25:31  5-MIN KNYC 050525Z AUTO 27003KT 8SM CLR 24/14 A3023 -120 55 900 280/03 RMK AO2 T02390144 $
94728KNYC NYC20250805003010908/05/25 00:30:31  5-MIN KNYC 050530Z AUTO 00000KT 8SM CLR 24/14 A3023 -120 55 900 000/00 RMK AO2 T02390144 $
94728KNYC NYC20250805003510908/05/25 00:35:31  5-MIN KNYC 050535Z AUTO 00000KT 9SM CLR 24/14 A3023 -120 55 900 000/00 RMK AO2 T02390144 $
94728KNYC NYC20250805004010908/05/25 00:40:31  5-MIN KNYC 050540Z AUTO 25003KT 9SM CLR 24/14 A3023 -120 55 900 260/03 RMK AO2 T02390144 $
94728KNYC NYC20250805004513408/05/25 00:45:31  5-MIN KNYC 050545Z AUTO 00000KT 9SM CLR 23/14 A3023 -120 57 900 000/00 RMK AO2 SLP226 T02330144 10267 20233 53013 $
94728KNYC NYC20250805005013408/05/25 00:50:31  5-MIN KNYC 050550Z AUTO 25003KT 8SM CLR 23/14 A3023 -120 57 900 260/03 RMK AO2 SLP226 T02330144 10267 20233 53013 $
94728KNYC NYC20250805005510908/05/25 00:55:31  5-MIN KNYC 050555Z AUTO 00000KT 8SM CLR 23/14 A3023 -120 57 900 000/00 RMK AO2 T02330144 $
94728KNYC NYC20250805010010908/05/25 01:00:31  5-MIN KNYC 050600Z AUTO 00000KT 8SM CLR 23/14 A3023 -120 57 900 000/00 RMK AO2 T02330144 $
94728KNYC NYC20250805010510908/05/25 01:05:31  5-MIN KNYC 050605Z AUTO 00000KT 9SM CLR 23/14 A3023 -120 57 900 000/00 RMK AO2 T02330144 $
94728KNYC NYC20250805011010908/05/25 01:10:31  5-MIN KNYC 050610Z AUTO 00000KT 8SM CLR 23/14 A3023 -120 57 900 000/00 RMK AO2 T02330144 $
94728KNYC NYC20250805011510908/05/25 01:15:31  5-MIN KNYC 050615Z AUTO 29003KT 8SM CLR 24/14 A3023 -120 55 900 300/03 RMK AO2 T02390144 $
94728KNYC NYC20250805012010908/05/25 01:20:31  5-MIN KNYC 050620Z AUTO 00000KT 8SM CLR 23/15 A3023 -120 59 900 000/00 RMK AO2 T02330150 $
94728KNYC NYC20250805012510908/05/25 01:25:31  5-MIN KNYC 050625Z AUTO 00000KT 8SM CLR 23/15 A3023 -120 59 900 000/00 RMK AO2 T02330150 $
94728KNYC NYC20250805013010908/05/25 01:30:31  5-MIN KNYC 050630Z AUTO 00000KT 8SM CLR 23/16 A3023 -120 61 900 000/00 RMK AO2 T02330156 $
94728KNYC NYC20250805013510908/05/25 01:35:31  5-MIN KNYC 050635Z AUTO 00000KT 8SM CLR 23/15 A3023 -120 61 800 000/00 RMK AO2 T02280150 $
94728KNYC NYC20250805014010908/05/25 01:40:31  5-MIN KNYC 050640Z AUTO 00000KT 8SM CLR 23/15 A3023 -120 61 800 000/00 RMK AO2 T02280150 $
94728KNYC NYC20250805014511608/05/25 01:45:31  5-MIN KNYC 050645Z AUTO 29003KT 8SM CLR 23/15 A3023 -120 61 800 310/03 RMK AO2 SLP226 T02280150 $
94728KNYC NYC20250805015011608/05/25 01:50:31  5-MIN KNYC 050650Z AUTO 30003KT 8SM CLR 23/15 A3023 -120 61 800 310/03 RMK AO2 SLP226 T02280150 $
94728KNYC NYC20250805015510908/05/25 01:55:31  5-MIN KNYC 050655Z AUTO 29003KT 8SM CLR 23/15 A3023 -120 61 800 300/03 RMK AO2 T02280150 $
94728KNYC NYC20250805020010908/05/25 02:00:31  5-MIN KNYC 050700Z AUTO 29003KT 8SM CLR 23/15 A3023 -120 61 800 300/03 RMK AO2 T02280150 $
94728KNYC NYC20250805020510908/05/25 02:05:31  5-MIN KNYC 050705Z AUTO 00000KT 8SM CLR 23/15 A3023 -120 61 800 000/00 RMK AO2 T02280150 $
94728KNYC NYC20250805021010908/05/25 02:10:31  5-MIN KNYC 050710Z AUTO 00000KT 8SM CLR 23/15 A3023 -120 61 800 000/00 RMK AO2 T02280150 $
94728KNYC NYC20250805021510908/05/25 02:15:31  5-MIN KNYC 050715Z AUTO 00000KT 8SM CLR 23/15 A3022 -120 61 800 000/00 RMK AO2 T02280150 $
94728KNYC NYC20250805022010908/05/25 02:20:31  5-MIN KNYC 050720Z AUTO 00000KT 8SM CLR 23/15 A3023 -120 61 800 000/00 RMK AO2 T02280150 $
94728KNYC NYC20250805022510908/05/25 02:25:31  5-MIN KNYC 050725Z AUTO 00000KT 8SM CLR 23/16 A3023 -120 63 800 000/00 RMK AO2 T02280156 $
94728KNYC NYC20250805023010908/05/25 02:30:31  5-MIN KNYC 050730Z AUTO 00000KT 8SM CLR 23/16 A3023 -120 63 800 000/00 RMK AO2 T02280156 $
94728KNYC NYC20250805023510908/05/25 02:35:31  5-MIN KNYC 050735Z AUTO 00000KT 8SM CLR 23/16 A3023 -120 63 800 000/00 RMK AO2 T02280156 $
94728KNYC NYC20250805024010908/05/25 02:40:31  5-MIN KNYC 050740Z AUTO 00000KT 8SM CLR 23/16 A3023 -120 63 800 000/00 RMK AO2 T02280156 $
94728KNYC NYC20250805024511608/05/25 02:45:31  5-MIN KNYC 050745Z AUTO 00000KT 8SM CLR 23/16 A3023 -120 63 800 000/00 RMK AO2 SLP226 T02280156 $
94728KNYC NYC20250805025011608/05/25 02:50:31  5-MIN KNYC 050750Z AUTO 00000KT 8SM CLR 23/16 A3023 -120 63 800 000/00 RMK AO2 SLP226 T02280156 $
94728KNYC NYC20250805025510908/05/25 02:55:31  5-MIN KNYC 050755Z AUTO 00000KT 8SM CLR 23/16 A3023 -120 63 800 000/00 RMK AO2 T02280156 $
94728KNYC NYC20250805030010908/05/25 03:00:31  5-MIN KNYC 050800Z AUTO 00000KT 8SM CLR 23/16 A3023 -120 63 800 000/00 RMK AO2 T02280156 $
94728KNYC NYC20250805030510908/05/25 03:05:31  5-MIN KNYC 050805Z AUTO 00000KT 8SM CLR 23/16 A3023 -130 63 800 000/00 RMK AO2 T02280156 $
94728KNYC NYC20250805031010908/05/25 03:10:31  5-MIN KNYC 050810Z AUTO 00000KT 8SM CLR 22/16 A3024 -130 65 700 000/00 RMK AO2 T02220156 $
94728KNYC NYC20250805031510908/05/25 03:15:31  5-MIN KNYC 050815Z AUTO 00000KT 8SM CLR 23/16 A3024 -130 63 800 000/00 RMK AO2 T02280156 $
94728KNYC NYC20250805032010908/05/25 03:20:31  5-MIN KNYC 050820Z AUTO 00000KT 8SM CLR 23/15 A3024 -130 61 800 000/00 RMK AO2 T02280150 $
94728KNYC NYC20250805032510908/05/25 03:25:31  5-MIN KNYC 050825Z AUTO 00000KT 8SM CLR 22/16 A3024 -130 68 700 000/00 RMK AO2 T02220161 $
94728KNYC NYC20250805033010908/05/25 03:30:31  5-MIN KNYC 050830Z AUTO 00000KT 8SM CLR 22/16 A3024 -130 65 700 000/00 RMK AO2 T02220156 $
94728KNYC NYC20250805033510908/05/25 03:35:31  5-MIN KNYC 050835Z AUTO 00000KT 8SM CLR 23/16 A3025 -140 63 800 000/00 RMK AO2 T02280156 $
94728KNYC NYC20250805034010908/05/25 03:40:31  5-MIN KNYC 050840Z AUTO 00000KT 8SM CLR 22/16 A3025 -140 65 700 000/00 RMK AO2 T02220156 $
94728KNYC NYC20250805034512208/05/25 03:45:31  5-MIN KNYC 050845Z AUTO 00000KT 8SM CLR 22/16 A3025 -140 68 700 000/00 RMK AO2 SLP232 T02220161 51006 $
94728KNYC NYC20250805035012208/05/25 03:50:31  5-MIN KNYC 050850Z AUTO 00000KT 8SM CLR 22/16 A3025 -140 68 700 000/00 RMK AO2 SLP233 T02220161 51006 $
94728KNYC NYC20250805035510908/05/25 03:55:31  5-MIN KNYC 050855Z AUTO 00000KT 8SM CLR 22/16 A3025 -140 68 700 000/00 RMK AO2 T02220161 $
94728KNYC NYC20250805040010908/05/25 04:00:31  5-MIN KNYC 050900Z AUTO 03003KT 8SM CLR 22/16 A3025 -140 68 700 040/03 RMK AO2 T02220161 $
94728KNYC NYC20250805040510908/05/25 04:05:31  5-MIN KNYC 050905Z AUTO 03003KT 8SM CLR 22/16 A3025 -140 68 700 040/03 RMK AO2 T02220161 $
94728KNYC NYC20250805041010908/05/25 04:10:31  5-MIN KNYC 050910Z AUTO 04003KT 8SM CLR 22/17 A3025 -140 70 700 050/03 RMK AO2 T02220167 $
94728KNYC NYC20250805041510908/05/25 04:15:31  5-MIN KNYC 050915Z AUTO 04003KT 8SM CLR 22/17 A3025 -140 70 700 050/03 RMK AO2 T02220167 $
94728KNYC NYC20250805042010908/05/25 04:20:31  5-MIN KNYC 050920Z AUTO 04003KT 7SM CLR 22/17 A3025 -140 73 700 050/03 RMK AO2 T02220172 $
94728KNYC NYC20250805042510908/05/25 04:25:31  5-MIN KNYC 050925Z AUTO 03003KT 7SM CLR 22/17 A3025 -140 73 700 050/03 RMK AO2 T02220172 $
94728KNYC NYC20250805043010908/05/25 04:30:31  5-MIN KNYC 050930Z AUTO 03003KT 7SM CLR 22/18 A3025 -140 75 700 050/03 RMK AO2 T02220178 $
94728KNYC NYC20250805043510908/05/25 04:35:31  5-MIN KNYC 050935Z AUTO 00000KT 7SM CLR 22/18 A3025 -140 75 700 000/00 RMK AO2 T02220178 $
94728KNYC NYC20250805044010908/05/25 04:40:31  5-MIN KNYC 050940Z AUTO 00000KT 7SM CLR 22/18 A3025 -140 75 700 000/00 RMK AO2 T02220178 $
94728KNYC NYC20250805044511608/05/25 04:45:31  5-MIN KNYC 050945Z AUTO 00000KT 7SM CLR 22/18 A3025 -140 75 700 000/00 RMK AO2 SLP234 T02220178 $
94728KNYC NYC20250805045011608/05/25 04:50:31  5-MIN KNYC 050950Z AUTO 00000KT 7SM CLR 22/18 A3025 -140 75 700 000/00 RMK AO2 SLP234 T02220178 $
94728KNYC NYC20250805045510908/05/25 04:55:31  5-MIN KNYC 050955Z AUTO 00000KT 7SM CLR 22/18 A3025 -140 75 700 000/00 RMK AO2 T02220178 $
94728KNYC NYC20250805050010908/05/25 05:00:31  5-MIN KNYC 051000Z AUTO 00000KT 7SM CLR 22/18 A3026 -150 75 700 000/00 RMK AO2 T02220178 $
94728KNYC NYC20250805050510908/05/25 05:05:31  5-MIN KNYC 051005Z AUTO 00000KT 7SM CLR 22/18 A3026 -150 75 700 000/00 RMK AO2 T02220178 $
94728KNYC NYC20250805051011208/05/25 05:10:31  5-MIN KNYC 051010Z AUTO 00000KT 6SM HZ CLR 22/18 A3026 -150 78 600 000/00 RMK AO2 T02170178 $
94728KNYC NYC20250805051511208/05/25 05:15:31  5-MIN KNYC 051015Z AUTO 00000KT 6SM HZ CLR 22/18 A3026 -150 75 700 000/00 RMK AO2 T02220178 $
94728KNYC NYC20250805052011208/05/25 05:20:31  5-MIN KNYC 051020Z AUTO 03003KT 6SM HZ CLR 22/18 A3026 -150 75 700 050/03 RMK AO2 T02220178 $
94728KNYC NYC20250805052511208/05/25 05:25:31  5-MIN KNYC 051025Z AUTO 02003KT 6SM HZ CLR 22/18 A3027 -150 78 700 030/03 RMK AO2 T02220183 $
94728KNYC NYC20250805053011208/05/25 05:30:31  5-MIN KNYC 051030Z AUTO 01003KT 5SM HZ CLR 22/18 A3027 -160 75 700 030/03 RMK AO2 T02220178 $
94728KNYC NYC20250805053511208/05/25 05:35:31  5-MIN KNYC 051035Z AUTO 00000KT 5SM HZ CLR 23/18 A3027 -160 73 700 000/00 RMK AO2 T02280178 $
94728KNYC NYC20250805054011208/05/25 05:40:31  5-MIN KNYC 051040Z AUTO 02004KT 5SM HZ CLR 23/18 A3027 -160 73 700 040/04 RMK AO2 T02280178 $
94728KNYC NYC20250805054511908/05/25 05:45:31  5-MIN KNYC 051045Z AUTO 03003KT 5SM HZ CLR 23/18 A3027 -160 73 700 040/03 RMK AO2 SLP239 T02280178 $
94728KNYC NYC20250805055011908/05/25 05:50:31  5-MIN KNYC 051050Z AUTO 03003KT 5SM HZ CLR 23/18 A3027 -160 73 700 040/03 RMK AO2 SLP240 T02280178 $
94728KNYC NYC20250805055511208/05/25 05:55:31  5-MIN KNYC 051055Z AUTO 04003KT 5SM HZ CLR 23/18 A3027 -160 73 700 050/03 RMK AO2 T02280178 $
94728KNYC NYC20250805060011208/05/25 06:00:31  5-MIN KNYC 051100Z AUTO 00000KT 5SM HZ CLR 23/18 A3027 -160 73 700 000/00 RMK AO2 T02280178 $
94728KNYC NYC20250805060511208/05/25 06:05:31  5-MIN KNYC 051105Z AUTO 02003KT 5SM HZ CLR 23/18 A3027 -160 73 700 030/03 RMK AO2 T02280178 $
94728KNYC NYC20250805061011208/05/25 06:10:31  5-MIN KNYC 051110Z AUTO 01004KT 5SM HZ CLR 23/18 A3027 -160 73 700 030/04 RMK AO2 T02280178 $
94728KNYC NYC20250805061511208/05/25 06:15:31  5-MIN KNYC 051115Z AUTO VRB03KT 5SM HZ CLR 23/18 A3028 -160 73 700 VRB/03 RMK AO2 T02280178 $
94728KNYC NYC20250805062011208/05/25 06:20:31  5-MIN KNYC 051120Z AUTO VRB03KT 5SM HZ CLR 23/17 A3028 -170 70 700 VRB/03 RMK AO2 T02280172 $
94728KNYC NYC20250805062511208/05/25 06:25:31  5-MIN KNYC 051125Z AUTO 02003KT 5SM HZ CLR 23/17 A3028 -170 70 700 030/03 RMK AO2 T02280172 $
94728KNYC NYC20250805063011208/05/25 06:30:31  5-MIN KNYC 051130Z AUTO 01004KT 5SM HZ CLR 23/17 A3028 -170 68 700 020/04 RMK AO2 T02280167 $
94728KNYC NYC20250805063511208/05/25 06:35:31  5-MIN KNYC 051135Z AUTO 04003KT 5SM HZ CLR 23/17 A3029 -170 68 700 050/03 RMK AO2 T02280167 $
94728KNYC NYC20250805064011208/05/25 06:40:31  5-MIN KNYC 051140Z AUTO 04003KT 5SM HZ CLR 23/17 A3029 -170 68 700 060/03 RMK AO2 T02280167 $
94728KNYC NYC20250805064513708/05/25 06:45:31  5-MIN KNYC 051145Z AUTO 05004KT 5SM HZ CLR 23/17 A3028 -170 68 700 070/04 RMK AO2 SLP245 T02280167 10239 20217 53007 $
94728KNYC NYC20250805065013708/05/25 06:50:31  5-MIN KNYC 051150Z AUTO 05004KT 5SM HZ CLR 23/17 A3029 -170 66 800 060/04 RMK AO2 SLP245 T02330167 10239 20217 53007 $
94728KNYC NYC20250805065511208/05/25 06:55:31  5-MIN KNYC 051155Z AUTO 03004KT 5SM HZ CLR 23/17 A3029 -170 66 800 050/04 RMK AO2 T02330167 $
94728KNYC NYC20250805070011208/05/25 07:00:31  5-MIN KNYC 051200Z AUTO VRB04KT 4SM HZ CLR 23/17 A3029 -170 66 800 VRB/04 RMK AO2 T02330167 $
94728KNYC NYC20250805070511208/05/25 07:05:31  5-MIN KNYC 051205Z AUTO VRB03KT 4SM HZ CLR 23/17 A3029 -180 66 800 VRB/03 RMK AO2 T02330167 $
94728KNYC NYC20250805071011208/05/25 07:10:31  5-MIN KNYC 051210Z AUTO VRB03KT 4SM HZ CLR 23/17 A3029 -180 66 800 VRB/03 RMK AO2 T02330167 $
94728KNYC NYC20250805071511208/05/25 07:15:31  5-MIN KNYC 051215Z AUTO VRB03KT 5SM HZ CLR 24/17 A3029 -180 63 800 VRB/03 RMK AO2 T02390167 $
94728KNYC NYC20250805072011208/05/25 07:20:31  5-MIN KNYC 051220Z AUTO VRB04KT 5SM HZ CLR 24/17 A3029 -180 66 800 VRB/04 RMK AO2 T02390172 $
94728KNYC NYC20250805072511208/05/25 07:25:31  5-MIN KNYC 051225Z AUTO VRB05KT 5SM HZ CLR 24/17 A3029 -180 66 800 VRB/05 RMK AO2 T02390172 $
94728KNYC NYC20250805073011208/05/25 07:30:31  5-MIN KNYC 051230Z AUTO VRB04KT 5SM HZ CLR 24/18 A3030 -180 68 800 VRB/04 RMK AO2 T02390178 $
94728KNYC NYC20250805073511208/05/25 07:35:31  5-MIN KNYC 051235Z AUTO 06004KT 5SM HZ CLR 24/18 A3030 -180 68 800 070/04 RMK AO2 T02390178 $
94728KNYC NYC20250805074011208/05/25 07:40:31  5-MIN KNYC 051240Z AUTO VRB03KT 5SM HZ CLR 24/18 A3030 -180 71 800 VRB/03 RMK AO2 T02390183 $
94728KNYC NYC20250805074511908/05/25 07:45:31  5-MIN KNYC 051245Z AUTO 05007KT 5SM HZ CLR 24/18 A3030 -180 68 900 070/07 RMK AO2 SLP250 T02440183 $
94728KNYC NYC20250805075011908/05/25 07:50:31  5-MIN KNYC 051250Z AUTO 05006KT 5SM HZ CLR 24/18 A3030 -190 66 900 070/06 RMK AO2 SLP250 T02440178 $
94728KNYC NYC20250805075511208/05/25 07:55:31  5-MIN KNYC 051255Z AUTO 05005KT 5SM HZ CLR 24/18 A3030 -180 66 900 060/05 RMK AO2 T02440178 $
94728KNYC NYC20250805080011208/05/25 08:00:31  5-MIN KNYC 051300Z AUTO 06004KT 5SM HZ CLR 24/18 A3030 -190 66 900 080/04 RMK AO2 T02440178 $
94728KNYC NYC20250805080511208/05/25 08:05:31  5-MIN KNYC 051305Z AUTO VRB05KT 5SM HZ CLR 24/18 A3030 -190 66 900 VRB/05 RMK AO2 T02440178 $
94728KNYC NYC20250805081011208/05/25 08:10:31  5-MIN KNYC 051310Z AUTO 04005KT 5SM HZ CLR 24/18 A3030 -190 66 900 050/05 RMK AO2 T02440178 $
94728KNYC NYC20250805081511308/05/25 08:15:31  5-MIN KNYC 051315Z AUTO VRB04KT 5SM HZ CLR 25/17 A3031 -190 61 1000 VRB/04 RMK AO2 T02500172 $
94728KNYC NYC20250805082011308/05/25 08:20:31  5-MIN KNYC 051320Z AUTO VRB03KT 5SM HZ CLR 25/17 A3030 -190 61 1000 VRB/03 RMK AO2 T02500172 $
94728KNYC NYC20250805082511308/05/25 08:25:31  5-MIN KNYC 051325Z AUTO VRB03KT 5SM HZ CLR 25/18 A3030 -190 64 1000 VRB/03 RMK AO2 T02500178 $
94728KNYC NYC20250805083011308/05/25 08:30:31  5-MIN KNYC 051330Z AUTO 05006KT 5SM HZ CLR 25/17 A3030 -190 61 1000 060/06 RMK AO2 T02500172 $
94728KNYC NYC20250805083511308/05/25 08:35:31  5-MIN KNYC 051335Z AUTO VRB04KT 5SM HZ CLR 25/18 A3031 -190 64 1000 VRB/04 RMK AO2 T02500178 $
94728KNYC NYC20250805084011308/05/25 08:40:31  5-MIN KNYC 051340Z AUTO 08007KT 5SM HZ CLR 26/18 A3031 -190 61 1000 090/07 RMK AO2 T02560178 $
94728KNYC NYC20250805084512008/05/25 08:45:31  5-MIN KNYC 051345Z AUTO 06009KT 5SM HZ CLR 26/17 A3031 -190 59 1000 070/09 RMK AO2 SLP252 T02560172 $
94728KNYC NYC20250805085012008/05/25 08:50:31  5-MIN KNYC 051350Z AUTO 06006KT 5SM HZ CLR 26/17 A3031 -190 59 1000 080/06 RMK AO2 SLP252 T02560172 $
94728KNYC NYC20250805085511308/05/25 08:55:31  5-MIN KNYC 051355Z AUTO VRB05KT 5SM HZ CLR 26/17 A3031 -190 59 1000 VRB/05 RMK AO2 T02560172 $
94728KNYC NYC20250805090011308/05/25 09:00:31  5-MIN KNYC 051400Z AUTO VRB05KT 5SM HZ CLR 26/17 A3031 -190 59 1000 VRB/05 RMK AO2 T02560172 $
94728KNYC NYC20250805090511308/05/25 09:05:31  5-MIN KNYC 051405Z AUTO VRB03KT 5SM HZ CLR 26/17 A3031 -200 59 1000 VRB/03 RMK AO2 T02560172 $
94728KNYC NYC20250805091011308/05/25 09:10:31  5-MIN KNYC 051410Z AUTO VRB03KT 5SM HZ CLR 26/17 A3031 -200 59 1000 VRB/03 RMK AO2 T02560172 $
94728KNYC NYC20250805091511308/05/25 09:15:31  5-MIN KNYC 051415Z AUTO 06005KT 4SM HZ CLR 26/17 A3031 -200 57 1000 080/05 RMK AO2 T02560167 $
94728KNYC NYC20250805092011308/05/25 09:20:31  5-MIN KNYC 051420Z AUTO 04006KT 4SM HZ CLR 26/17 A3031 -200 59 1000 050/06 RMK AO2 T02560172 $
94728KNYC NYC20250805092511308/05/25 09:25:31  5-MIN KNYC 051425Z AUTO VRB04KT 4SM HZ CLR 26/17 A3032 -200 59 1000 VRB/04 RMK AO2 T02560172 $
94728KNYC NYC20250805093011308/05/25 09:30:31  5-MIN KNYC 051430Z AUTO 06003KT 4SM HZ CLR 26/17 A3032 -200 59 1000 070/03 RMK AO2 T02560172 $
94728KNYC NYC20250805093511308/05/25 09:35:31  5-MIN KNYC 051435Z AUTO 04005KT 5SM HZ CLR 26/17 A3032 -200 59 1000 060/05 RMK AO2 T02560172 $
94728KNYC NYC20250805094011308/05/25 09:40:31  5-MIN KNYC 051440Z AUTO VRB05KT 5SM HZ CLR 26/17 A3032 -200 57 1100 VRB/05 RMK AO2 T02610172 $
94728KNYC NYC20250805094512608/05/25 09:45:31  5-MIN KNYC 051445Z AUTO VRB03KT 5SM HZ CLR 27/17 A3032 -210 53 1100 VRB/03 RMK AO2 SLP258 T02670167 53013 $
94728KNYC NYC20250805095012608/05/25 09:50:31  5-MIN KNYC 051450Z AUTO VRB03KT 4SM HZ CLR 26/17 A3033 -210 57 1100 VRB/03 RMK AO2 SLP260 T02610172 53013 $
94728KNYC NYC20250805095511308/05/25 09:55:31  5-MIN KNYC 051455Z AUTO VRB03KT 4SM HZ CLR 26/17 A3033 -220 59 1000 VRB/03 RMK AO2 T02560172 $
94728KNYC NYC20250805100011308/05/25 10:00:31  5-MIN KNYC 051500Z AUTO VRB05KT 5SM HZ CLR 27/17 A3033 -210 55 1100 VRB/05 RMK AO2 T02670172 $
94728KNYC NYC20250805100511308/05/25 10:05:31  5-MIN KNYC 051505Z AUTO 06005KT 5SM HZ CLR 27/17 A3033 -210 54 1200 070/05 RMK AO2 T02720172 $
94728KNYC NYC20250805101011308/05/25 10:10:31  5-MIN KNYC 051510Z AUTO VRB03KT 5SM HZ CLR 27/17 A3033 -210 54 1200 VRB/03 RMK AO2 T02720172 $
94728KNYC NYC20250805101511308/05/25 10:15:31  5-MIN KNYC 051515Z AUTO 09004KT 5SM HZ CLR 27/17 A3033 -220 54 1200 100/04 RMK AO2 T02720172 $
94728KNYC NYC20250805102011308/05/25 10:20:31  5-MIN KNYC 051520Z AUTO 11005KT 5SM HZ CLR 27/17 A3033 -220 52 1200 130/05 RMK AO2 T02720167 $
94728KNYC NYC20250805102511308/05/25 10:25:31  5-MIN KNYC 051525Z AUTO 00000KT 5SM HZ CLR 27/17 A3033 -220 52 1200 000/00 RMK AO2 T02720167 $
94728KNYC NYC20250805103011308/05/25 10:30:31  5-MIN KNYC 051530Z AUTO 04003KT 5SM HZ CLR 27/17 A3033 -220 54 1200 050/03 RMK AO2 T02720172 $
94728KNYC NYC20250805103511308/05/25 10:35:31  5-MIN KNYC 051535Z AUTO 00000KT 5SM HZ CLR 27/18 A3033 -220 56 1200 000/00 RMK AO2 T02720178 $
94728KNYC NYC20250805104011308/05/25 10:40:31  5-MIN KNYC 051540Z AUTO 06004KT 5SM HZ CLR 28/18 A3033 -210 54 1200 070/04 RMK AO2 T02780178 $
94728KNYC NYC20250805104512008/05/25 10:45:31  5-MIN KNYC 051545Z AUTO VRB03KT 5SM HZ CLR 27/18 A3033 -210 56 1200 VRB/03 RMK AO2 SLP260 T02720178 $
94728KNYC NYC20250805105012008/05/25 10:50:31  5-MIN KNYC 051550Z AUTO 00000KT 5SM HZ CLR 27/17 A3033 -210 54 1200 000/00 RMK AO2 SLP261 T02720172 $
94728KNYC NYC20250805105511308/05/25 10:55:31  5-MIN KNYC 051555Z AUTO 06004KT 5SM HZ CLR 27/17 A3033 -220 54 1200 070/04 RMK AO2 T02720172 $
94728KNYC NYC20250805110011308/05/25 11:00:31  5-MIN KNYC 051600Z AUTO 05003KT 5SM HZ CLR 27/17 A3033 -220 54 1200 060/03 RMK AO2 T02720172 $
94728KNYC NYC20250805110511308/05/25 11:05:31  5-MIN KNYC 051605Z AUTO 06004KT 5SM HZ CLR 27/17 A3033 -220 54 1200 070/04 RMK AO2 T02720172 $
94728KNYC NYC20250805111011308/05/25 11:10:31  5-MIN KNYC 051610Z AUTO 06004KT 5SM HZ CLR 27/17 A3033 -220 54 1200 070/04 RMK AO2 T02720172 $
94728KNYC NYC20250805111511308/05/25 11:15:31  5-MIN KNYC 051615Z AUTO 05003KT 5SM HZ CLR 28/17 A3033 -220 52 1200 070/03 RMK AO2 T02780172 $
94728KNYC NYC20250805112011308/05/25 11:20:31  5-MIN KNYC 051620Z AUTO 05006KT 5SM HZ CLR 28/17 A3033 -220 52 1200 060/06 RMK AO2 T02780172 $
94728KNYC NYC20250805112511308/05/25 11:25:31  5-MIN KNYC 051625Z AUTO 06005KT 5SM HZ CLR 28/17 A3033 -210 50 1300 070/05 RMK AO2 T02830172 $
94728KNYC NYC20250805113011308/05/25 11:30:31  5-MIN KNYC 051630Z AUTO VRB03KT 5SM HZ CLR 28/16 A3033 -210 47 1300 VRB/03 RMK AO2 T02830161 $
94728KNYC NYC20250805113511308/05/25 11:35:31  5-MIN KNYC 051635Z AUTO VRB06KT 5SM HZ CLR 28/16 A3033 -210 47 1300 VRB/06 RMK AO2 T02830161 $
94728KNYC NYC20250805114011308/05/25 11:40:31  5-MIN KNYC 051640Z AUTO 00000KT 5SM HZ CLR 28/17 A3033 -210 48 1300 000/00 RMK AO2 T02830167 $
94728KNYC NYC20250805114512008/05/25 11:45:31  5-MIN KNYC 051645Z AUTO 06004KT 5SM HZ CLR 28/16 A3033 -210 48 1300 080/04 RMK AO2 SLP259 T02780161 $
94728KNYC NYC20250805115012008/05/25 11:50:31  5-MIN KNYC 051650Z AUTO VRB03KT 5SM HZ CLR 28/17 A3032 -210 48 1300 VRB/03 RMK AO2 SLP259 T02830167 $
94728KNYC NYC20250805115511308/05/25 11:55:31  5-MIN KNYC 051655Z AUTO VRB03KT 5SM HZ CLR 28/16 A3032 -210 47 1300 VRB/03 RMK AO2 T02830161 $
94728KNYC NYC20250805120011308/05/25 12:00:31  5-MIN KNYC 051700Z AUTO VRB04KT 5SM HZ CLR 29/16 A3033 -210 44 1400 VRB/04 RMK AO2 T02890156 $
94728KNYC NYC20250805120511308/05/25 12:05:31  5-MIN KNYC 051705Z AUTO 04005KT 5SM HZ CLR 29/16 A3033 -210 42 1400 060/05 RMK AO2 T02940156 $
94728KNYC NYC20250805121011308/05/25 12:10:31  5-MIN KNYC 051710Z AUTO VRB04KT 5SM HZ CLR 30/16 A3033 -210 41 1500 VRB/04 RMK AO2 T03000156 $
94728KNYC NYC20250805121511308/05/25 12:15:31  5-MIN KNYC 051715Z AUTO 06006KT 5SM HZ CLR 29/15 A3032 -210 41 1400 070/06 RMK AO2 T02940150 $
94728KNYC NYC20250805122011308/05/25 12:20:31  5-MIN KNYC 051720Z AUTO VRB05KT 5SM HZ CLR 29/15 A3032 -210 42 1400 VRB/05 RMK AO2 T02890150 $
94728KNYC NYC20250805122511308/05/25 12:25:31  5-MIN KNYC 051725Z AUTO 06005KT 5SM HZ CLR 29/16 A3032 -210 44 1400 080/05 RMK AO2 T02940161 $
94728KNYC NYC20250805123011308/05/25 12:30:31  5-MIN KNYC 051730Z AUTO 05006KT 5SM HZ CLR 29/16 A3032 -210 42 1400 060/06 RMK AO2 T02940156 $
94728KNYC NYC20250805123511308/05/25 12:35:31  5-MIN KNYC 051735Z AUTO 06005KT 5SM HZ CLR 30/16 A3032 -210 41 1500 070/05 RMK AO2 T03000156 $
94728KNYC NYC20250805124011308/05/25 12:40:31  5-MIN KNYC 051740Z AUTO 06006KT 5SM HZ CLR 29/16 A3032 -200 42 1400 070/06 RMK AO2 T02940156 $
94728KNYC NYC20250805124513808/05/25 12:45:31  5-MIN KNYC 051745Z AUTO 05006KT 5SM HZ CLR 29/16 A3032 -200 42 1400 070/06 RMK AO2 SLP257 T02940156 10300 20233 53015 $
94728KNYC NYC20250805125013808/05/25 12:50:31  5-MIN KNYC 051750Z AUTO 05007KT 5SM HZ CLR 29/16 A3032 -210 42 1400 060/07 RMK AO2 SLP257 T02940156 10300 20233 53015 $
94728KNYC NYC20250805125511308/05/25 12:55:31  5-MIN KNYC 051755Z AUTO 06006KT 5SM HZ CLR 29/16 A3032 -210 44 1400 070/06 RMK AO2 T02890156 $
94728KNYC NYC20250805130011608/05/25 13:00:31  5-MIN KNYC 051800Z AUTO 05006KT 5SM HZ FEW047 29/16 A3033 -210 45 1400 060/06 RMK AO2 T02890161 $
94728KNYC NYC20250805130511608/05/25 13:05:31  5-MIN KNYC 051805Z AUTO VRB04KT 5SM HZ SCT049 28/16 A3033 -210 45 1300 VRB/04 RMK AO2 T02830156 $
94728KNYC NYC20250805131011608/05/25 13:10:31  5-MIN KNYC 051810Z AUTO 09006KT 5SM HZ BKN049 28/15 A3032 -210 43 1300 100/06 RMK AO2 T02830150 $
94728KNYC NYC20250805131511608/05/25 13:15:31  5-MIN KNYC 051815Z AUTO VRB05KT 5SM HZ SCT049 28/16 A3032 -210 46 1300 VRB/05 RMK AO2 T02780156 $
94728KNYC NYC20250805132013208/05/25 13:20:31  5-MIN KNYC 051820Z AUTO 11007KT 080V160 5SM HZ SCT049 28/16 A3033 -210 48 1200 120/07 090V170 RMK AO2 T02780161 $
94728KNYC NYC20250805132511608/05/25 13:25:31  5-MIN KNYC 051825Z AUTO VRB04KT 5SM HZ SCT049 28/16 A3033 -210 46 1300 VRB/04 RMK AO2 T02780156 $
94728KNYC NYC20250805133011608/05/25 13:30:31  5-MIN KNYC 051830Z AUTO VRB04KT 5SM HZ FEW049 28/16 A3033 -210 46 1300 VRB/04 RMK AO2 T02780156 $
94728KNYC NYC20250805133513208/05/25 13:35:31  5-MIN KNYC 051835Z AUTO 07007KT 040V110 5SM HZ FEW049 28/16 A3032 -210 47 1300 080/07 050V120 RMK AO2 T02830161 $
94728KNYC NYC20250805134011308/05/25 13:40:31  5-MIN KNYC 051840Z AUTO VRB05KT 5SM HZ CLR 29/16 A3032 -200 45 1400 VRB/05 RMK AO2 T02890161 $
94728KNYC NYC20250805134512008/05/25 13:45:31  5-MIN KNYC 051845Z AUTO 11006KT 5SM HZ CLR 28/16 A3032 -210 47 1300 120/06 RMK AO2 SLP257 T02830161 $
94728KNYC NYC20250805135012008/05/25 13:50:31  5-MIN KNYC 051850Z AUTO 09005KT 5SM HZ CLR 28/16 A3032 -200 45 1300 110/05 RMK AO2 SLP257 T02830156 $
94728KNYC NYC20250805135511308/05/25 13:55:31  5-MIN KNYC 051855Z AUTO VRB05KT 5SM HZ CLR 29/15 A3032 -200 42 1400 VRB/05 RMK AO2 T02890150 $
94728KNYC NYC20250805140011308/05/25 14:00:31  5-MIN KNYC 051900Z AUTO VRB06KT 5SM HZ CLR 29/15 A3032 -200 42 1400 VRB/06 RMK AO2 T02890150 $
94728KNYC NYC20250805140511308/05/25 14:05:31  5-MIN KNYC 051905Z AUTO 09007KT 5SM HZ CLR 29/15 A3032 -200 42 1400 100/07 RMK AO2 T02890150 $
94728KNYC NYC20250805141011308/05/25 14:10:31  5-MIN KNYC 051910Z AUTO VRB04KT 5SM HZ CLR 29/16 A3032 -200 44 1400 VRB/04 RMK AO2 T02890156 $
94728KNYC NYC20250805141511608/05/25 14:15:31  5-MIN KNYC 051915Z AUTO VRB04KT 5SM HZ FEW047 29/16 A3031 -200 44 1400 VRB/04 RMK AO2 T02890156 $
94728KNYC NYC20250805142012208/05/25 14:20:31  5-MIN KNYC 051920Z AUTO 06009G14KT 5SM HZ FEW045 29/16 A3031 -200 45 1400 070/09G14 RMK AO2 T02890161 $
94728KNYC NYC20250805142512208/05/25 14:25:31  5-MIN KNYC 051925Z AUTO 06007G14KT 5SM HZ FEW045 29/17 A3032 -200 47 1400 080/07G14 RMK AO2 T02890167 $
94728KNYC NYC20250805143011608/05/25 14:30:31  5-MIN KNYC 051930Z AUTO VRB06KT 5SM HZ FEW046 28/17 A3032 -200 50 1300 VRB/06 RMK AO2 T02830172 $
94728KNYC NYC20250805143511608/05/25 14:35:31  5-MIN KNYC 051935Z AUTO VRB05KT 5SM HZ FEW046 28/17 A3032 -200 50 1300 VRB/05 RMK AO2 T02780167 $
94728KNYC NYC20250805144011308/05/25 14:40:31  5-MIN KNYC 051940Z AUTO 12005KT 5SM HZ CLR 28/17 A3032 -200 48 1300 130/05 RMK AO2 T02830167 $
94728KNYC NYC20250805144512008/05/25 14:45:31  5-MIN KNYC 051945Z AUTO 00000KT 5SM HZ CLR 28/17 A3031 -200 48 1300 000/00 RMK AO2 SLP255 T02830167 $
94728KNYC NYC20250805145012008/05/25 14:50:31  5-MIN KNYC 051950Z AUTO 07004KT 5SM HZ CLR 28/17 A3031 -200 48 1300 080/04 RMK AO2 SLP255 T02830167 $
94728KNYC NYC20250805145510308/05/25 14:55:31  5-MIN KNYC 051955Z AUTO 5SM HZ CLR 28/17 A3032 -200 48 1300 M /M RMK AO2 T02830167 $
94728KNYC NYC20250805150011608/05/25 15:00:31  5-MIN KNYC 052000Z AUTO 13003KT 5SM HZ FEW042 28/17 A3032 -200 50 1300 140/03 RMK AO2 T02780167 $
94728KNYC NYC20250805150511308/05/25 15:05:31  5-MIN KNYC 052005Z AUTO 5SM HZ FEW042 SCT065 27/17 A3032 -200 54 1200 M /M RMK AO2 T02720172 $
94728KNYC NYC20250805151012308/05/25 15:10:31  5-MIN KNYC 052010Z AUTO VRB03KT 5SM HZ FEW043 SCT065 27/18 A3032 -200 56 1200 VRB/03 RMK AO2 T02720178 $
94728KNYC NYC20250805151511308/05/25 15:15:31  5-MIN KNYC 052015Z AUTO 5SM HZ SCT043 BKN065 27/18 A3032 -200 56 1200 M /M RMK AO2 T02720178 $
94728KNYC NYC20250805152012308/05/25 15:20:31  5-MIN KNYC 052020Z AUTO VRB04KT 5SM HZ SCT043 BKN065 28/18 A3032 -200 54 1300 VRB/04 RMK AO2 T02780178 $
94728KNYC NYC20250805152512308/05/25 15:25:31  5-MIN KNYC 052025Z AUTO VRB04KT 5SM HZ SCT042 BKN065 28/18 A3032 -200 56 1300 VRB/04 RMK AO2 T02780183 $
94728KNYC NYC20250805153012308/05/25 15:30:31  5-MIN KNYC 052030Z AUTO VRB05KT 5SM HZ SCT042 BKN065 27/18 A3032 -200 58 1200 VRB/05 RMK AO2 T02720183 $
94728KNYC NYC20250805153512308/05/25 15:35:31  5-MIN KNYC 052035Z AUTO 00000KT 5SM HZ SCT040 BKN065 27/19 A3032 -200 60 1200 000/00 RMK AO2 T02720189 $
94728KNYC NYC20250805154011608/05/25 15:40:31  5-MIN KNYC 052040Z AUTO 14006KT 5SM HZ SCT040 27/18 A3032 -200 56 1200 150/06 RMK AO2 T02720178 $
94728KNYC NYC20250805154514308/05/25 15:45:31  5-MIN KNYC 052045Z AUTO 00000KT 5SM HZ FEW036 SCT043 SCT060 27/18 A3032 -200 60 1100 000/00 RMK AO2 SLP257 T02670183 58003 $
94728KNYC NYC20250805155013608/05/25 15:50:31  5-MIN KNYC 052050Z AUTO 00000KT 5SM HZ FEW040 SCT060 27/18 A3032 -200 60 1100 000/00 RMK AO2 SLP256 T02670183 58003 $
94728KNYC NYC20250805155511608/05/25 15:55:31  5-MIN KNYC 052055Z AUTO 00000KT 5SM HZ FEW040 27/18 A3032 -200 58 1200 000/00 RMK AO2 T02720183 $
94728KNYC NYC20250805160012308/05/25 16:00:31  5-MIN KNYC 052100Z AUTO 00000KT 5SM HZ FEW037 FEW065 27/18 A3032 -200 58 1200 000/00 RMK AO2 T02720183 $
94728KNYC NYC20250805160511608/05/25 16:05:31  5-MIN KNYC 052105Z AUTO 00000KT 5SM HZ FEW065 27/18 A3032 -200 56 1200 000/00 RMK AO2 T02720178 $
94728KNYC NYC20250805161011308/05/25 16:10:31  5-MIN KNYC 052110Z AUTO 00000KT 5SM HZ CLR 27/18 A3032 -200 60 1100 000/00 RMK AO2 T02670183 $
94728KNYC NYC20250805161510308/05/25 16:15:31  5-MIN KNYC 052115Z AUTO 5SM HZ CLR 27/18 A3032 -200 57 1100 M /M RMK AO2 T02670178 $
94728KNYC NYC20250805162011308/05/25 16:20:31  5-MIN KNYC 052120Z AUTO 00000KT 6SM HZ CLR 27/18 A3032 -200 57 1100 000/00 RMK AO2 T02670178 $
94728KNYC NYC20250805162510308/05/25 16:25:31  5-MIN KNYC 052125Z AUTO 6SM HZ CLR 27/18 A3032 -200 57 1100 M /M RMK AO2 T02670178 $
94728KNYC NYC20250805163011308/05/25 16:30:31  5-MIN KNYC 052130Z AUTO 00000KT 6SM HZ CLR 27/18 A3032 -200 57 1100 000/00 RMK AO2 T02670178 $
94728KNYC NYC20250805163511308/05/25 16:35:31  5-MIN KNYC 052135Z AUTO VRB03KT 6SM HZ CLR 27/17 A3032 -200 55 1100 VRB/03 RMK AO2 T02670172 $
94728KNYC NYC20250805164011308/05/25 16:40:31  5-MIN KNYC 052140Z AUTO 00000KT 6SM HZ CLR 27/18 A3032 -200 57 1100 000/00 RMK AO2 T02670178 $
94728KNYC NYC20250805164512008/05/25 16:45:31  5-MIN KNYC 052145Z AUTO VRB03KT 6SM HZ CLR 26/18 A3032 -200 59 1100 VRB/03 RMK AO2 SLP256 T02610178 $
94728KNYC NYC20250805165012008/05/25 16:50:31  5-MIN KNYC 052150Z AUTO 00000KT 6SM HZ CLR 27/17 A3032 -200 55 1100 000/00 RMK AO2 SLP257 T02670172 $
94728KNYC NYC20250805165510308/05/25 16:55:31  5-MIN KNYC 052155Z AUTO 6SM HZ CLR 26/18 A3032 -200 59 1100 M /M RMK AO2 T02610178 $
94728KNYC NYC20250805170011308/05/25 17:00:31  5-MIN KNYC 052200Z AUTO VRB03KT 6SM HZ CLR 26/18 A3032 -200 59 1100 VRB/03 RMK AO2 T02610178 $
94728KNYC NYC20250805170511308/05/25 17:05:31  5-MIN KNYC 052205Z AUTO 00000KT 6SM HZ CLR 26/17 A3032 -200 57 1100 000/00 RMK AO2 T02610172 $
94728KNYC NYC20250805171011308/05/25 17:10:31  5-MIN KNYC 052210Z AUTO 12008KT 6SM HZ CLR 26/17 A3032 -200 57 1100 140/08 RMK AO2 T02610172 $
94728KNYC NYC20250805171511308/05/25 17:15:31  5-MIN KNYC 052215Z AUTO VRB04KT 6SM HZ CLR 27/16 A3032 -200 52 1100 VRB/04 RMK AO2 T02670161 $
94728KNYC NYC20250805172010308/05/25 17:20:31  5-MIN KNYC 052220Z AUTO 6SM HZ CLR 27/16 A3032 -200 52 1100 M /M RMK AO2 T02670161 $
94728KNYC NYC20250805172511308/05/25 17:25:31  5-MIN KNYC 052225Z AUTO VRB03KT 6SM HZ CLR 26/17 A3032 -200 55 1100 VRB/03 RMK AO2 T02610167 $
94728KNYC NYC20250805173011308/05/25 17:30:31  5-MIN KNYC 052230Z AUTO VRB03KT 6SM HZ CLR 26/17 A3032 -210 55 1100 VRB/03 RMK AO2 T02610167 $
94728KNYC NYC20250805173511308/05/25 17:35:31  5-MIN KNYC 052235Z AUTO VRB04KT 6SM HZ CLR 26/17 A3032 -200 59 1000 VRB/04 RMK AO2 T02560172 $
94728KNYC NYC20250805174011308/05/25 17:40:31  5-MIN KNYC 052240Z AUTO VRB05KT 6SM HZ CLR 26/17 A3032 -210 57 1000 VRB/05 RMK AO2 T02560167 $
94728KNYC NYC20250805174512008/05/25 17:45:31  5-MIN KNYC 052245Z AUTO 00000KT 6SM HZ CLR 26/17 A3032 -210 59 1000 000/00 RMK AO2 SLP258 T02560172 $
94728KNYC NYC20250805175012008/05/25 17:50:31  5-MIN KNYC 052250Z AUTO VRB05KT 6SM HZ CLR 26/17 A3032 -210 59 1000 VRB/05 RMK AO2 SLP258 T02560172 $
94728KNYC NYC20250805175511208/05/25 17:55:31  5-MIN KNYC 052255Z AUTO VRB04KT 6SM HZ CLR 25/17 A3033 -210 59 900 VRB/04 RMK AO2 T02500167 $
94728KNYC NYC20250805180011308/05/25 18:00:31  5-MIN KNYC 052300Z AUTO VRB04KT 6SM HZ CLR 26/16 A3033 -210 55 1000 VRB/04 RMK AO2 T02560161 $
94728KNYC NYC20250805180510908/05/25 18:05:31  5-MIN KNYC 052305Z AUTO VRB05KT 7SM CLR 25/16 A3033 -210 57 900 VRB/05 RMK AO2 T02500161 $
94728KNYC NYC20250805181010908/05/25 18:10:31  5-MIN KNYC 052310Z AUTO VRB03KT 7SM CLR 25/16 A3033 -210 57 900 VRB/03 RMK AO2 T02500161 $
94728KNYC NYC20250805181510908/05/25 18:15:31  5-MIN KNYC 052315Z AUTO 00000KT 7SM CLR 25/16 A3033 -210 57 900 000/00 RMK AO2 T02500161 $
94728KNYC NYC20250805182010908/05/25 18:20:31  5-MIN KNYC 052320Z AUTO 00000KT 7SM CLR 25/16 A3033 -220 57 900 000/00 RMK AO2 T02500161 $
94728KNYC NYC20250805182510908/05/25 18:25:31  5-MIN KNYC 052325Z AUTO VRB03KT 7SM CLR 25/16 A3033 -220 57 900 VRB/03 RMK AO2 T02500161 $
94728KNYC NYC20250805183010908/05/25 18:30:31  5-MIN KNYC 052330Z AUTO 00000KT 7SM CLR 24/16 A3033 -220 59 900 000/00 RMK AO2 T02440161 $
94728KNYC NYC20250805183510908/05/25 18:35:31  5-MIN KNYC 052335Z AUTO VRB03KT 7SM CLR 24/16 A3033 -220 59 900 VRB/03 RMK AO2 T02440161 $
94728KNYC NYC20250805184010908/05/25 18:40:31  5-MIN KNYC 052340Z AUTO 00000KT 7SM CLR 24/16 A3033 -210 57 900 000/00 RMK AO2 T02440156 $
94728KNYC NYC20250805184513408/05/25 18:45:31  5-MIN KNYC 052345Z AUTO VRB03KT 7SM CLR 24/16 A3033 -210 57 900 VRB/03 RMK AO2 SLP261 T02440156 10294 20244 55001 $
94728KNYC NYC20250805185013408/05/25 18:50:31  5-MIN KNYC 052350Z AUTO 00000KT 7SM CLR 24/16 A3033 -220 59 900 000/00 RMK AO2 SLP261 T02440161 10294 20244 55001 $
94728KNYC NYC20250805185510908/05/25 18:55:31  5-MIN KNYC 052355Z AUTO 00000KT 7SM CLR 24/16 A3033 -220 57 900 000/00 RMK AO2 T02440156 $
94728KNYC NYC20250805190010908/05/25 19:00:31  5-MIN KNYC 060000Z AUTO 00000KT 7SM CLR 24/16 A3033 -220 59 900 000/00 RMK AO2 T02440161 $
94728KNYC NYC20250805190510908/05/25 19:05:31  5-MIN KNYC 060005Z AUTO 00000KT 7SM CLR 24/16 A3033 -220 57 900 000/00 RMK AO2 T02440156 $
94728KNYC NYC20250805191010908/05/25 19:10:31  5-MIN KNYC 060010Z AUTO 16003KT 8SM CLR 24/16 A3033 -220 57 900 180/03 RMK AO2 T02440156 $
94728KNYC NYC20250805191510908/05/25 19:15:31  5-MIN KNYC 060015Z AUTO 14004KT 8SM CLR 24/16 A3033 -210 59 900 150/04 RMK AO2 T02440161 $
94728KNYC NYC20250805192010908/05/25 19:20:31  5-MIN KNYC 060020Z AUTO VRB03KT 8SM CLR 24/16 A3033 -210 59 900 VRB/03 RMK AO2 T02440161 $
94728KNYC NYC20250805192510908/05/25 19:25:31  5-MIN KNYC 060025Z AUTO 00000KT 8SM CLR 24/16 A3033 -210 59 900 000/00 RMK AO2 T02440161 $
94728KNYC NYC20250805193010908/05/25 19:30:31  5-MIN KNYC 060030Z AUTO 00000KT 8SM CLR 24/16 A3033 -210 57 900 000/00 RMK AO2 T02440156 $
94728KNYC NYC20250805234010908/05/25 23:40:31  5-MIN KNYC 060440Z AUTO 08004KT 8SM CLR 23/18 A3038 -260 76 600 090/04 RMK AO2 T02280183 $
94728KNYC NYC20250805234512608/05/25 23:45:31  5-MIN KNYC 060445Z AUTO VRB03KT 8SM CLR 23/18 A3038 -260 76 600 VRB/03 RMK AO2 SLP277 T02280183 403000217 $
94728KNYC NYC20250805235012608/05/25 23:50:31  5-MIN KNYC 060450Z AUTO VRB03KT 8SM CLR 23/18 A3038 -260 76 600 VRB/03 RMK AO2 SLP277 T02280183 403000217 $
94728KNYC NYC20250805235510908/05/25 23:55:31  5-MIN KNYC 060455Z AUTO 08005KT 8SM CLR 23/18 A3038 -260 76 600 090/05 RMK AO2 T02280183 $
94728KNYC NYC20250806000010908/06/25 00:00:31  5-MIN KNYC 060500Z AUTO 07003KT 8SM CLR 23/18 A3038 -260 76 600 080/03 RMK AO2 T02280183 $
94728KNYC NYC20250806000510908/06/25 00:05:31  5-MIN KNYC 060505Z AUTO 09005KT 8SM CLR 23/18 A3038 -260 76 600 110/05 RMK AO2 T02280183 $
94728KNYC NYC20250806001010908/06/25 00:10:31  5-MIN KNYC 060510Z AUTO VRB03KT 8SM CLR 23/18 A3038 -260 76 600 VRB/03 RMK AO2 T02280183 $
94728KNYC NYC20250806001510908/06/25 00:15:31  5-MIN KNYC 060515Z AUTO 00000KT 8SM CLR 23/18 A3038 -260 76 600 000/00 RMK AO2 T02280183 $
94728KNYC NYC20250806002010908/06/25 00:20:31  5-MIN KNYC 060520Z AUTO 07003KT 8SM CLR 23/18 A3038 -260 76 600 080/03 RMK AO2 T02280183 $
94728KNYC NYC20250806002510908/06/25 00:25:31  5-MIN KNYC 060525Z AUTO VRB03KT 8SM CLR 23/18 A3037 -250 76 600 VRB/03 RMK AO2 T02280183 $
94728KNYC NYC20250806003010908/06/25 00:30:31  5-MIN KNYC 060530Z AUTO 10006KT 8SM CLR 23/18 A3037 -250 76 600 110/06 RMK AO2 T02280183 $
94728KNYC NYC20250806003510908/06/25 00:35:31  5-MIN KNYC 060535Z AUTO 08003KT 8SM CLR 23/18 A3037 -250 76 600 090/03 RMK AO2 T02280183 $
94728KNYC NYC20250806004010908/06/25 00:40:31  5-MIN KNYC 060540Z AUTO 07005KT 8SM CLR 23/18 A3038 -250 76 600 080/05 RMK AO2 T02280183 $
94728KNYC NYC20250806004513408/06/25 00:45:31  5-MIN KNYC 060545Z AUTO VRB03KT 9SM CLR 23/18 A3038 -260 76 600 VRB/03 RMK AO2 SLP276 T02280183 10244 20228 53008 $
94728KNYC NYC20250806005013408/06/25 00:50:31  5-MIN KNYC 060550Z AUTO 00000KT 9SM CLR 23/18 A3037 -250 76 600 000/00 RMK AO2 SLP276 T02280183 10244 20228 53008 $
94728KNYC NYC20250806005510908/06/25 00:55:31  5-MIN KNYC 060555Z AUTO 07003KT 8SM CLR 22/18 A3038 -260 78 600 080/03 RMK AO2 T02220183 $
94728KNYC NYC20250806010010908/06/25 01:00:31  5-MIN KNYC 060600Z AUTO 00000KT 8SM CLR 22/18 A3038 -260 78 600 000/00 RMK AO2 T02220183 $
94728KNYC NYC20250806010510908/06/25 01:05:31  5-MIN KNYC 060605Z AUTO VRB03KT 8SM CLR 22/18 A3038 -260 78 600 VRB/03 RMK AO2 T02220183 $
94728KNYC NYC20250806011010908/06/25 01:10:31  5-MIN KNYC 060610Z AUTO VRB04KT 8SM CLR 23/18 A3038 -260 76 600 VRB/04 RMK AO2 T02280183 $
94728KNYC NYC20250806011510908/06/25 01:15:31  5-MIN KNYC 060615Z AUTO VRB03KT 8SM CLR 23/18 A3038 -260 73 600 VRB/03 RMK AO2 T02280178 $
94728KNYC NYC20250806012010908/06/25 01:20:31  5-MIN KNYC 060620Z AUTO VRB03KT 8SM CLR 23/18 A3038 -260 73 600 VRB/03 RMK AO2 T02280178 $
94728KNYC NYC20250806012511208/06/25 01:25:31  5-MIN KNYC 060625Z AUTO 06004KT 8SM FEW030 23/18 A3038 -260 73 600 080/04 RMK AO2 T02280178 $
94728KNYC NYC20250806013011208/06/25 01:30:31  5-MIN KNYC 060630Z AUTO VRB03KT 8SM FEW030 23/18 A3038 -260 73 600 VRB/03 RMK AO2 T02280178 $
94728KNYC NYC20250806013511208/06/25 01:35:31  5-MIN KNYC 060635Z AUTO 07003KT 8SM SCT030 22/18 A3038 -260 75 600 090/03 RMK AO2 T02220178 $
94728KNYC NYC20250806014011208/06/25 01:40:31  5-MIN KNYC 060640Z AUTO 07003KT 8SM SCT030 22/18 A3038 -260 78 600 080/03 RMK AO2 T02220183 $
94728KNYC NYC20250806014511908/06/25 01:45:31  5-MIN KNYC 060645Z AUTO 08004KT 8SM SCT030 23/18 A3038 -260 76 600 090/04 RMK AO2 SLP276 T02280183 $
94728KNYC NYC20250806015011908/06/25 01:50:31  5-MIN KNYC 060650Z AUTO 07007KT 8SM BKN028 23/18 A3038 -260 76 600 080/07 RMK AO2 SLP276 T02280183 $
94728KNYC NYC20250806015511208/06/25 01:55:31  5-MIN KNYC 060655Z AUTO VRB04KT 8SM BKN028 23/18 A3038 -260 76 600 VRB/04 RMK AO2 T02280183 $
94728KNYC NYC20250806020011208/06/25 02:00:31  5-MIN KNYC 060700Z AUTO 05006KT 8SM BKN028 23/18 A3038 -260 76 600 060/06 RMK AO2 T02280183 $
94728KNYC NYC20250806020511208/06/25 02:05:31  5-MIN KNYC 060705Z AUTO 06006KT 8SM BKN027 23/18 A3038 -260 76 600 070/06 RMK AO2 T02280183 $
94728KNYC NYC20250806021011208/06/25 02:10:31  5-MIN KNYC 060710Z AUTO 06004KT 8SM BKN027 23/18 A3038 -260 76 600 070/04 RMK AO2 T02280183 $
94728KNYC NYC20250806021511208/06/25 02:15:31  5-MIN KNYC 060715Z AUTO 07006KT 8SM BKN027 23/18 A3038 -260 76 600 080/06 RMK AO2 T02280183 $
94728KNYC NYC20250806022011208/06/25 02:20:31  5-MIN KNYC 060720Z AUTO 05005KT 8SM BKN027 22/18 A3038 -260 75 600 070/05 RMK AO2 T02220178 $
94728KNYC NYC20250806022511208/06/25 02:25:31  5-MIN KNYC 060725Z AUTO 09006KT 8SM SCT027 22/18 A3038 -260 75 600 100/06 RMK AO2 T02220178 $
94728KNYC NYC20250806023011208/06/25 02:30:31  5-MIN KNYC 060730Z AUTO VRB04KT 8SM SCT027 22/18 A3038 -260 75 600 VRB/04 RMK AO2 T02220178 $
94728KNYC NYC20250806023511208/06/25 02:35:31  5-MIN KNYC 060735Z AUTO 07004KT 8SM FEW027 22/18 A3038 -260 75 600 080/04 RMK AO2 T02220178 $
94728KNYC NYC20250806024010908/06/25 02:40:31  5-MIN KNYC 060740Z AUTO 08004KT 8SM CLR 22/18 A3039 -260 75 600 100/04 RMK AO2 T02220178 $
94728KNYC NYC20250806024511608/06/25 02:45:31  5-MIN KNYC 060745Z AUTO VRB04KT 8SM CLR 22/18 A3039 -270 75 500 VRB/04 RMK AO2 SLP280 T02220178 $
94728KNYC NYC20250806025011608/06/25 02:50:31  5-MIN KNYC 060750Z AUTO 05005KT 8SM CLR 22/18 A3039 -270 75 500 070/05 RMK AO2 SLP280 T02220178 $
94728KNYC NYC20250806025511208/06/25 02:55:31  5-MIN KNYC 060755Z AUTO 06006KT 8SM FEW013 22/18 A3039 -270 75 500 070/06 RMK AO2 T02220178 $
94728KNYC NYC20250806030011208/06/25 03:00:31  5-MIN KNYC 060800Z AUTO 05007KT 8SM FEW013 22/18 A3039 -260 75 600 070/07 RMK AO2 T02220178 $
94728KNYC NYC20250806030511208/06/25 03:05:31  5-MIN KNYC 060805Z AUTO VRB04KT 8SM FEW013 22/18 A3039 -260 75 600 VRB/04 RMK AO2 T02220178 $
94728KNYC NYC20250806031011208/06/25 03:10:31  5-MIN KNYC 060810Z AUTO VRB03KT 8SM FEW013 22/18 A3038 -260 75 600 VRB/03 RMK AO2 T02220178 $
94728KNYC NYC20250806031511208/06/25 03:15:31  5-MIN KNYC 060815Z AUTO 06005KT 8SM FEW013 22/18 A3038 -260 75 600 070/05 RMK AO2 T02220178 $
94728KNYC NYC20250806032011208/06/25 03:20:31  5-MIN KNYC 060820Z AUTO 06005KT 8SM FEW013 22/18 A3038 -260 75 600 070/05 RMK AO2 T02220178 $
94728KNYC NYC20250806032511208/06/25 03:25:31  5-MIN KNYC 060825Z AUTO 00000KT 8SM FEW013 22/18 A3038 -260 75 600 000/00 RMK AO2 T02220178 $
94728KNYC NYC20250806033010908/06/25 03:30:31  5-MIN KNYC 060830Z AUTO VRB03KT 8SM CLR 22/18 A3038 -260 78 500 VRB/03 RMK AO2 T02170178 $
94728KNYC NYC20250806033511208/06/25 03:35:31  5-MIN KNYC 060835Z AUTO VRB03KT 8SM FEW012 22/18 A3038 -260 75 600 VRB/03 RMK AO2 T02220178 $
94728KNYC NYC20250806034011208/06/25 03:40:31  5-MIN KNYC 060840Z AUTO 08003KT 8SM SCT012 22/18 A3038 -260 78 500 090/03 RMK AO2 T02170178 $
94728KNYC NYC20250806034512508/06/25 03:45:31  5-MIN KNYC 060845Z AUTO 06003KT 8SM SCT012 22/18 A3038 -260 78 600 070/03 RMK AO2 SLP278 T02220183 50005 $
94728KNYC NYC20250806035012508/06/25 03:50:31  5-MIN KNYC 060850Z AUTO 05005KT 8SM BKN012 22/18 A3038 -260 78 600 070/05 RMK AO2 SLP278 T02220183 50005 $
94728KNYC NYC20250806035511208/06/25 03:55:31  5-MIN KNYC 060855Z AUTO 08005KT 8SM BKN012 22/18 A3038 -260 78 600 090/05 RMK AO2 T02220183 $
94728KNYC NYC20250806040011208/06/25 04:00:31  5-MIN KNYC 060900Z AUTO 07004KT 8SM BKN012 22/18 A3038 -260 78 600 080/04 RMK AO2 T02220183 $
94728KNYC NYC20250806040511208/06/25 04:05:31  5-MIN KNYC 060905Z AUTO VRB05KT 8SM BKN012 22/18 A3039 -260 78 600 VRB/05 RMK AO2 T02220183 $
94728KNYC NYC20250806041011908/06/25 04:10:31  5-MIN KNYC 060910Z AUTO 00000KT 8SM BKN012 BKN019 22/18 A3039 -270 78 500 000/00 RMK AO2 T02220183 $
94728KNYC NYC20250806041511908/06/25 04:15:31  5-MIN KNYC 060915Z AUTO 07006KT 8SM BKN012 BKN019 22/18 A3039 -270 78 500 080/06 RMK AO2 T02220183 $
94728KNYC NYC20250806042011908/06/25 04:20:31  5-MIN KNYC 060920Z AUTO VRB03KT 8SM BKN012 BKN019 22/18 A3039 -270 78 500 VRB/03 RMK AO2 T02220183 $
94728KNYC NYC20250806042511908/06/25 04:25:31  5-MIN KNYC 060925Z AUTO 07005KT 8SM BKN014 BKN019 22/18 A3039 -270 78 600 080/05 RMK AO2 T02220183 $
94728KNYC NYC20250806043011908/06/25 04:30:31  5-MIN KNYC 060930Z AUTO 07004KT 8SM BKN014 BKN019 22/19 A3039 -270 81 500 080/04 RMK AO2 T02220189 $
94728KNYC NYC20250806043511908/06/25 04:35:31  5-MIN KNYC 060935Z AUTO 05003KT 8SM BKN014 OVC021 22/19 A3039 -270 81 500 070/03 RMK AO2 T02220189 $
94728KNYC NYC20250806044011908/06/25 04:40:31  5-MIN KNYC 060940Z AUTO 09004KT 7SM BKN014 OVC021 22/19 A3039 -270 81 500 100/04 RMK AO2 T02220189 $
94728KNYC NYC20250806044511908/06/25 04:45:31  5-MIN KNYC 060945Z AUTO VRB05KT 7SM BKN013 22/19 A3039 -270 81 500 VRB/05 RMK AO2 SLP281 T02220189 $
94728KNYC NYC20250806045011908/06/25 04:50:31  5-MIN KNYC 060950Z AUTO VRB05KT 7SM OVC013 22/19 A3039 -270 81 500 VRB/05 RMK AO2 SLP281 T02220189 $
94728KNYC NYC20250806045511208/06/25 04:55:31  5-MIN KNYC 060955Z AUTO 06006KT 7SM OVC012 22/19 A3039 -270 81 500 080/06 RMK AO2 T02220189 $
94728KNYC NYC20250806050011908/06/25 05:00:31  5-MIN KNYC 061000Z AUTO 05005KT 7SM BKN012 OVC023 22/18 A3039 -270 78 500 070/05 RMK AO2 T02220183 $
94728KNYC NYC20250806050511208/06/25 05:05:31  5-MIN KNYC 061005Z AUTO 06006KT 7SM OVC012 22/18 A3039 -270 78 500 070/06 RMK AO2 T02220183 $
94728KNYC NYC20250806051011908/06/25 05:10:31  5-MIN KNYC 061010Z AUTO 06008KT 7SM BKN014 OVC021 22/18 A3039 -270 78 500 070/08 RMK AO2 T02220183 $
94728KNYC NYC20250806051511908/06/25 05:15:31  5-MIN KNYC 061015Z AUTO 05006KT 7SM BKN014 OVC021 22/18 A3039 -270 78 500 060/06 RMK AO2 T02220183 $
94728KNYC NYC20250806052011908/06/25 05:20:31  5-MIN KNYC 061020Z AUTO VRB05KT 7SM BKN014 OVC021 22/18 A3040 -270 78 500 VRB/05 RMK AO2 T02220183 $
94728KNYC NYC20250806052511908/06/25 05:25:31  5-MIN KNYC 061025Z AUTO 06006KT 7SM BKN014 BKN021 22/18 A3039 -270 78 500 070/06 RMK AO2 T02220183 $
94728KNYC NYC20250806053011908/06/25 05:30:31  5-MIN KNYC 061030Z AUTO VRB05KT 7SM BKN015 BKN020 22/18 A3039 -270 78 500 VRB/05 RMK AO2 T02220183 $
94728KNYC NYC20250806053511508/06/25 05:35:31  5-MIN KNYC 061035Z AUTO VRB06KT 6SM HZ BKN017 22/18 A3040 -280 78 500 VRB/06 RMK AO2 T02220183 $
94728KNYC NYC20250806054011508/06/25 05:40:31  5-MIN KNYC 061040Z AUTO 05006KT 6SM HZ SCT017 22/18 A3040 -280 75 500 070/06 RMK AO2 T02220178 $
94728KNYC NYC20250806054512208/06/25 05:45:31  5-MIN KNYC 061045Z AUTO 05003KT 6SM HZ FEW017 22/18 A3040 -280 75 500 070/03 RMK AO2 SLP284 T02220178 $
94728KNYC NYC20250806055012208/06/25 05:50:31  5-MIN KNYC 061050Z AUTO 05007KT 6SM HZ FEW017 22/18 A3040 -280 78 500 070/07 RMK AO2 SLP284 T02220183 $
94728KNYC NYC20250806055511208/06/25 05:55:31  5-MIN KNYC 061055Z AUTO 06006KT 6SM HZ CLR 22/18 A3040 -280 75 500 070/06 RMK AO2 T02220178 $
94728KNYC NYC20250806060011208/06/25 06:00:31  5-MIN KNYC 061100Z AUTO 06009KT 6SM HZ CLR 22/18 A3040 -280 75 500 070/09 RMK AO2 T02220178 $
94728KNYC NYC20250806060511208/06/25 06:05:31  5-MIN KNYC 061105Z AUTO 06005KT 6SM HZ CLR 22/18 A3040 -280 75 500 070/05 RMK AO2 T02220178 $
94728KNYC NYC20250806061011208/06/25 06:10:31  5-MIN KNYC 061110Z AUTO 06006KT 6SM HZ CLR 22/18 A3041 -280 75 500 070/06 RMK AO2 T02220178 $
94728KNYC NYC20250806061511208/06/25 06:15:31  5-MIN KNYC 061115Z AUTO VRB04KT 6SM HZ CLR 22/18 A3041 -280 75 500 VRB/04 RMK AO2 T02220178 $
94728KNYC NYC20250806062011208/06/25 06:20:31  5-MIN KNYC 061120Z AUTO VRB04KT 6SM HZ CLR 22/18 A3041 -290 75 500 VRB/04 RMK AO2 T02220178 $
94728KNYC NYC20250806062511208/06/25 06:25:31  5-MIN KNYC 061125Z AUTO VRB06KT 6SM HZ CLR 22/18 A3041 -290 75 500 VRB/06 RMK AO2 T02220178 $
94728KNYC NYC20250806063011208/06/25 06:30:31  5-MIN KNYC 061130Z AUTO VRB03KT 6SM HZ CLR 22/18 A3041 -280 75 500 VRB/03 RMK AO2 T02220178 $
94728KNYC NYC20250806063510208/06/25 06:35:31  5-MIN KNYC 061135Z AUTO 6SM HZ CLR 22/18 A3041 -290 75 500 M /M RMK AO2 T02220178 $
94728KNYC NYC20250806064011208/06/25 06:40:31  5-MIN KNYC 061140Z AUTO 05006KT 6SM HZ CLR 22/18 A3041 -290 75 500 070/06 RMK AO2 T02220178 $
94728KNYC NYC20250806064514008/06/25 06:45:31  5-MIN KNYC 061145Z AUTO VRB06KT 5SM HZ FEW015 22/18 A3041 -290 75 500 VRB/06 RMK AO2 SLP288 T02220178 10228 20217 50002 $
94728KNYC NYC20250806065014008/06/25 06:50:31  5-MIN KNYC 061150Z AUTO 05007KT 5SM HZ FEW015 22/18 A3041 -290 75 500 060/07 RMK AO2 SLP289 T02220178 10228 20217 50002 $
94728KNYC NYC20250806065511508/06/25 06:55:31  5-MIN KNYC 061155Z AUTO VRB04KT 5SM HZ FEW013 22/18 A3042 -290 75 500 VRB/04 RMK AO2 T02220178 $
94728KNYC NYC20250806070012108/06/25 07:00:31  5-MIN KNYC 061200Z AUTO 06009G14KT 5SM HZ FEW016 22/18 A3042 -300 75 500 070/09G14 RMK AO2 T02220178 $
94728KNYC NYC20250806070512108/06/25 07:05:31  5-MIN KNYC 061205Z AUTO 07008G14KT 5SM HZ SCT016 22/18 A3042 -300 75 500 080/08G14 RMK AO2 T02220178 $
94728KNYC NYC20250806071011508/06/25 07:10:31  5-MIN KNYC 061210Z AUTO VRB03KT 5SM HZ FEW016 22/18 A3042 -300 75 500 VRB/03 RMK AO2 T02220178 $
94728KNYC NYC20250806071511508/06/25 07:15:31  5-MIN KNYC 061215Z AUTO 06005KT 5SM HZ FEW016 22/18 A3042 -300 75 500 080/05 RMK AO2 T02220178 $
94728KNYC NYC20250806072011508/06/25 07:20:31  5-MIN KNYC 061220Z AUTO 05008KT 5SM HZ FEW016 22/18 A3042 -300 75 500 070/08 RMK AO2 T02220178 $
94728KNYC NYC20250806072511508/06/25 07:25:31  5-MIN KNYC 061225Z AUTO VRB03KT 5SM HZ SCT014 22/18 A3042 -300 75 500 VRB/03 RMK AO2 T02220178 $
94728KNYC NYC20250806073010508/06/25 07:30:31  5-MIN KNYC 061230Z AUTO 5SM HZ SCT014 22/18 A3042 -300 75 500 M /M RMK AO2 T02220178 $
94728KNYC NYC20250806073511508/06/25 07:35:31  5-MIN KNYC 061235Z AUTO VRB05KT 5SM HZ SCT014 23/18 A3042 -300 76 600 VRB/05 RMK AO2 T02280183 $
94728KNYC NYC20250806074011508/06/25 07:40:31  5-MIN KNYC 061240Z AUTO 07007KT 5SM HZ SCT014 23/18 A3042 -300 76 600 090/07 RMK AO2 T02280183 $
94728KNYC NYC20250806074514408/06/25 07:45:31  5-MIN KNYC 061245Z AUTO 07009G17KT 050V110 5SM HZ FEW014 23/18 A3042 -300 76 600 080/09G17 060V120 RMK AO2 SLP291 T02280183 $
94728KNYC NYC20250806075012808/06/25 07:50:31  5-MIN KNYC 061250Z AUTO 06011G17KT 5SM HZ FEW014 23/18 A3042 -300 76 600 070/11G17 RMK AO2 SLP291 T02280183 $
94728KNYC NYC20250806075513108/06/25 07:55:31  5-MIN KNYC 061255Z AUTO 08008KT 040V110 5SM HZ SCT016 23/18 A3042 -300 76 600 090/08 050V120 RMK AO2 T02280183 $
94728KNYC NYC20250806080011508/06/25 08:00:31  5-MIN KNYC 061300Z AUTO 07007KT 5SM HZ FEW016 23/18 A3043 -300 73 600 080/07 RMK AO2 T02280178 $
94728KNYC NYC20250806080512108/06/25 08:05:31  5-MIN KNYC 061305Z AUTO 07011G17KT 5SM HZ FEW016 23/18 A3042 -300 73 600 080/11G17 RMK AO2 T02280178 $
94728KNYC NYC20250806081012108/06/25 08:10:31  5-MIN KNYC 061310Z AUTO 06010G17KT 5SM HZ FEW016 23/18 A3042 -300 73 600 070/10G17 RMK AO2 T02280178 $
94728KNYC NYC20250806081513708/06/25 08:15:31  5-MIN KNYC 061315Z AUTO 07007G16KT 030V110 5SM HZ FEW016 23/18 A3043 -300 73 600 080/07G16 040V120 RMK AO2 T02280178 $
94728KNYC NYC20250806082011508/06/25 08:20:31  5-MIN KNYC 061320Z AUTO 06010KT 5SM HZ SCT014 23/18 A3043 -310 73 600 070/10 RMK AO2 T02280178 $
94728KNYC NYC20250806082511508/06/25 08:25:31  5-MIN KNYC 061325Z AUTO 06009KT 5SM HZ SCT014 23/18 A3044 -310 73 600 070/09 RMK AO2 T02280178 $
94728KNYC NYC20250806083013708/06/25 08:30:31  5-MIN KNYC 061330Z AUTO 07008G15KT 050V110 5SM HZ SCT014 23/18 A3044 -310 73 600 080/08G15 060V120 RMK AO2 T02280178 $
94728KNYC NYC20250806083512108/06/25 08:35:31  5-MIN KNYC 061335Z AUTO 06006G16KT 5SM HZ SCT014 23/18 A3044 -310 73 600 080/06G16 RMK AO2 T02280178 $
94728KNYC NYC20250806084011508/06/25 08:40:31  5-MIN KNYC 061340Z AUTO 06007KT 5SM HZ FEW014 23/18 A3044 -320 73 600 070/07 RMK AO2 T02280178 $
94728KNYC NYC20250806084512208/06/25 08:45:31  5-MIN KNYC 061345Z AUTO 06009KT 5SM HZ SCT016 23/18 A3045 -320 73 500 070/09 RMK AO2 SLP299 T02280178 $
94728KNYC NYC20250806085012208/06/25 08:50:31  5-MIN KNYC 061350Z AUTO 07008KT 5SM HZ SCT016 23/18 A3045 -320 70 600 080/08 RMK AO2 SLP300 T02330178 $
94728KNYC NYC20250806085511508/06/25 08:55:31  5-MIN KNYC 061355Z AUTO 06007KT 6SM HZ SCT018 23/17 A3045 -320 70 500 070/07 RMK AO2 T02280172 $
94728KNYC NYC20250806090011508/06/25 09:00:31  5-MIN KNYC 061400Z AUTO VRB06KT 6SM HZ SCT018 23/18 A3044 -320 70 600 VRB/06 RMK AO2 T02330178 $
94728KNYC NYC20250806090511508/06/25 09:05:31  5-MIN KNYC 061405Z AUTO VRB05KT 6SM HZ SCT018 23/18 A3044 -320 70 600 VRB/05 RMK AO2 T02330178 $
94728KNYC NYC20250806091011508/06/25 09:10:31  5-MIN KNYC 061410Z AUTO VRB05KT 6SM HZ SCT018 24/18 A3045 -320 68 700 VRB/05 RMK AO2 T02390178 $
94728KNYC NYC20250806091511508/06/25 09:15:31  5-MIN KNYC 061415Z AUTO VRB06KT 6SM HZ SCT017 24/18 A3045 -320 68 700 VRB/06 RMK AO2 T02390178 $
94728KNYC NYC20250806092013708/06/25 09:20:31  5-MIN KNYC 061420Z AUTO 09007G14KT 050V130 6SM HZ FEW017 23/17 A3044 -320 68 600 100/07G14 060V140 RMK AO2 T02330172 $
94728KNYC NYC20250806092512108/06/25 09:25:31  5-MIN KNYC 061425Z AUTO VRB06G14KT 5SM HZ FEW017 24/17 A3044 -310 66 700 VRB/06G14 RMK AO2 T02390172 $
94728KNYC NYC20250806093011508/06/25 09:30:31  5-MIN KNYC 061430Z AUTO VRB04KT 5SM HZ FEW018 24/17 A3044 -320 66 700 VRB/04 RMK AO2 T02390172 $
94728KNYC NYC20250806093513108/06/25 09:35:31  5-MIN KNYC 061435Z AUTO 09007KT 050V120 5SM HZ FEW018 24/18 A3044 -320 68 700 110/07 060V130 RMK AO2 T02390178 $
94728KNYC NYC20250806094011508/06/25 09:40:31  5-MIN KNYC 061440Z AUTO VRB03KT 5SM HZ FEW020 24/17 A3044 -320 66 700 VRB/03 RMK AO2 T02390172 $
94728KNYC NYC20250806094512808/06/25 09:45:31  5-MIN KNYC 061445Z AUTO 09007KT 5SM HZ FEW020 24/17 A3044 -320 63 700 110/07 RMK AO2 SLP299 T02440172 53012 $
94728KNYC NYC20250806095012508/06/25 09:50:31  5-MIN KNYC 061450Z AUTO 10006KT 5SM HZ CLR 24/17 A3044 -320 63 700 110/06 RMK AO2 SLP299 T02440172 53012 $
94728KNYC NYC20250806095511208/06/25 09:55:31  5-MIN KNYC 061455Z AUTO VRB05KT 5SM HZ CLR 24/17 A3044 -320 63 700 VRB/05 RMK AO2 T02440172 $
94728KNYC NYC20250806100011208/06/25 10:00:31  5-MIN KNYC 061500Z AUTO 06007KT 5SM HZ CLR 24/18 A3044 -320 66 700 080/07 RMK AO2 T02440178 $
94728KNYC NYC20250806100512808/06/25 10:05:31  5-MIN KNYC 061505Z AUTO 10007KT 090V180 5SM HZ CLR 24/17 A3044 -320 63 700 120/07 100V190 RMK AO2 T02440172 $
94728KNYC NYC20250806101011808/06/25 10:10:31  5-MIN KNYC 061510Z AUTO 08007G16KT 5SM HZ CLR 24/17 A3044 -320 63 700 090/07G16 RMK AO2 T02440172 $
94728KNYC NYC20250806101511808/06/25 10:15:31  5-MIN KNYC 061515Z AUTO 06007G17KT 5SM HZ CLR 24/17 A3044 -320 63 700 070/07G17 RMK AO2 T02440172 $
94728KNYC NYC20250806102011808/06/25 10:20:31  5-MIN KNYC 061520Z AUTO 05006G17KT 5SM HZ CLR 25/17 A3044 -320 61 800 060/06G17 RMK AO2 T02500172 $
94728KNYC NYC20250806102511208/06/25 10:25:31  5-MIN KNYC 061525Z AUTO VRB05KT 5SM HZ CLR 25/17 A3044 -320 61 800 VRB/05 RMK AO2 T02500172 $
94728KNYC NYC20250806103011208/06/25 10:30:31  5-MIN KNYC 061530Z AUTO VRB06KT 5SM HZ CLR 25/17 A3044 -320 61 800 VRB/06 RMK AO2 T02500172 $
94728KNYC NYC20250806103511208/06/25 10:35:31  5-MIN KNYC 061535Z AUTO 07005KT 5SM HZ CLR 25/17 A3044 -320 61 800 080/05 RMK AO2 T02500172 $
94728KNYC NYC20250806104011208/06/25 10:40:31  5-MIN KNYC 061540Z AUTO 06005KT 5SM HZ CLR 25/17 A3045 -320 61 800 070/05 RMK AO2 T02500172 $
94728KNYC NYC20250806104511908/06/25 10:45:31  5-MIN KNYC 061545Z AUTO VRB05KT 5SM HZ CLR 25/18 A3045 -320 64 800 VRB/05 RMK AO2 SLP300 T02500178 $
94728KNYC NYC20250806105013508/06/25 10:50:31  5-MIN KNYC 061550Z AUTO 07007KT 050V110 5SM HZ CLR 25/17 A3045 -320 61 800 090/07 060V120 RMK AO2 SLP300 T02500172 $
94728KNYC NYC20250806105511808/06/25 10:55:31  5-MIN KNYC 061555Z AUTO 05006G14KT 5SM HZ CLR 26/17 A3045 -320 59 900 070/06G14 RMK AO2 T02560172 $
94728KNYC NYC20250806110011808/06/25 11:00:31  5-MIN KNYC 061600Z AUTO 07010G14KT 5SM HZ CLR 26/17 A3044 -320 57 900 080/10G14 RMK AO2 T02610172 $
94728KNYC NYC20250806110511808/06/25 11:05:31  5-MIN KNYC 061605Z AUTO 05005G14KT 5SM HZ CLR 26/17 A3044 -320 57 900 070/05G14 RMK AO2 T02560167 $
94728KNYC NYC20250806111011208/06/25 11:10:31  5-MIN KNYC 061610Z AUTO 08005KT 5SM HZ CLR 25/17 A3044 -320 61 800 100/05 RMK AO2 T02500172 $
94728KNYC NYC20250806111511208/06/25 11:15:31  5-MIN KNYC 061615Z AUTO VRB06KT 5SM HZ CLR 26/17 A3044 -320 55 900 VRB/06 RMK AO2 T02610167 $
94728KNYC NYC20250806112011208/06/25 11:20:31  5-MIN KNYC 061620Z AUTO VRB06KT 5SM HZ CLR 26/17 A3044 -320 57 900 VRB/06 RMK AO2 T02610172 $
94728KNYC NYC20250806112511208/06/25 11:25:31  5-MIN KNYC 061625Z AUTO VRB05KT 5SM HZ CLR 26/17 A3044 -310 57 900 VRB/05 RMK AO2 T02610172 $
94728KNYC NYC20250806113011208/06/25 11:30:31  5-MIN KNYC 061630Z AUTO 09007KT 5SM HZ CLR 26/17 A3044 -310 55 900 100/07 RMK AO2 T02610167 $
94728KNYC NYC20250806113511208/06/25 11:35:31  5-MIN KNYC 061635Z AUTO 08008KT 5SM HZ CLR 26/17 A3044 -310 55 900 090/08 RMK AO2 T02610167 $
94728KNYC NYC20250806114011208/06/25 11:40:31  5-MIN KNYC 061640Z AUTO 09006KT 5SM HZ CLR 26/17 A3043 -310 57 900 100/06 RMK AO2 T02560167 $
94728KNYC NYC20250806114511908/06/25 11:45:31  5-MIN KNYC 061645Z AUTO VRB05KT 5SM HZ CLR 26/17 A3043 -310 57 900 VRB/05 RMK AO2 SLP296 T02560167 $
94728KNYC NYC20250806115011908/06/25 11:50:31  5-MIN KNYC 061650Z AUTO 05006KT 5SM HZ CLR 26/16 A3043 -310 55 900 060/06 RMK AO2 SLP296 T02560161 $
94728KNYC NYC20250806115511208/06/25 11:55:31  5-MIN KNYC 061655Z AUTO VRB05KT 5SM HZ CLR 26/17 A3043 -310 57 900 VRB/05 RMK AO2 T02560167 $
94728KNYC NYC20250806120011208/06/25 12:00:31  5-MIN KNYC 061700Z AUTO VRB06KT 5SM HZ CLR 26/17 A3043 -310 57 900 VRB/06 RMK AO2 T02560167 $
94728KNYC NYC20250806120510208/06/25 12:05:31  5-MIN KNYC 061705Z AUTO 6SM HZ CLR 26/17 A3043 -310 57 900 M /M RMK AO2 T02560167 $
94728KNYC NYC20250806121011208/06/25 12:10:31  5-MIN KNYC 061710Z AUTO VRB05KT 6SM HZ CLR 25/17 A3043 -310 59 800 VRB/05 RMK AO2 T02500167 $
94728KNYC NYC20250806121511208/06/25 12:15:31  5-MIN KNYC 061715Z AUTO VRB04KT 6SM HZ CLR 25/17 A3043 -310 59 800 VRB/04 RMK AO2 T02500167 $
94728KNYC NYC20250806122012808/06/25 12:20:31  5-MIN KNYC 061720Z AUTO 04007KT 020V080 6SM HZ CLR 26/17 A3043 -310 57 900 060/07 030V090 RMK AO2 T02560167 $
94728KNYC NYC20250806122511208/06/25 12:25:31  5-MIN KNYC 061725Z AUTO 06005KT 6SM HZ CLR 26/17 A3043 -310 55 900 070/05 RMK AO2 T02610167 $
94728KNYC NYC20250806123011208/06/25 12:30:31  5-MIN KNYC 061730Z AUTO 06008KT 6SM HZ CLR 26/17 A3043 -310 57 900 070/08 RMK AO2 T02560167 $
94728KNYC NYC20250806123511208/06/25 12:35:31  5-MIN KNYC 061735Z AUTO 07006KT 6SM HZ CLR 26/17 A3043 -310 57 900 080/06 RMK AO2 T02560167 $
94728KNYC NYC20250806124011208/06/25 12:40:31  5-MIN KNYC 061740Z AUTO VRB04KT 6SM HZ CLR 25/17 A3043 -310 59 800 VRB/04 RMK AO2 T02500167 $
94728KNYC NYC20250806124513708/06/25 12:45:31  5-MIN KNYC 061745Z AUTO 05006KT 6SM HZ CLR 25/17 A3043 -310 59 800 060/06 RMK AO2 SLP295 T02500167 10261 20222 50009 $
94728KNYC NYC20250806125013708/06/25 12:50:31  5-MIN KNYC 061750Z AUTO 05004KT 6SM HZ CLR 25/17 A3043 -300 59 800 060/04 RMK AO2 SLP294 T02500167 10261 20222 50009 $
94728KNYC NYC20250806125511208/06/25 12:55:31  5-MIN KNYC 061755Z AUTO VRB05KT 6SM HZ CLR 25/17 A3043 -300 59 800 VRB/05 RMK AO2 T02500167 $
94728KNYC NYC20250806130011208/06/25 13:00:31  5-MIN KNYC 061800Z AUTO 08004KT 6SM HZ CLR 25/17 A3043 -310 59 800 100/04 RMK AO2 T02500167 $
94728KNYC NYC20250806130511208/06/25 13:05:31  5-MIN KNYC 061805Z AUTO 05004KT 6SM HZ CLR 25/17 A3043 -310 59 800 060/04 RMK AO2 T02500167 $
94728KNYC NYC20250806131011208/06/25 13:10:31  5-MIN KNYC 061810Z AUTO VRB04KT 6SM HZ CLR 25/17 A3043 -310 59 800 VRB/04 RMK AO2 T02500167 $
94728KNYC NYC20250806131511208/06/25 13:15:31  5-MIN KNYC 061815Z AUTO 05006KT 6SM HZ CLR 25/17 A3044 -310 59 800 060/06 RMK AO2 T02500167 $
94728KNYC NYC20250806132010908/06/25 13:20:31  5-MIN KNYC 061820Z AUTO 05006KT 7SM CLR 25/16 A3044 -310 57 800 070/06 RMK AO2 T02500161 $
94728KNYC NYC20250806132510908/06/25 13:25:31  5-MIN KNYC 061825Z AUTO VRB03KT 7SM CLR 25/16 A3044 -310 57 800 VRB/03 RMK AO2 T02500161 $
94728KNYC NYC20250806133011208/06/25 13:30:31  5-MIN KNYC 061830Z AUTO VRB04KT 6SM HZ CLR 24/16 A3044 -310 59 800 VRB/04 RMK AO2 T02440161 $
94728KNYC NYC20250806133511208/06/25 13:35:31  5-MIN KNYC 061835Z AUTO 06005KT 6SM HZ CLR 24/17 A3043 -310 61 800 070/05 RMK AO2 T02440167 $
94728KNYC NYC20250806134010908/06/25 13:40:31  5-MIN KNYC 061840Z AUTO VRB03KT 7SM CLR 24/17 A3043 -310 61 800 VRB/03 RMK AO2 T02440167 $
94728KNYC NYC20250806134511608/06/25 13:45:31  5-MIN KNYC 061845Z AUTO 06005KT 7SM CLR 24/17 A3043 -310 61 800 070/05 RMK AO2 SLP295 T02440167 $
94728KNYC NYC20250806135011608/06/25 13:50:31  5-MIN KNYC 061850Z AUTO 06004KT 7SM CLR 24/17 A3043 -310 61 800 070/04 RMK AO2 SLP295 T02440167 $
94728KNYC NYC20250806135510908/06/25 13:55:31  5-MIN KNYC 061855Z AUTO 05005KT 7SM CLR 24/17 A3043 -310 66 700 070/05 RMK AO2 T02390172 $
94728KNYC NYC20250806140010908/06/25 14:00:31  5-MIN KNYC 061900Z AUTO VRB03KT 7SM CLR 24/17 A3043 -310 66 700 VRB/03 RMK AO2 T02390172 $
94728KNYC NYC20250806140510908/06/25 14:05:31  5-MIN KNYC 061905Z AUTO 10004KT 7SM CLR 24/17 A3043 -300 63 700 120/04 RMK AO2 T02390167 $
94728KNYC NYC20250806141010908/06/25 14:10:31  5-MIN KNYC 061910Z AUTO 11005KT 7SM CLR 24/17 A3043 -300 63 700 120/05 RMK AO2 T02390167 $
94728KNYC NYC20250806141509908/06/25 14:15:31  5-MIN KNYC 061915Z AUTO 7SM CLR 24/17 A3043 -310 66 700 M /M RMK AO2 T02390172 $
94728KNYC NYC20250806142011208/06/25 14:20:31  5-MIN KNYC 061920Z AUTO 12006KT 7SM FEW033 24/17 A3043 -310 63 700 130/06 RMK AO2 T02390167 $
94728KNYC NYC20250806142511208/06/25 14:25:31  5-MIN KNYC 061925Z AUTO 12005KT 7SM FEW033 24/16 A3043 -310 61 700 130/05 RMK AO2 T02390161 $
94728KNYC NYC20250806143011208/06/25 14:30:31  5-MIN KNYC 061930Z AUTO 11006KT 7SM FEW033 24/16 A3043 -300 61 700 130/06 RMK AO2 T02390161 $
94728KNYC NYC20250806143511208/06/25 14:35:31  5-MIN KNYC 061935Z AUTO VRB04KT 7SM FEW033 24/16 A3043 -300 59 800 VRB/04 RMK AO2 T02440161 $
94728KNYC NYC20250806144011208/06/25 14:40:31  5-MIN KNYC 061940Z AUTO 11005KT 7SM FEW035 24/16 A3043 -300 61 700 130/05 RMK AO2 T02390161 $
94728KNYC NYC20250806144511908/06/25 14:45:31  5-MIN KNYC 061945Z AUTO VRB04KT 7SM FEW035 24/17 A3043 -300 63 700 VRB/04 RMK AO2 SLP293 T02390167 $
94728KNYC NYC20250806145011908/06/25 14:50:31  5-MIN KNYC 061950Z AUTO 08006KT 7SM FEW036 24/16 A3042 -300 61 700 090/06 RMK AO2 SLP292 T02390161 $
94728KNYC NYC20250806145511208/06/25 14:55:31  5-MIN KNYC 061955Z AUTO VRB04KT 7SM FEW036 24/16 A3042 -300 61 700 VRB/04 RMK AO2 T02390161 $
94728KNYC NYC20250806150011208/06/25 15:00:31  5-MIN KNYC 062000Z AUTO 07005KT 7SM FEW036 24/17 A3042 -300 63 700 090/05 RMK AO2 T02390167 $
94728KNYC NYC20250806150511208/06/25 15:05:31  5-MIN KNYC 062005Z AUTO VRB04KT 7SM FEW036 24/17 A3042 -300 63 700 VRB/04 RMK AO2 T02390167 $
94728KNYC NYC20250806151010908/06/25 15:10:31  5-MIN KNYC 062010Z AUTO VRB04KT 8SM CLR 24/16 A3042 -300 61 700 VRB/04 RMK AO2 T02390161 $
94728KNYC NYC20250806151511208/06/25 15:15:31  5-MIN KNYC 062015Z AUTO 00000KT 9SM FEW034 24/16 A3042 -300 59 700 000/00 RMK AO2 T02390156 $
94728KNYC NYC20250806152011208/06/25 15:20:31  5-MIN KNYC 062020Z AUTO VRB04KT 9SM FEW034 24/16 A3042 -300 59 700 VRB/04 RMK AO2 T02390156 $
94728KNYC NYC20250806152511008/06/25 15:25:31  5-MIN KNYC 062025Z AUTO 00000KT 10SM CLR 24/13 A3042 -300 51 700 000/00 RMK AO2 T02390133 $
94728KNYC NYC20250806153011008/06/25 15:30:31  5-MIN KNYC 062030Z AUTO 00000KT 10SM CLR 23/14 A3042 -300 57 600 000/00 RMK AO2 T02330144 $
94728KNYC NYC20250806153511008/06/25 15:35:31  5-MIN KNYC 062035Z AUTO 10003KT 10SM CLR 23/14 A3042 -300 55 600 110/03 RMK AO2 T02330139 $
94728KNYC NYC20250806154011008/06/25 15:40:31  5-MIN KNYC 062040Z AUTO 13006KT 10SM CLR 24/12 A3042 -290 46 700 140/06 RMK AO2 T02390117 $
94728KNYC NYC20250806154512308/06/25 15:45:31  5-MIN KNYC 062045Z AUTO VRB05KT 10SM CLR 24/11 A3042 -290 44 700 VRB/05 RMK AO2 SLP289 T02390111 58005 $
94728KNYC NYC20250806155012308/06/25 15:50:31  5-MIN KNYC 062050Z AUTO VRB04KT 10SM CLR 23/12 A3042 -290 47 600 VRB/04 RMK AO2 SLP291 T02330117 58005 $
94728KNYC NYC20250806155511008/06/25 15:55:31  5-MIN KNYC 062055Z AUTO 12007KT 10SM CLR 24/12 A3042 -290 47 700 140/07 RMK AO2 T02390122 $
94728KNYC NYC20250806160011008/06/25 16:00:31  5-MIN KNYC 062100Z AUTO 12005KT 10SM CLR 24/12 A3042 -300 46 700 130/05 RMK AO2 T02390117 $
94728KNYC NYC20250806160511008/06/25 16:05:31  5-MIN KNYC 062105Z AUTO 00000KT 10SM CLR 24/12 A3042 -300 47 700 000/00 RMK AO2 T02390122 $
94728KNYC NYC20250806161011008/06/25 16:10:31  5-MIN KNYC 062110Z AUTO 00000KT 10SM CLR 23/13 A3042 -300 53 600 000/00 RMK AO2 T02330133 $
94728KNYC NYC20250806161511008/06/25 16:15:31  5-MIN KNYC 062115Z AUTO VRB03KT 10SM CLR 23/13 A3042 -300 51 600 VRB/03 RMK AO2 T02330128 $
94728KNYC NYC20250806162011008/06/25 16:20:31  5-MIN KNYC 062120Z AUTO VRB03KT 10SM CLR 23/13 A3042 -300 51 600 VRB/03 RMK AO2 T02330128 $
94728KNYC NYC20250806162511008/06/25 16:25:31  5-MIN KNYC 062125Z AUTO 00000KT 10SM CLR 23/13 A3042 -300 51 600 000/00 RMK AO2 T02330128 $
94728KNYC NYC20250806163011008/06/25 16:30:31  5-MIN KNYC 062130Z AUTO 00000KT 10SM CLR 23/13 A3042 -300 51 600 000/00 RMK AO2 T02330128 $
94728KNYC NYC20250806163511008/06/25 16:35:31  5-MIN KNYC 062135Z AUTO 00000KT 10SM CLR 23/12 A3042 -290 49 600 000/00 RMK AO2 T02330122 $
94728KNYC NYC20250806164011008/06/25 16:40:31  5-MIN KNYC 062140Z AUTO VRB03KT 10SM CLR 23/13 A3042 -300 51 600 VRB/03 RMK AO2 T02330128 $
94728KNYC NYC20250806164511708/06/25 16:45:31  5-MIN KNYC 062145Z AUTO 12004KT 10SM CLR 23/13 A3042 -290 53 600 130/04 RMK AO2 SLP291 T02280128 $
94728KNYC NYC20250806165011708/06/25 16:50:31  5-MIN KNYC 062150Z AUTO VRB04KT 10SM CLR 23/12 A3042 -290 49 600 VRB/04 RMK AO2 SLP291 T02330122 $
94728KNYC NYC20250806165511308/06/25 16:55:31  5-MIN KNYC 062155Z AUTO VRB04KT 10SM FEW100 24/12 A3042 -290 46 700 VRB/04 RMK AO2 T02390117 $
94728KNYC NYC20250806170011308/06/25 17:00:31  5-MIN KNYC 062200Z AUTO VRB05KT 10SM SCT100 24/12 A3042 -290 46 700 VRB/05 RMK AO2 T02390117 $
94728KNYC NYC20250806170512008/06/25 17:05:31  5-MIN KNYC 062205Z AUTO VRB05KT 10SM SCT100 BKN120 24/12 A3041 -290 46 700 VRB/05 RMK AO2 T02390117 $
94728KNYC NYC20250806171012008/06/25 17:10:31  5-MIN KNYC 062210Z AUTO 12005KT 10SM SCT100 BKN120 23/13 A3041 -290 51 600 130/05 RMK AO2 T02330128 $
94728KNYC NYC20250806171512008/06/25 17:15:31  5-MIN KNYC 062215Z AUTO VRB03KT 10SM FEW070 BKN110 24/12 A3041 -290 47 700 VRB/03 RMK AO2 T02390122 $
94728KNYC NYC20250806172012708/06/25 17:20:31  5-MIN KNYC 062220Z AUTO 10003KT 10SM FEW070 SCT095 OVC120 23/13 A3041 -290 51 600 110/03 RMK AO2 T02330128 $
94728KNYC NYC20250806172512008/06/25 17:25:31  5-MIN KNYC 062225Z AUTO 00000KT 10SM FEW095 OVC120 23/13 A3042 -290 55 600 000/00 RMK AO2 T02280133 $
94728KNYC NYC20250806173012908/06/25 17:30:31  5-MIN KNYC 062230Z AUTO 00000KT 10SM -RA BKN120 23/13 A3042 -290 55 600 000/00 RMK AO2 RAB28 P0000 T02280133 $
94728KNYC NYC20250806173512908/06/25 17:35:31  5-MIN KNYC 062235Z AUTO 00000KT 10SM -RA BKN120 22/13 A3042 -290 56 500 000/00 RMK AO2 RAB28 P0000 T02220133 $
94728KNYC NYC20250806174012908/06/25 17:40:31  5-MIN KNYC 062240Z AUTO 00000KT 10SM -RA BKN120 22/13 A3042 -290 58 500 000/00 RMK AO2 RAB28 P0000 T02170133 $
94728KNYC NYC20250806174513608/06/25 17:45:31  5-MIN KNYC 062245Z AUTO 00000KT 10SM -RA BKN120 22/14 A3042 -290 61 500 000/00 RMK AO2 RAB28 SLP291 P0000 T02170139 $
94728KNYC NYC20250806175013608/06/25 17:50:31  5-MIN KNYC 062250Z AUTO 08004KT 10SM -RA BKN120 22/14 A3042 -290 61 500 090/04 RMK AO2 RAB28 SLP291 P0000 T02170139 $
94728KNYC NYC20250806175512308/06/25 17:55:31  5-MIN KNYC 062255Z AUTO VRB03KT 10SM -RA BKN110 21/14 A3042 -290 63 400 VRB/03 RMK AO2 P0000 T02110139 $
94728KNYC NYC20250806180012308/06/25 18:00:31  5-MIN KNYC 062300Z AUTO 00000KT 10SM -RA BKN110 21/14 A3042 -290 63 400 000/00 RMK AO2 P0000 T02110139 $
94728KNYC NYC20250806180512308/06/25 18:05:31  5-MIN KNYC 062305Z AUTO 10004KT 10SM -RA OVC120 21/14 A3042 -290 65 400 110/04 RMK AO2 P0000 T02110144 $
94728KNYC NYC20250806181012308/06/25 18:10:31  5-MIN KNYC 062310Z AUTO VRB03KT 10SM -RA BKN120 21/14 A3042 -290 65 400 VRB/03 RMK AO2 P0000 T02110144 $
94728KNYC NYC20250806181512508/06/25 18:15:31  5-MIN KNYC 062315Z AUTO 14004KT 10SM BKN120 22/14 A3041 -290 61 500 150/04 RMK AO2 RAE11 P0000 T02170139 $
94728KNYC NYC20250806182012508/06/25 18:20:31  5-MIN KNYC 062320Z AUTO VRB03KT 10SM OVC110 22/14 A3041 -290 63 500 VRB/03 RMK AO2 RAE11 P0000 T02170144 $
94728KNYC NYC20250806182512508/06/25 18:25:31  5-MIN KNYC 062325Z AUTO 00000KT 10SM OVC110 22/13 A3041 -290 56 500 000/00 RMK AO2 RAE11 P0000 T02220133 $
94728KNYC NYC20250806183012508/06/25 18:30:31  5-MIN KNYC 062330Z AUTO 13005KT 10SM OVC110 22/14 A3041 -290 59 500 140/05 RMK AO2 RAE11 P0000 T02220139 $
94728KNYC NYC20250806183513208/06/25 18:35:31  5-MIN KNYC 062335Z AUTO 12005KT 10SM BKN100 OVC120 23/13 A3041 -290 55 600 130/05 RMK AO2 RAE11 P0000 T02280133 $
94728KNYC NYC20250806184013208/06/25 18:40:31  5-MIN KNYC 062340Z AUTO 00000KT 10SM BKN100 BKN120 23/13 A3041 -290 53 600 000/00 RMK AO2 RAE11 P0000 T02280128 $
94728KNYC NYC20250806184515608/06/25 18:45:31  5-MIN KNYC 062345Z AUTO 00000KT 10SM BKN100 23/13 A3042 -290 53 600 000/00 RMK AO2 RAE11 SLP291 P0000 60000 T02280128 10256 20211 58004 $
94728KNYC NYC20250806185016308/06/25 18:50:31  5-MIN KNYC 062350Z AUTO 00000KT 10SM -RA BKN110 22/13 A3042 -290 56 500 000/00 RMK AO2 RAE11B46 SLP291 P0000 60000 T02220133 10256 20211 58004 $
94728KNYC NYC20250806185512308/06/25 18:55:31  5-MIN KNYC 062355Z AUTO 14004KT 10SM -RA BKN110 22/13 A3042 -290 58 500 150/04 RMK AO2 P0000 T02170133 $
94728KNYC NYC20250806190012008/06/25 19:00:31  5-MIN KNYC 070000Z AUTO 10SM -RA FEW090 BKN110 21/14 A3042 -300 63 400 M /M RMK AO2 P0000 T02110139 $
94728KNYC NYC20250806190512308/06/25 19:05:31  5-MIN KNYC 070005Z AUTO 00000KT 10SM -RA BKN110 21/13 A3042 -300 61 400 000/00 RMK AO2 P0000 T02110133 $
94728KNYC NYC20250806191012308/06/25 19:10:31  5-MIN KNYC 070010Z AUTO VRB03KT 10SM -RA OVC110 21/13 A3042 -300 61 400 VRB/03 RMK AO2 P0000 T02110133 $
94728KNYC NYC20250806191513008/06/25 19:15:31  5-MIN KNYC 070015Z AUTO 00000KT 10SM -RA FEW090 OVC110 21/14 A3043 -300 65 300 000/00 RMK AO2 P0000 T02060139 $
94728KNYC NYC20250806192012308/06/25 19:20:31  5-MIN KNYC 070020Z AUTO 00000KT 10SM -RA OVC110 21/14 A3043 -300 67 300 000/00 RMK AO2 P0000 T02060144 $
94728KNYC NYC20250806192512308/06/25 19:25:31  5-MIN KNYC 070025Z AUTO 00000KT 10SM -RA OVC110 21/14 A3043 -300 67 300 000/00 RMK AO2 P0000 T02060144 $
94728KNYC NYC20250806193013208/06/25 19:30:31  5-MIN KNYC 070030Z AUTO 00000KT 10SM SCT090 OVC120 21/13 A3043 -300 61 400 000/00 RMK AO2 RAE29 P0000 T02110133 $
94728KNYC NYC20250806193513908/06/25 19:35:31  5-MIN KNYC 070035Z AUTO 00000KT 10SM FEW075 BKN090 OVC120 21/13 A3043 -300 61 400 000/00 RMK AO2 RAE29 P0000 T02110133 $
94728KNYC NYC20250806194013908/06/25 19:40:31  5-MIN KNYC 070040Z AUTO 00000KT 10SM FEW075 SCT090 OVC120 21/13 A3043 -300 58 400 000/00 RMK AO2 RAE29 P0000 T02110128 $
94728KNYC NYC20250806194514608/06/25 19:45:31  5-MIN KNYC 070045Z AUTO 00000KT 10SM -RA SCT100 OVC120 21/13 A3043 -300 58 400 000/00 RMK AO2 RAE29B45 SLP295 P0000 T02110128 $
94728KNYC NYC20250806195014608/06/25 19:50:31  5-MIN KNYC 070050Z AUTO 00000KT 10SM -RA BKN100 OVC120 21/13 A3043 -310 61 400 000/00 RMK AO2 RAE29B45 SLP296 P0000 T02110133 $
94728KNYC NYC20250806195512308/06/25 19:55:31  5-MIN KNYC 070055Z AUTO 00000KT 10SM -RA OVC110 21/13 A3043 -310 61 400 000/00 RMK AO2 P0000 T02110133 $
94728KNYC NYC20250806200012308/06/25 20:00:31  5-MIN KNYC 070100Z AUTO 00000KT 10SM -RA OVC110 21/13 A3043 -310 61 400 000/00 RMK AO2 P0000 T02110133 $
94728KNYC NYC20250806200512508/06/25 20:05:31  5-MIN KNYC 070105Z AUTO VRB03KT 10SM OVC110 21/13 A3044 -310 63 300 VRB/03 RMK AO2 RAE05 P0000 T02060133 $
94728KNYC NYC20250806201012308/06/25 20:10:31  5-MIN KNYC 070110Z AUTO 00000KT 10SM -RA OVC100 21/14 A3044 -310 65 300 000/00 RMK AO2 P0000 T02060139 $
94728KNYC NYC20250806201512308/06/25 20:15:31  5-MIN KNYC 070115Z AUTO 00000KT 10SM -RA OVC110 21/14 A3044 -310 63 400 000/00 RMK AO2 P0000 T02110139 $
94728KNYC NYC20250806202012308/06/25 20:20:31  5-MIN KNYC 070120Z AUTO 00000KT 10SM -RA OVC110 21/14 A3044 -310 63 400 000/00 RMK AO2 P0000 T02110139 $
94728KNYC NYC20250806202512308/06/25 20:25:31  5-MIN KNYC 070125Z AUTO 00000KT 10SM -RA OVC100 21/14 A3044 -310 67 300 000/00 RMK AO2 P0000 T02060144 $
94728KNYC NYC20250806203012308/06/25 20:30:31  5-MIN KNYC 070130Z AUTO 00000KT 10SM -RA OVC100 21/14 A3044 -310 67 300 000/00 RMK AO2 P0000 T02060144 $
94728KNYC NYC20250806203512308/06/25 20:35:31  5-MIN KNYC 070135Z AUTO 00000KT 10SM -RA OVC100 20/14 A3044 -320 70 200 000/00 RMK AO2 P0001 T02000144 $
94728KNYC NYC20250806204011308/06/25 20:40:31  5-MIN KNYC 070140Z AUTO 10SM -RA OVC100 19/14 A3044 -320 70 200 M /M RMK AO2 P0001 T01940139 $
94728KNYC NYC20250806204513008/06/25 20:45:31  5-MIN KNYC 070145Z AUTO 00000KT 10SM -RA OVC100 19/14 A3044 -320 70 200 000/00 RMK AO2 SLP299 P0001 T01940139 $
94728KNYC NYC20250806205013008/06/25 20:50:31  5-MIN KNYC 070150Z AUTO 00000KT 10SM -RA OVC100 19/14 A3044 -320 72 100 000/00 RMK AO2 SLP299 P0001 T01890139 $
94728KNYC NYC20250806205512308/06/25 20:55:31  5-MIN KNYC 070155Z AUTO 14003KT 10SM -RA OVC100 19/13 A3044 -320 67 100 150/03 RMK AO2 P0000 T01890128 $
94728KNYC NYC20250806210012308/06/25 21:00:31  5-MIN KNYC 070200Z AUTO VRB03KT 10SM -RA OVC100 19/13 A3044 -320 67 100 VRB/03 RMK AO2 P0000 T01890128 $
94728KNYC NYC20250806210512308/06/25 21:05:31  5-MIN KNYC 070205Z AUTO 12004KT 10SM -RA OVC110 19/13 A3044 -320 67 100 140/04 RMK AO2 P0000 T01890128 $
94728KNYC NYC20250806211012308/06/25 21:10:31  5-MIN KNYC 070210Z AUTO VRB03KT 10SM -RA OVC110 19/13 A3044 -320 67 100 VRB/03 RMK AO2 P0000 T01890128 $
94728KNYC NYC20250806211512308/06/25 21:15:31  5-MIN KNYC 070215Z AUTO 13004KT 10SM -RA OVC110 19/13 A3044 -310 70 100 140/04 RMK AO2 P0000 T01890133 $
94728KNYC NYC20250806212012308/06/25 21:20:31  5-MIN KNYC 070220Z AUTO 12004KT 10SM -RA OVC110 19/13 A3044 -310 70 100 130/04 RMK AO2 P0000 T01890133 $
94728KNYC NYC20250806212512308/06/25 21:25:31  5-MIN KNYC 070225Z AUTO 14003KT 10SM -RA OVC110 19/13 A3044 -310 70 100 150/03 RMK AO2 P0000 T01890133 $
94728KNYC NYC20250806213012308/06/25 21:30:31  5-MIN KNYC 070230Z AUTO 13004KT 10SM -RA OVC110 19/13 A3044 -310 70 100 140/04 RMK AO2 P0000 T01890133 $
94728KNYC NYC20250806213512308/06/25 21:35:31  5-MIN KNYC 070235Z AUTO VRB03KT 10SM -RA OVC100 19/13 A3044 -310 70 100 VRB/03 RMK AO2 P0000 T01890133 $
94728KNYC NYC20250806214012308/06/25 21:40:31  5-MIN KNYC 070240Z AUTO VRB04KT 10SM -RA OVC100 19/13 A3044 -310 70 100 VRB/04 RMK AO2 P0000 T01890133 $
94728KNYC NYC20250806214514208/06/25 21:45:31  5-MIN KNYC 070245Z AUTO 12003KT 10SM -RA OVC100 19/14 A3043 -310 70 200 130/03 RMK AO2 SLP296 P0000 60001 T01940139 53000 $
94728KNYC NYC20250806215014208/06/25 21:50:31  5-MIN KNYC 070250Z AUTO 12004KT 10SM -RA OVC100 19/14 A3043 -310 70 200 130/04 RMK AO2 SLP296 P0000 60001 T01940139 53000 $
94728KNYC NYC20250806215512308/06/25 21:55:31  5-MIN KNYC 070255Z AUTO 12003KT 10SM -RA OVC100 19/14 A3043 -310 70 200 130/03 RMK AO2 P0000 T01940139 $
94728KNYC NYC20250806220012308/06/25 22:00:31  5-MIN KNYC 070300Z AUTO 11005KT 10SM -RA OVC100 19/14 A3043 -310 72 200 120/05 RMK AO2 P0000 T01940144 $
94728KNYC NYC20250806220512308/06/25 22:05:31  5-MIN KNYC 070305Z AUTO VRB04KT 10SM -RA OVC100 19/14 A3043 -310 75 100 VRB/04 RMK AO2 P0000 T01890144 $
94728KNYC NYC20250806221012308/06/25 22:10:31  5-MIN KNYC 070310Z AUTO 09003KT 10SM -RA OVC100 19/14 A3043 -310 75 100 100/03 RMK AO2 P0000 T01890144 $
94728KNYC NYC20250806221512308/06/25 22:15:31  5-MIN KNYC 070315Z AUTO 07003KT 10SM -RA OVC110 19/14 A3043 -310 72 100 090/03 RMK AO2 P0000 T01890139 $
94728KNYC NYC20250806222012308/06/25 22:20:31  5-MIN KNYC 070320Z AUTO 00000KT 10SM -RA OVC110 19/14 A3043 -310 75 100 000/00 RMK AO2 P0000 T01890144 $
94728KNYC NYC20250806222512308/06/25 22:25:31  5-MIN KNYC 070325Z AUTO 09004KT 10SM -RA OVC110 19/14 A3043 -310 75 100 100/04 RMK AO2 P0001 T01890144 $
94728KNYC NYC20250806223012308/06/25 22:30:31  5-MIN KNYC 070330Z AUTO 00000KT 10SM -RA OVC110 19/15 A3043 -310 78 100 000/00 RMK AO2 P0001 T01890150 $
94728KNYC NYC20250806223512308/06/25 22:35:31  5-MIN KNYC 070335Z AUTO VRB05KT 10SM -RA OVC110 19/15 A3043 -310 78 100 VRB/05 RMK AO2 P0001 T01890150 $
94728KNYC NYC20250806224012308/06/25 22:40:31  5-MIN KNYC 070340Z AUTO VRB04KT 10SM -RA OVC110 19/15 A3043 -310 78 100 VRB/04 RMK AO2 P0001 T01890150 $
94728KNYC NYC20250806224513008/06/25 22:45:31  5-MIN KNYC 070345Z AUTO 09003KT 10SM -RA OVC110 19/15 A3043 -300 78 100 110/03 RMK AO2 SLP295 P0001 T01890150 $
94728KNYC NYC20250806225013008/06/25 22:50:31  5-MIN KNYC 070350Z AUTO 00000KT 10SM -RA OVC110 19/15 A3043 -300 78 100 000/00 RMK AO2 SLP295 P0001 T01890150 $
94728KNYC NYC20250806225512208/06/25 22:55:31  5-MIN KNYC 070355Z AUTO 00000KT 9SM -RA OVC110 18/15 A3043 -300 81 100 000/00 RMK AO2 P0000 T01830150 $
94728KNYC NYC20250806230012008/06/25 23:00:31  5-MIN KNYC 070400Z AUTO 00000KT 8SM -RA OVC110 18/15 A3043 -310 81 0 000/00 RMK AO2 P0001 T01830150 $
94728KNYC NYC20250806230512008/06/25 23:05:31  5-MIN KNYC 070405Z AUTO 00000KT 8SM -RA OVC110 18/16 A3043 -310 84 0 000/00 RMK AO2 P0001 T01830156 $
94728KNYC NYC20250806231012008/06/25 23:10:31  5-MIN KNYC 070410Z AUTO 02003KT 8SM -RA OVC110 18/16 A3044 -310 84 0 040/03 RMK AO2 P0001 T01830156 $
94728KNYC NYC20250806231512008/06/25 23:15:31  5-MIN KNYC 070415Z AUTO 00000KT 8SM -RA OVC100 18/16 A3044 -310 84 0 000/00 RMK AO2 P0001 T01830156 $
94728KNYC NYC20250806232012008/06/25 23:20:31  5-MIN KNYC 070420Z AUTO 00000KT 7SM -RA OVC100 18/16 A3044 -310 84 0 000/00 RMK AO2 P0002 T01830156 $
94728KNYC NYC20250806232512008/06/25 23:25:31  5-MIN KNYC 070425Z AUTO 00000KT 7SM -RA OVC100 18/16 A3043 -310 84 0 000/00 RMK AO2 P0002 T01830156 $
94728KNYC NYC20250806233012008/06/25 23:30:31  5-MIN KNYC 070430Z AUTO 00000KT 7SM -RA OVC100 18/16 A3043 -310 87 0 000/00 RMK AO2 P0003 T01830161 $
94728KNYC NYC20250806233512008/06/25 23:35:31  5-MIN KNYC 070435Z AUTO 00000KT 7SM -RA OVC100 18/16 A3043 -310 87 0 000/00 RMK AO2 P0003 T01830161 $
94728KNYC NYC20250806234012008/06/25 23:40:31  5-MIN KNYC 070440Z AUTO 00000KT 8SM -RA OVC100 18/16 A3043 -310 90 0 000/00 RMK AO2 P0003 T01780161 $
94728KNYC NYC20250806234514008/06/25 23:45:31  5-MIN KNYC 070445Z AUTO 00000KT 10SM -RA OVC110 18/16 A3043 -300 87 100 000/00 RMK AO2 SLP295 P0004 T01830161 402610178 $
94728KNYC NYC20250806235014008/06/25 23:50:31  5-MIN KNYC 070450Z AUTO 00000KT 10SM -RA OVC110 18/16 A3043 -300 87 100 000/00 RMK AO2 SLP294 P0004 T01830161 402610178 $
94728KNYC NYC20250806235512208/06/25 23:55:31  5-MIN KNYC 070455Z AUTO 05003KT 9SM -RA OVC110 18/16 A3043 -300 87 100 060/03 RMK AO2 P0000 T01830161 $
94728KNYC NYC20250807000012208/07/25 00:00:31  5-MIN KNYC 070500Z AUTO 07003KT 9SM -RA OVC110 18/17 A3043 -300 90 100 090/03 RMK AO2 P0000 T01830167 $
94728KNYC NYC20250807000512208/07/25 00:05:31  5-MIN KNYC 070505Z AUTO 09003KT 9SM -RA BKN110 18/17 A3042 -300 90 100 100/03 RMK AO2 P0000 T01830167 $
94728KNYC NYC20250807001012308/07/25 00:10:31  5-MIN KNYC 070510Z AUTO 00000KT 10SM OVC110 18/16 A3042 -300 90 0 000/00 RMK AO2 RAE10 P0000 T01780161 $
94728KNYC NYC20250807001512508/07/25 00:15:31  5-MIN KNYC 070515Z AUTO 00000KT 10SM OVC110 18/16 A3042 -300 87 100 000/00 RMK AO2 RAE10 P0000 T01830161 $
94728KNYC NYC20250807002012508/07/25 00:20:31  5-MIN KNYC 070520Z AUTO 08003KT 10SM OVC110 18/16 A3042 -300 87 100 090/03 RMK AO2 RAE10 P0000 T01830161 $
94728KNYC NYC20250807002512508/07/25 00:25:31  5-MIN KNYC 070525Z AUTO 00000KT 10SM OVC110 18/16 A3042 -290 87 100 000/00 RMK AO2 RAE10 P0000 T01830161 $
94728KNYC NYC20250807003012308/07/25 00:30:31  5-MIN KNYC 070530Z AUTO 00000KT 10SM OVC110 18/16 A3042 -290 90 0 000/00 RMK AO2 RAE10 P0000 T01780161 $
94728KNYC NYC20250807003512508/07/25 00:35:31  5-MIN KNYC 070535Z AUTO 00000KT 10SM OVC110 18/16 A3041 -290 87 100 000/00 RMK AO2 RAE10 P0000 T01830161 $
94728KNYC NYC20250807004012508/07/25 00:40:31  5-MIN KNYC 070540Z AUTO 00000KT 10SM OVC110 18/16 A3041 -290 87 100 000/00 RMK AO2 RAE10 P0000 T01830161 $
94728KNYC NYC20250807004515608/07/25 00:45:31  5-MIN KNYC 070545Z AUTO 00000KT 10SM OVC110 18/16 A3041 -290 87 100 000/00 RMK AO2 RAE10 SLP290 P0000 60006 T01830161 10222 20178 50005 $
94728KNYC NYC20250807005015608/07/25 00:50:31  5-MIN KNYC 070550Z AUTO 13004KT 10SM OVC110 18/16 A3041 -290 87 100 140/04 RMK AO2 RAE10 SLP290 P0000 60006 T01830161 10222 20178 50005 $
94728KNYC NYC20250807005511108/07/25 00:55:31  5-MIN KNYC 070555Z AUTO 12005KT 10SM OVC100 18/16 A3041 -290 90 0 130/05 RMK AO2 T01780161 $
94728KNYC NYC20250807010011108/07/25 01:00:31  5-MIN KNYC 070600Z AUTO 12005KT 10SM OVC100 18/16 A3041 -290 90 0 130/05 RMK AO2 T01780161 $
94728KNYC NYC20250807010511108/07/25 01:05:31  5-MIN KNYC 070605Z AUTO 11004KT 10SM OVC100 18/16 A3040 -280 90 0 120/04 RMK AO2 T01780161 $
94728KNYC NYC20250807011011308/07/25 01:10:31  5-MIN KNYC 070610Z AUTO 11003KT 10SM OVC110 18/16 A3040 -280 87 100 120/03 RMK AO2 T01830161 $
94728KNYC NYC20250807011511308/07/25 01:15:31  5-MIN KNYC 070615Z AUTO 10004KT 10SM OVC110 18/16 A3040 -280 87 100 110/04 RMK AO2 T01830161 $
94728KNYC NYC20250807012011308/07/25 01:20:31  5-MIN KNYC 070620Z AUTO 00000KT 10SM OVC110 18/16 A3040 -280 87 100 000/00 RMK AO2 T01830161 $
94728KNYC NYC20250807012511308/07/25 01:25:31  5-MIN KNYC 070625Z AUTO 09004KT 10SM OVC110 18/16 A3040 -270 87 100 110/04 RMK AO2 T01830161 $
94728KNYC NYC20250807013011308/07/25 01:30:31  5-MIN KNYC 070630Z AUTO 06003KT 10SM OVC110 18/16 A3039 -270 87 100 070/03 RMK AO2 T01830161 $
94728KNYC NYC20250807013511308/07/25 01:35:31  5-MIN KNYC 070635Z AUTO 06004KT 10SM OVC110 18/16 A3039 -270 87 100 070/04 RMK AO2 T01830161 $
94728KNYC NYC20250807014011308/07/25 01:40:31  5-MIN KNYC 070640Z AUTO 07003KT 10SM OVC110 18/16 A3039 -270 87 100 090/03 RMK AO2 T01830161 $
94728KNYC NYC20250807014512008/07/25 01:45:31  5-MIN KNYC 070645Z AUTO 06003KT 10SM OVC110 18/16 A3039 -270 87 100 070/03 RMK AO2 SLP281 T01830161 $
94728KNYC NYC20250807015012008/07/25 01:50:31  5-MIN KNYC 070650Z AUTO 06004KT 10SM OVC110 18/16 A3039 -270 87 100 070/04 RMK AO2 SLP281 T01830161 $
94728KNYC NYC20250807015511308/07/25 01:55:31  5-MIN KNYC 070655Z AUTO 06005KT 10SM OVC110 18/16 A3039 -260 87 100 070/05 RMK AO2 T01830161 $
94728KNYC NYC20250807020011308/07/25 02:00:31  5-MIN KNYC 070700Z AUTO VRB04KT 10SM OVC110 18/16 A3038 -260 87 100 VRB/04 RMK AO2 T01830161 $
94728KNYC NYC20250807020511308/07/25 02:05:31  5-MIN KNYC 070705Z AUTO 06004KT 10SM OVC110 18/16 A3038 -260 87 100 070/04 RMK AO2 T01830161 $
94728KNYC NYC20250807021011308/07/25 02:10:31  5-MIN KNYC 070710Z AUTO 05004KT 10SM OVC110 18/16 A3038 -260 87 100 060/04 RMK AO2 T01830161 $
94728KNYC NYC20250807021511308/07/25 02:15:31  5-MIN KNYC 070715Z AUTO 05007KT 10SM OVC110 18/16 A3038 -260 87 100 070/07 RMK AO2 T01830161 $
94728KNYC NYC20250807022011308/07/25 02:20:31  5-MIN KNYC 070720Z AUTO VRB06KT 10SM OVC110 18/16 A3038 -260 87 100 VRB/06 RMK AO2 T01830161 $
94728KNYC NYC20250807022511308/07/25 02:25:31  5-MIN KNYC 070725Z AUTO 06007KT 10SM OVC110 18/16 A3038 -260 87 100 070/07 RMK AO2 T01830161 $
94728KNYC NYC20250807023011308/07/25 02:30:31  5-MIN KNYC 070730Z AUTO 08005KT 10SM OVC110 19/16 A3038 -250 84 200 090/05 RMK AO2 T01890161 $
94728KNYC NYC20250807023511308/07/25 02:35:31  5-MIN KNYC 070735Z AUTO VRB03KT 10SM OVC110 18/17 A3037 -250 90 100 VRB/03 RMK AO2 T01830167 $
94728KNYC NYC20250807024011308/07/25 02:40:31  5-MIN KNYC 070740Z AUTO 06006KT 10SM OVC120 18/16 A3037 -250 87 100 070/06 RMK AO2 T01830161 $
94728KNYC NYC20250807024512008/07/25 02:45:31  5-MIN KNYC 070745Z AUTO VRB04KT 10SM OVC120 18/16 A3037 -250 87 100 VRB/04 RMK AO2 SLP274 T01830161 $
94728KNYC NYC20250807025012008/07/25 02:50:31  5-MIN KNYC 070750Z AUTO 00000KT 10SM OVC120 18/16 A3037 -250 87 100 000/00 RMK AO2 SLP273 T01830161 $
94728KNYC NYC20250807025511308/07/25 02:55:31  5-MIN KNYC 070755Z AUTO VRB05KT 10SM OVC120 18/16 A3036 -250 87 100 VRB/05 RMK AO2 T01830161 $
94728KNYC NYC20250807030011308/07/25 03:00:31  5-MIN KNYC 070800Z AUTO 12005KT 10SM OVC120 18/16 A3036 -240 87 100 130/05 RMK AO2 T01830161 $
94728KNYC NYC20250807030511308/07/25 03:05:31  5-MIN KNYC 070805Z AUTO VRB03KT 10SM OVC120 19/16 A3036 -240 84 200 VRB/03 RMK AO2 T01890161 $
94728KNYC NYC20250807031011308/07/25 03:10:31  5-MIN KNYC 070810Z AUTO VRB04KT 10SM OVC120 18/16 A3036 -240 87 100 VRB/04 RMK AO2 T01830161 $
94728KNYC NYC20250807031511308/07/25 03:15:31  5-MIN KNYC 070815Z AUTO VRB03KT 10SM OVC120 18/16 A3036 -240 87 100 VRB/03 RMK AO2 T01830161 $
94728KNYC NYC20250807032011308/07/25 03:20:31  5-MIN KNYC 070820Z AUTO VRB05KT 10SM OVC120 18/16 A3036 -240 87 100 VRB/05 RMK AO2 T01830161 $
94728KNYC NYC20250807032511308/07/25 03:25:31  5-MIN KNYC 070825Z AUTO 06006KT 10SM OVC120 19/16 A3036 -250 84 200 070/06 RMK AO2 T01890161 $
94728KNYC NYC20250807033011308/07/25 03:30:31  5-MIN KNYC 070830Z AUTO 05006KT 10SM OVC120 19/16 A3037 -250 84 200 060/06 RMK AO2 T01890161 $
94728KNYC NYC20250807033511308/07/25 03:35:31  5-MIN KNYC 070835Z AUTO 06006KT 10SM OVC120 19/16 A3036 -250 84 200 070/06 RMK AO2 T01890161 $
94728KNYC NYC20250807034011308/07/25 03:40:31  5-MIN KNYC 070840Z AUTO 04003KT 10SM OVC120 19/16 A3036 -240 84 200 050/03 RMK AO2 T01890161 $
94728KNYC NYC20250807034512608/07/25 03:45:31  5-MIN KNYC 070845Z AUTO 36004KT 10SM BKN120 19/16 A3037 -250 84 200 020/04 RMK AO2 SLP273 T01890161 58007 $
94728KNYC NYC20250807035012608/07/25 03:50:31  5-MIN KNYC 070850Z AUTO 02004KT 10SM BKN120 19/16 A3037 -250 84 200 030/04 RMK AO2 SLP275 T01890161 58007 $
94728KNYC NYC20250807035511308/07/25 03:55:31  5-MIN KNYC 070855Z AUTO VRB03KT 10SM SCT120 19/16 A3037 -250 81 200 VRB/03 RMK AO2 T01940161 $
94728KNYC NYC20250807040011308/07/25 04:00:31  5-MIN KNYC 070900Z AUTO 03003KT 10SM FEW120 19/16 A3037 -250 81 200 040/03 RMK AO2 T01940161 $
94728KNYC NYC20250807040511308/07/25 04:05:31  5-MIN KNYC 070905Z AUTO 00000KT 10SM FEW120 19/16 A3037 -250 84 200 000/00 RMK AO2 T01890161 $
94728KNYC NYC20250807041011008/07/25 04:10:31  5-MIN KNYC 070910Z AUTO 00000KT 10SM CLR 19/16 A3037 -250 84 200 000/00 RMK AO2 T01890161 $
94728KNYC NYC20250807041511008/07/25 04:15:31  5-MIN KNYC 070915Z AUTO 00000KT 10SM CLR 19/16 A3037 -250 84 200 000/00 RMK AO2 T01890161 $
94728KNYC NYC20250807042011308/07/25 04:20:31  5-MIN KNYC 070920Z AUTO 00000KT 10SM FEW017 19/16 A3037 -250 84 200 000/00 RMK AO2 T01890161 $
94728KNYC NYC20250807042511308/07/25 04:25:31  5-MIN KNYC 070925Z AUTO 00000KT 10SM FEW017 19/16 A3037 -250 84 200 000/00 RMK AO2 T01890161 $
94728KNYC NYC20250807043011008/07/25 04:30:31  5-MIN KNYC 070930Z AUTO 00000KT 10SM CLR 19/16 A3037 -250 84 200 000/00 RMK AO2 T01890161 $
94728KNYC NYC20250807043511308/07/25 04:35:31  5-MIN KNYC 070935Z AUTO 00000KT 10SM SCT120 19/16 A3037 -250 84 200 000/00 RMK AO2 T01890161 $
94728KNYC NYC20250807044011308/07/25 04:40:31  5-MIN KNYC 070940Z AUTO 00000KT 10SM SCT120 19/16 A3037 -250 84 200 000/00 RMK AO2 T01890161 $
94728KNYC NYC20250807044512008/07/25 04:45:31  5-MIN KNYC 070945Z AUTO 00000KT 10SM FEW120 19/16 A3037 -250 81 200 000/00 RMK AO2 SLP275 T01940161 $
94728KNYC NYC20250807045012008/07/25 04:50:31  5-MIN KNYC 070950Z AUTO 07003KT 10SM FEW120 19/16 A3037 -250 84 200 080/03 RMK AO2 SLP275 T01890161 $
94728KNYC NYC20250807045511308/07/25 04:55:31  5-MIN KNYC 070955Z AUTO VRB03KT 10SM FEW120 19/16 A3037 -250 84 200 VRB/03 RMK AO2 T01890161 $
94728KNYC NYC20250807050011308/07/25 05:00:31  5-MIN KNYC 071000Z AUTO 04004KT 10SM FEW120 18/16 A3037 -250 87 100 060/04 RMK AO2 T01830161 $
94728KNYC NYC20250807050511008/07/25 05:05:31  5-MIN KNYC 071005Z AUTO 02003KT 10SM CLR 18/16 A3037 -250 87 100 030/03 RMK AO2 T01830161 $
94728KNYC NYC20250807051011308/07/25 05:10:31  5-MIN KNYC 071010Z AUTO 00000KT 10SM FEW120 19/16 A3038 -260 84 200 000/00 RMK AO2 T01890161 $
94728KNYC NYC20250807051511308/07/25 05:15:31  5-MIN KNYC 071015Z AUTO 00000KT 10SM SCT120 19/16 A3038 -260 84 200 000/00 RMK AO2 T01890161 $
94728KNYC NYC20250807052012008/07/25 05:20:31  5-MIN KNYC 071020Z AUTO 04003KT 10SM FEW017 BKN120 19/16 A3038 -260 84 200 050/03 RMK AO2 T01890161 $
94728KNYC NYC20250807052512008/07/25 05:25:31  5-MIN KNYC 071025Z AUTO VRB03KT 10SM FEW017 SCT110 19/16 A3038 -260 84 200 VRB/03 RMK AO2 T01890161 $
94728KNYC NYC20250807053012008/07/25 05:30:31  5-MIN KNYC 071030Z AUTO 04003KT 10SM FEW017 SCT120 19/17 A3038 -260 84 200 050/03 RMK AO2 T01940167 $
94728KNYC NYC20250807053512008/07/25 05:35:31  5-MIN KNYC 071035Z AUTO 05003KT 10SM SCT017 BKN120 19/17 A3038 -260 84 200 060/03 RMK AO2 T01940167 $
94728KNYC NYC20250807054012008/07/25 05:40:31  5-MIN KNYC 071040Z AUTO VRB03KT 10SM SCT017 BKN120 19/17 A3038 -260 84 200 VRB/03 RMK AO2 T01940167 $
94728KNYC NYC20250807054512708/07/25 05:45:31  5-MIN KNYC 071045Z AUTO 00000KT 10SM FEW017 SCT110 19/17 A3038 -260 84 200 000/00 RMK AO2 SLP278 T01940167 $
94728KNYC NYC20250807055012008/07/25 05:50:31  5-MIN KNYC 071050Z AUTO VRB06KT 10SM FEW015 19/17 A3038 -260 84 200 VRB/06 RMK AO2 SLP278 T01940167 $
94728KNYC NYC20250807055511208/07/25 05:55:31  5-MIN KNYC 071055Z AUTO 07005KT 9SM FEW015 19/17 A3038 -260 87 200 090/05 RMK AO2 T01940172 $
94728KNYC NYC20250807060011208/07/25 06:00:31  5-MIN KNYC 071100Z AUTO 06005KT 9SM FEW015 19/17 A3038 -260 87 200 080/05 RMK AO2 T01940172 $
94728KNYC NYC20250807060510908/07/25 06:05:31  5-MIN KNYC 071105Z AUTO VRB03KT 9SM CLR 19/17 A3038 -260 84 200 VRB/03 RMK AO2 T01940167 $
94728KNYC NYC20250807061010908/07/25 06:10:31  5-MIN KNYC 071110Z AUTO 00000KT 8SM CLR 19/17 A3038 -260 87 200 000/00 RMK AO2 T01940172 $
94728KNYC NYC20250807061510908/07/25 06:15:31  5-MIN KNYC 071115Z AUTO VRB04KT 7SM CLR 19/17 A3038 -260 87 200 VRB/04 RMK AO2 T01940172 $
94728KNYC NYC20250807062010908/07/25 06:20:31  5-MIN KNYC 071120Z AUTO VRB03KT 7SM CLR 20/17 A3039 -260 84 300 VRB/03 RMK AO2 T02000172 $
94728KNYC NYC20250807062511208/07/25 06:25:31  5-MIN KNYC 071125Z AUTO 07003KT 6SM HZ CLR 20/17 A3039 -270 84 300 090/03 RMK AO2 T02000172 $
94728KNYC NYC20250807063011508/07/25 06:30:31  5-MIN KNYC 071130Z AUTO VRB03KT 6SM BR FEW016 20/18 A3039 -270 87 300 VRB/03 RMK AO2 T02000178 $
94728KNYC NYC20250807063510508/07/25 06:35:31  5-MIN KNYC 071135Z AUTO 6SM HZ SCT016 21/18 A3039 -270 84 400 M /M RMK AO2 T02060178 $
94728KNYC NYC20250807064011508/07/25 06:40:31  5-MIN KNYC 071140Z AUTO VRB04KT 5SM HZ SCT016 21/18 A3039 -270 84 400 VRB/04 RMK AO2 T02060178 $
94728KNYC NYC20250807064511208/07/25 06:45:31  5-MIN KNYC 071145Z AUTO 11006KT 5SM HZ BKN015 BKN021 21/17 A3039 -270 78 400 120/06 RMK AO2 $
94728KNYC NYC20250807065014608/07/25 06:50:31  5-MIN KNYC 071150Z AUTO VRB05KT 5SM HZ BKN015 21/17 A3039 -270 78 400 VRB/05 RMK AO2 SLP283 70006 T02110172 10211 20178 53008 $
94728KNYC NYC20250807065512208/07/25 06:55:31  5-MIN KNYC 071155Z AUTO VRB03KT 5SM HZ SCT015 BKN020 21/17 A3039 -270 78 400 VRB/03 RMK AO2 T02110172 $
94728KNYC NYC20250807070013108/07/25 07:00:31  5-MIN KNYC 071200Z AUTO 11008KT 070V140 5SM HZ SCT015 21/17 A3039 -270 81 300 120/08 080V150 RMK AO2 T02060172 $
94728KNYC NYC20250807070510508/07/25 07:05:31  5-MIN KNYC 071205Z AUTO 5SM HZ SCT015 21/16 A3040 -270 73 400 M /M RMK AO2 T02110161 $
94728KNYC NYC20250807071011508/07/25 07:10:31  5-MIN KNYC 071210Z AUTO VRB06KT 5SM HZ FEW015 21/16 A3040 -270 70 400 VRB/06 RMK AO2 T02110156 $
94728KNYC NYC20250807071511508/07/25 07:15:31  5-MIN KNYC 071215Z AUTO VRB06KT 5SM HZ FEW017 21/16 A3039 -270 70 400 VRB/06 RMK AO2 T02110156 $
94728KNYC NYC20250807072011208/07/25 07:20:31  5-MIN KNYC 071220Z AUTO 11007KT 5SM HZ CLR 21/16 A3040 -270 70 400 130/07 RMK AO2 T02110156 $
94728KNYC NYC20250807072511208/07/25 07:25:31  5-MIN KNYC 071225Z AUTO VRB04KT 5SM HZ CLR 21/16 A3040 -270 70 400 VRB/04 RMK AO2 T02110156 $
94728KNYC NYC20250807073011208/07/25 07:30:31  5-MIN KNYC 071230Z AUTO VRB04KT 5SM HZ CLR 21/16 A3040 -270 70 400 VRB/04 RMK AO2 T02110156 $
94728KNYC NYC20250807073511208/07/25 07:35:31  5-MIN KNYC 071235Z AUTO 10005KT 5SM HZ CLR 21/16 A3040 -280 70 400 110/05 RMK AO2 T02110156 $
94728KNYC NYC20250807074011208/07/25 07:40:31  5-MIN KNYC 071240Z AUTO VRB06KT 5SM HZ CLR 22/16 A3040 -280 68 500 VRB/06 RMK AO2 T02170156 $
94728KNYC NYC20250807074511908/07/25 07:45:31  5-MIN KNYC 071245Z AUTO 09007KT 5SM HZ CLR 22/16 A3040 -280 68 500 100/07 RMK AO2 SLP284 T02170156 $
94728KNYC NYC20250807075011908/07/25 07:50:31  5-MIN KNYC 071250Z AUTO VRB05KT 5SM HZ CLR 22/16 A3040 -280 68 500 VRB/05 RMK AO2 SLP284 T02170156 $
94728KNYC NYC20250807075511208/07/25 07:55:31  5-MIN KNYC 071255Z AUTO 08007KT 5SM HZ CLR 22/16 A3040 -280 68 500 100/07 RMK AO2 T02170156 $
94728KNYC NYC20250807080011208/07/25 08:00:31  5-MIN KNYC 071300Z AUTO VRB05KT 5SM HZ CLR 22/16 A3040 -270 68 500 VRB/05 RMK AO2 T02170156 $
94728KNYC NYC20250807080511208/07/25 08:05:31  5-MIN KNYC 071305Z AUTO 00000KT 5SM HZ CLR 22/16 A3040 -270 65 500 000/00 RMK AO2 T02220156 $
94728KNYC NYC20250807081011208/07/25 08:10:31  5-MIN KNYC 071310Z AUTO VRB03KT 5SM HZ CLR 22/16 A3040 -280 68 500 VRB/03 RMK AO2 T02220161 $
94728KNYC NYC20250807081511208/07/25 08:15:31  5-MIN KNYC 071315Z AUTO VRB03KT 5SM HZ CLR 22/17 A3040 -280 70 500 VRB/03 RMK AO2 T02220167 $
94728KNYC NYC20250807082011208/07/25 08:20:31  5-MIN KNYC 071320Z AUTO 06005KT 5SM HZ CLR 22/16 A3040 -280 68 500 070/05 RMK AO2 T02220161 $
94728KNYC NYC20250807082511208/07/25 08:25:31  5-MIN KNYC 071325Z AUTO 07008KT 5SM HZ CLR 23/16 A3040 -270 63 600 080/08 RMK AO2 T02280156 $
94728KNYC NYC20250807083011208/07/25 08:30:31  5-MIN KNYC 071330Z AUTO 07007KT 5SM HZ CLR 23/15 A3039 -270 61 600 090/07 RMK AO2 T02280150 $
94728KNYC NYC20250807083511208/07/25 08:35:31  5-MIN KNYC 071335Z AUTO 11003KT 5SM HZ CLR 23/15 A3039 -270 61 600 130/03 RMK AO2 T02280150 $
94728KNYC NYC20250807084011208/07/25 08:40:31  5-MIN KNYC 071340Z AUTO 07004KT 5SM HZ CLR 23/15 A3039 -270 61 600 080/04 RMK AO2 T02280150 $
94728KNYC NYC20250807084511908/07/25 08:45:31  5-MIN KNYC 071345Z AUTO VRB04KT 5SM HZ CLR 23/16 A3039 -270 63 600 VRB/04 RMK AO2 SLP283 T02280156 $
94728KNYC NYC20250807085011908/07/25 08:50:31  5-MIN KNYC 071350Z AUTO 05004KT 5SM HZ CLR 23/16 A3039 -270 63 600 060/04 RMK AO2 SLP283 T02280156 $
94728KNYC NYC20250807085511208/07/25 08:55:31  5-MIN KNYC 071355Z AUTO VRB06KT 5SM HZ CLR 23/15 A3040 -270 59 700 VRB/06 RMK AO2 T02330150 $
94728KNYC NYC20250807090011208/07/25 09:00:31  5-MIN KNYC 071400Z AUTO 06007KT 5SM HZ CLR 23/15 A3039 -270 59 700 070/07 RMK AO2 T02330150 $
94728KNYC NYC20250807090512808/07/25 09:05:31  5-MIN KNYC 071405Z AUTO 05007KT 010V090 5SM HZ CLR 23/14 A3040 -270 57 700 070/07 020V100 RMK AO2 T02330144 $
94728KNYC NYC20250807091011208/07/25 09:10:31  5-MIN KNYC 071410Z AUTO VRB05KT 5SM HZ CLR 23/15 A3040 -280 59 700 VRB/05 RMK AO2 T02330150 $
94728KNYC NYC20250807091511208/07/25 09:15:31  5-MIN KNYC 071415Z AUTO 06006KT 5SM HZ CLR 23/15 A3040 -280 59 700 080/06 RMK AO2 T02330150 $
94728KNYC NYC20250807092011208/07/25 09:20:31  5-MIN KNYC 071420Z AUTO 05008KT 5SM HZ CLR 23/14 A3040 -280 57 700 060/08 RMK AO2 T02330144 $
94728KNYC NYC20250807092511208/07/25 09:25:31  5-MIN KNYC 071425Z AUTO 05008KT 5SM HZ CLR 24/15 A3040 -280 57 700 060/08 RMK AO2 T02390150 $
94728KNYC NYC20250807093011208/07/25 09:30:31  5-MIN KNYC 071430Z AUTO 07006KT 5SM HZ CLR 24/14 A3040 -280 55 700 080/06 RMK AO2 T02390144 $
94728KNYC NYC20250807093511208/07/25 09:35:31  5-MIN KNYC 071435Z AUTO 05007KT 5SM HZ CLR 24/15 A3040 -280 57 700 060/07 RMK AO2 T02390150 $
94728KNYC NYC20250807094011208/07/25 09:40:31  5-MIN KNYC 071440Z AUTO 05006KT 5SM HZ CLR 24/15 A3040 -270 57 700 060/06 RMK AO2 T02390150 $
94728KNYC NYC20250807094512508/07/25 09:45:31  5-MIN KNYC 071445Z AUTO VRB05KT 5SM HZ CLR 24/15 A3039 -270 57 700 VRB/05 RMK AO2 SLP283 T02390150 51008 $
94728KNYC NYC20250807095012508/07/25 09:50:31  5-MIN KNYC 071450Z AUTO VRB05KT 6SM HZ CLR 24/15 A3039 -270 57 700 VRB/05 RMK AO2 SLP283 T02390150 51008 $
94728KNYC NYC20250807095511208/07/25 09:55:31  5-MIN KNYC 071455Z AUTO VRB05KT 6SM HZ CLR 24/15 A3039 -270 55 800 VRB/05 RMK AO2 T02440150 $
94728KNYC NYC20250807100011208/07/25 10:00:31  5-MIN KNYC 071500Z AUTO VRB03KT 6SM HZ CLR 24/15 A3039 -270 55 800 VRB/03 RMK AO2 T02440150 $
94728KNYC NYC20250807100511208/07/25 10:05:31  5-MIN KNYC 071505Z AUTO 08005KT 6SM HZ CLR 24/15 A3039 -270 55 800 090/05 RMK AO2 T02440150 $
94728KNYC NYC20250807101011208/07/25 10:10:31  5-MIN KNYC 071510Z AUTO 06004KT 6SM HZ CLR 24/15 A3039 -270 55 800 070/04 RMK AO2 T02440150 $
94728KNYC NYC20250807101510208/07/25 10:15:31  5-MIN KNYC 071515Z AUTO 6SM HZ CLR 24/15 A3039 -270 55 800 M /M RMK AO2 T02440150 $
94728KNYC NYC20250807102011208/07/25 10:20:31  5-MIN KNYC 071520Z AUTO VRB05KT 6SM HZ CLR 24/14 A3039 -270 53 800 VRB/05 RMK AO2 T02440144 $
94728KNYC NYC20250807102511208/07/25 10:25:31  5-MIN KNYC 071525Z AUTO VRB05KT 6SM HZ CLR 24/15 A3039 -270 55 800 VRB/05 RMK AO2 T02440150 $
94728KNYC NYC20250807103011208/07/25 10:30:31  5-MIN KNYC 071530Z AUTO VRB05KT 6SM HZ CLR 25/15 A3039 -270 53 900 VRB/05 RMK AO2 T02500150 $
94728KNYC NYC20250807103511208/07/25 10:35:31  5-MIN KNYC 071535Z AUTO VRB06KT 6SM HZ CLR 25/15 A3039 -270 53 900 VRB/06 RMK AO2 T02500150 $
94728KNYC NYC20250807104011208/07/25 10:40:31  5-MIN KNYC 071540Z AUTO VRB03KT 6SM HZ CLR 25/15 A3039 -260 53 900 VRB/03 RMK AO2 T02500150 $
94728KNYC NYC20250807104511908/07/25 10:45:31  5-MIN KNYC 071545Z AUTO VRB03KT 6SM HZ CLR 25/15 A3039 -260 53 900 VRB/03 RMK AO2 SLP280 T02500150 $
94728KNYC NYC20250807105011908/07/25 10:50:31  5-MIN KNYC 071550Z AUTO 12003KT 6SM HZ CLR 24/14 A3039 -260 53 800 130/03 RMK AO2 SLP280 T02440144 $
94728KNYC NYC20250807105511208/07/25 10:55:31  5-MIN KNYC 071555Z AUTO 00000KT 6SM HZ CLR 25/15 A3039 -260 53 900 000/00 RMK AO2 T02500150 $
94728KNYC NYC20250807110011208/07/25 11:00:31  5-MIN KNYC 071600Z AUTO VRB06KT 6SM HZ CLR 26/15 A3038 -260 51 900 VRB/06 RMK AO2 T02560150 $
94728KNYC NYC20250807110511208/07/25 11:05:31  5-MIN KNYC 071605Z AUTO 04008KT 6SM HZ CLR 26/15 A3038 -260 51 900 060/08 RMK AO2 T02560150 $
94728KNYC NYC20250807111011308/07/25 11:10:31  5-MIN KNYC 071610Z AUTO VRB05KT 6SM HZ CLR 26/14 A3038 -260 48 1000 VRB/05 RMK AO2 T02610144 $
94728KNYC NYC20250807111511208/07/25 11:15:31  5-MIN KNYC 071615Z AUTO VRB05KT 7SM SCT055 26/15 A3038 -260 51 900 VRB/05 RMK AO2 T02560150 $
94728KNYC NYC20250807112011308/07/25 11:20:31  5-MIN KNYC 071620Z AUTO 08005KT 7SM SCT055 26/15 A3038 -260 50 1000 090/05 RMK AO2 T02610150 $
94728KNYC NYC20250807112511308/07/25 11:25:31  5-MIN KNYC 071625Z AUTO VRB05KT 7SM SCT055 26/14 A3038 -260 48 1000 VRB/05 RMK AO2 T02610144 $
94728KNYC NYC20250807113011308/07/25 11:30:31  5-MIN KNYC 071630Z AUTO VRB03KT 7SM BKN055 26/15 A3038 -250 50 1000 VRB/03 RMK AO2 T02610150 $
94728KNYC NYC20250807113510308/07/25 11:35:31  5-MIN KNYC 071635Z AUTO 7SM BKN055 27/15 A3037 -250 48 1100 M /M RMK AO2 T02670150 $
94728KNYC NYC20250807114011308/07/25 11:40:31  5-MIN KNYC 071640Z AUTO 04005KT 7SM BKN055 26/15 A3037 -250 50 1000 050/05 RMK AO2 T02610150 $
94728KNYC NYC20250807114511908/07/25 11:45:31  5-MIN KNYC 071645Z AUTO VRB04KT 7SM BKN055 26/15 A3037 -250 51 900 VRB/04 RMK AO2 SLP276 T02560150 $
94728KNYC NYC20250807115011908/07/25 11:50:31  5-MIN KNYC 071650Z AUTO VRB03KT 7SM OVC060 25/14 A3037 -250 51 900 VRB/03 RMK AO2 SLP275 T02500144 $
94728KNYC NYC20250807115511308/07/25 11:55:31  5-MIN KNYC 071655Z AUTO 05005KT 7SM OVC060 26/15 A3037 -250 50 1000 060/05 RMK AO2 T02610150 $
94728KNYC NYC20250807120011308/07/25 12:00:31  5-MIN KNYC 071700Z AUTO 00000KT 7SM OVC060 26/14 A3037 -250 48 1000 000/00 RMK AO2 T02610144 $
94728KNYC NYC20250807120510308/07/25 12:05:31  5-MIN KNYC 071705Z AUTO 7SM BKN055 26/15 A3037 -250 50 1000 M /M RMK AO2 T02610150 $
94728KNYC NYC20250807121011308/07/25 12:10:31  5-MIN KNYC 071710Z AUTO 09005KT 7SM BKN060 27/14 A3037 -250 46 1100 110/05 RMK AO2 T02670144 $
94728KNYC NYC20250807121510308/07/25 12:15:31  5-MIN KNYC 071715Z AUTO 7SM SCT060 27/15 A3036 -240 48 1100 M /M RMK AO2 T02670150 $
94728KNYC NYC20250807122011308/07/25 12:20:31  5-MIN KNYC 071720Z AUTO 06007KT 7SM SCT060 27/14 A3036 -240 45 1100 070/07 RMK AO2 T02720144 $
94728KNYC NYC20250807122511308/07/25 12:25:31  5-MIN KNYC 071725Z AUTO 06005KT 7SM FEW055 27/14 A3036 -240 45 1200 080/05 RMK AO2 T02720144 $
94728KNYC NYC20250807123011308/07/25 12:30:31  5-MIN KNYC 071730Z AUTO VRB06KT 7SM FEW055 27/14 A3036 -240 43 1200 VRB/06 RMK AO2 T02720139 $
94728KNYC NYC20250807123511008/07/25 12:35:31  5-MIN KNYC 071735Z AUTO VRB06KT 7SM CLR 27/14 A3035 -240 45 1200 VRB/06 RMK AO2 T02720144 $
94728KNYC NYC20250807124011308/07/25 12:40:31  5-MIN KNYC 071740Z AUTO VRB05KT 7SM FEW060 26/15 A3035 -240 50 1000 VRB/05 RMK AO2 T02610150 $
94728KNYC NYC20250807124513808/07/25 12:45:31  5-MIN KNYC 071745Z AUTO 11005KT 7SM FEW060 26/15 A3035 -240 51 1000 120/05 RMK AO2 SLP270 T02560150 10272 20206 58000 $
94728KNYC NYC20250807125013408/07/25 12:50:31  5-MIN KNYC 071750Z AUTO 7SM FEW040 FEW065 25/15 A3035 -240 53 900 M /M RMK AO2 SLP270 T02500150 10272 20206 58000 $
94728KNYC NYC20250807125511208/07/25 12:55:31  5-MIN KNYC 071755Z AUTO VRB04KT 7SM SCT040 24/16 A3035 -240 59 800 VRB/04 RMK AO2 T02440161 $
94728KNYC NYC20250807130011208/07/25 13:00:31  5-MIN KNYC 071800Z AUTO VRB03KT 8SM SCT040 24/16 A3035 -240 59 800 VRB/03 RMK AO2 T02440161 $
94728KNYC NYC20250807130511208/07/25 13:05:31  5-MIN KNYC 071805Z AUTO 00000KT 8SM BKN040 24/16 A3035 -230 57 800 000/00 RMK AO2 T02440156 $
94728KNYC NYC20250807131011208/07/25 13:10:31  5-MIN KNYC 071810Z AUTO VRB04KT 8SM BKN040 25/16 A3035 -230 57 900 VRB/04 RMK AO2 T02500161 $
94728KNYC NYC20250807131511308/07/25 13:15:31  5-MIN KNYC 071815Z AUTO 00000KT 9SM BKN040 26/16 A3035 -230 55 1000 000/00 RMK AO2 T02560161 $
94728KNYC NYC20250807132011308/07/25 13:20:31  5-MIN KNYC 071820Z AUTO VRB04KT 9SM BKN040 26/15 A3035 -230 50 1000 VRB/04 RMK AO2 T02610150 $
94728KNYC NYC20250807132511308/07/25 13:25:31  5-MIN KNYC 071825Z AUTO 00000KT 9SM BKN039 26/15 A3035 -230 51 1000 000/00 RMK AO2 T02560150 $
94728KNYC NYC20250807133010308/07/25 13:30:31  5-MIN KNYC 071830Z AUTO 9SM SCT039 26/16 A3035 -230 53 1000 M /M RMK AO2 T02560156 $
94728KNYC NYC20250807133511308/07/25 13:35:31  5-MIN KNYC 071835Z AUTO VRB05KT 9SM SCT039 26/15 A3034 -230 51 1000 VRB/05 RMK AO2 T02560150 $
94728KNYC NYC20250807134011308/07/25 13:40:31  5-MIN KNYC 071840Z AUTO VRB03KT 8SM SCT039 26/15 A3034 -230 51 1000 VRB/03 RMK AO2 T02560150 $
94728KNYC NYC20250807134511908/07/25 13:45:31  5-MIN KNYC 071845Z AUTO 00000KT 9SM SCT039 25/14 A3034 -220 49 900 000/00 RMK AO2 SLP266 T02500139 $
94728KNYC NYC20250807135011108/07/25 13:50:31  5-MIN KNYC 071850Z AUTO 10SM SCT037 26/14 A3034 -220 48 1000 M /M RMK AO2 SLP265 T02560139 $
94728KNYC NYC20250807135511308/07/25 13:55:31  5-MIN KNYC 071855Z AUTO 00000KT 9SM SCT037 26/14 A3034 -220 48 1000 000/00 RMK AO2 T02610144 $
94728KNYC NYC20250807140011308/07/25 14:00:31  5-MIN KNYC 071900Z AUTO VRB03KT 9SM SCT039 26/14 A3034 -220 48 1000 VRB/03 RMK AO2 T02560139 $
94728KNYC NYC20250807140511308/07/25 14:05:31  5-MIN KNYC 071905Z AUTO VRB03KT 9SM BKN041 26/14 A3034 -220 48 1000 VRB/03 RMK AO2 T02560139 $
94728KNYC NYC20250807141011408/07/25 14:10:31  5-MIN KNYC 071910Z AUTO 00000KT 10SM BKN041 26/13 A3034 -220 44 1000 000/00 RMK AO2 T02560128 $
94728KNYC NYC20250807141511408/07/25 14:15:31  5-MIN KNYC 071915Z AUTO 00000KT 10SM BKN041 26/13 A3033 -220 46 1000 000/00 RMK AO2 T02560133 $
94728KNYC NYC20250807142011308/07/25 14:20:31  5-MIN KNYC 071920Z AUTO VRB03KT 10SM BKN041 25/12 A3033 -220 44 900 VRB/03 RMK AO2 T02500122 $
94728KNYC NYC20250807142511308/07/25 14:25:31  5-MIN KNYC 071925Z AUTO VRB04KT 10SM OVC041 24/12 A3033 -220 46 900 VRB/04 RMK AO2 T02440122 $
94728KNYC NYC20250807143011308/07/25 14:30:31  5-MIN KNYC 071930Z AUTO 00000KT 10SM OVC041 25/11 A3033 -210 39 900 000/00 RMK AO2 T02500106 $
94728KNYC NYC20250807143511408/07/25 14:35:31  5-MIN KNYC 071935Z AUTO 13004KT 10SM OVC043 26/11 A3033 -210 40 1000 150/04 RMK AO2 T02560111 $
94728KNYC NYC20250807144011408/07/25 14:40:31  5-MIN KNYC 071940Z AUTO 12005KT 10SM OVC043 26/11 A3033 -210 40 1000 130/05 RMK AO2 T02560111 $
94728KNYC NYC20250807144512108/07/25 14:45:31  5-MIN KNYC 071945Z AUTO VRB04KT 10SM OVC045 26/11 A3033 -210 40 1000 VRB/04 RMK AO2 SLP261 T02560111 $
94728KNYC NYC20250807145011108/07/25 14:50:31  5-MIN KNYC 071950Z AUTO 10SM OVC045 26/12 A3033 -210 41 1000 M /M RMK AO2 SLP261 T02560117 $
94728KNYC NYC20250807145511408/07/25 14:55:31  5-MIN KNYC 071955Z AUTO 00000KT 10SM BKN045 26/11 A3033 -210 38 1100 000/00 RMK AO2 T02610111 $
94728KNYC NYC20250807150010408/07/25 15:00:31  5-MIN KNYC 072000Z AUTO 10SM BKN045 26/12 A3033 -210 41 1000 M /M RMK AO2 T02560117 $
94728KNYC NYC20250807150511308/07/25 15:05:31  5-MIN KNYC 072005Z AUTO VRB03KT 10SM SCT047 25/10 A3033 -220 38 900 VRB/03 RMK AO2 T02500100 $
94728KNYC NYC20250807151011308/07/25 15:10:31  5-MIN KNYC 072010Z AUTO 00000KT 10SM FEW047 25/09 A3033 -210 37 900 000/00 RMK AO2 T02500094 $
94728KNYC NYC20250807151511308/07/25 15:15:31  5-MIN KNYC 072015Z AUTO 20007KT 10SM FEW045 25/10 A3033 -210 38 900 210/07 RMK AO2 T02500100 $
94728KNYC NYC20250807152011008/07/25 15:20:31  5-MIN KNYC 072020Z AUTO VRB04KT 10SM CLR 25/11 A3033 -210 39 900 VRB/04 RMK AO2 T02500106 $
94728KNYC NYC20250807152511008/07/25 15:25:31  5-MIN KNYC 072025Z AUTO VRB04KT 10SM CLR 25/11 A3033 -210 39 900 VRB/04 RMK AO2 T02500106 $
94728KNYC NYC20250807153010008/07/25 15:30:31  5-MIN KNYC 072030Z AUTO 10SM CLR 25/11 A3032 -210 39 900 M /M RMK AO2 T02500106 $
94728KNYC NYC20250807153511008/07/25 15:35:31  5-MIN KNYC 072035Z AUTO VRB03KT 10SM CLR 25/10 A3032 -210 38 900 VRB/03 RMK AO2 T02500100 $
94728KNYC NYC20250807154010008/07/25 15:40:31  5-MIN KNYC 072040Z AUTO 10SM CLR 25/10 A3032 -210 38 900 M /M RMK AO2 T02500100 $
94728KNYC NYC20250807154511308/07/25 15:45:31  5-MIN KNYC 072045Z AUTO 10SM CLR 25/11 A3032 -210 39 900 M /M RMK AO2 SLP258 T02500106 58013 $
94728KNYC NYC20250807155012308/07/25 15:50:31  5-MIN KNYC 072050Z AUTO VRB03KT 10SM CLR 25/11 A3032 -210 39 900 VRB/03 RMK AO2 SLP258 T02500106 58013 $
94728KNYC NYC20250807155511108/07/25 15:55:31  5-MIN KNYC 072055Z AUTO VRB04KT 10SM CLR 26/09 A3032 -210 35 1000 VRB/04 RMK AO2 T02560094 $
94728KNYC NYC20250807160011008/07/25 16:00:31  5-MIN KNYC 072100Z AUTO VRB04KT 10SM CLR 25/10 A3032 -210 38 900 VRB/04 RMK AO2 T02500100 $
94728KNYC NYC20250807160511008/07/25 16:05:31  5-MIN KNYC 072105Z AUTO VRB04KT 10SM CLR 25/10 A3032 -210 38 900 VRB/04 RMK AO2 T02500100 $
94728KNYC NYC20250807161011008/07/25 16:10:31  5-MIN KNYC 072110Z AUTO VRB04KT 10SM CLR 25/11 A3032 -210 41 900 VRB/04 RMK AO2 T02500111 $
94728KNYC NYC20250807161510008/07/25 16:15:31  5-MIN KNYC 072115Z AUTO 10SM CLR 24/11 A3032 -210 42 900 M /M RMK AO2 T02440111 $
94728KNYC NYC20250807162011008/07/25 16:20:31  5-MIN KNYC 072120Z AUTO VRB04KT 10SM CLR 24/11 A3032 -210 42 900 VRB/04 RMK AO2 T02440111 $
94728KNYC NYC20250807162511008/07/25 16:25:31  5-MIN KNYC 072125Z AUTO VRB05KT 10SM CLR 24/11 A3032 -210 42 900 VRB/05 RMK AO2 T02440111 $
94728KNYC NYC20250807163012608/07/25 16:30:31  5-MIN KNYC 072130Z AUTO 19008KT 150V210 10SM CLR 24/12 A3032 -210 44 900 200/08 160V220 RMK AO2 T02440117 $
94728KNYC NYC20250807163511008/07/25 16:35:31  5-MIN KNYC 072135Z AUTO VRB03KT 10SM CLR 24/12 A3032 -210 47 800 VRB/03 RMK AO2 T02390122 $
94728KNYC NYC20250807164011008/07/25 16:40:31  5-MIN KNYC 072140Z AUTO VRB04KT 10SM CLR 24/12 A3032 -210 46 900 VRB/04 RMK AO2 T02440122 $
94728KNYC NYC20250807164511708/07/25 16:45:31  5-MIN KNYC 072145Z AUTO VRB04KT 10SM CLR 24/12 A3032 -210 47 800 VRB/04 RMK AO2 SLP259 T02390122 $
94728KNYC NYC20250807165010708/07/25 16:50:31  5-MIN KNYC 072150Z AUTO 10SM CLR 24/13 A3032 -210 49 800 M /M RMK AO2 SLP259 T02390128 $
94728KNYC NYC20250807165511008/07/25 16:55:31  5-MIN KNYC 072155Z AUTO 00000KT 10SM CLR 24/13 A3032 -210 49 800 000/00 RMK AO2 T02390128 $
94728KNYC NYC20250807170010008/07/25 17:00:31  5-MIN KNYC 072200Z AUTO 10SM CLR 24/13 A3032 -210 49 800 M /M RMK AO2 T02390128 $
94728KNYC NYC20250807170510008/07/25 17:05:31  5-MIN KNYC 072205Z AUTO 10SM CLR 24/13 A3032 -210 51 800 M /M RMK AO2 T02390133 $
94728KNYC NYC20250807171010008/07/25 17:10:31  5-MIN KNYC 072210Z AUTO 10SM CLR 23/13 A3032 -210 51 700 M /M RMK AO2 T02330128 $
94728KNYC NYC20250807171510008/07/25 17:15:31  5-MIN KNYC 072215Z AUTO 10SM CLR 23/13 A3033 -210 51 700 M /M RMK AO2 T02330128 $
94728KNYC NYC20250807172010008/07/25 17:20:31  5-MIN KNYC 072220Z AUTO 10SM CLR 23/13 A3032 -210 51 700 M /M RMK AO2 T02330128 $
94728KNYC NYC20250807172511008/07/25 17:25:31  5-MIN KNYC 072225Z AUTO VRB05KT 10SM CLR 23/12 A3032 -210 49 700 VRB/05 RMK AO2 T02330122 $
94728KNYC NYC20250807173011008/07/25 17:30:31  5-MIN KNYC 072230Z AUTO 17005KT 10SM CLR 23/13 A3033 -210 55 700 190/05 RMK AO2 T02280133 $
94728KNYC NYC20250807173511008/07/25 17:35:31  5-MIN KNYC 072235Z AUTO VRB04KT 10SM CLR 23/12 A3033 -210 51 700 VRB/04 RMK AO2 T02280122 $
94728KNYC NYC20250807174011008/07/25 17:40:31  5-MIN KNYC 072240Z AUTO VRB03KT 10SM CLR 23/12 A3033 -210 51 700 VRB/03 RMK AO2 T02280122 $
94728KNYC NYC20250807174511708/07/25 17:45:31  5-MIN KNYC 072245Z AUTO 16005KT 10SM CLR 23/12 A3033 -210 51 700 170/05 RMK AO2 SLP260 T02280122 $
94728KNYC NYC20250807175010708/07/25 17:50:31  5-MIN KNYC 072250Z AUTO 10SM CLR 23/12 A3033 -210 49 700 M /M RMK AO2 SLP260 T02280117 $
94728KNYC NYC20250807175511008/07/25 17:55:31  5-MIN KNYC 072255Z AUTO VRB06KT 10SM CLR 23/12 A3033 -210 49 700 VRB/06 RMK AO2 T02280117 $
94728KNYC NYC20250807180011008/07/25 18:00:31  5-MIN KNYC 072300Z AUTO VRB05KT 10SM CLR 23/12 A3033 -210 49 700 VRB/05 RMK AO2 T02280117 $
94728KNYC NYC20250807180511008/07/25 18:05:31  5-MIN KNYC 072305Z AUTO VRB03KT 10SM CLR 23/12 A3033 -210 49 700 VRB/03 RMK AO2 T02280117 $
94728KNYC NYC20250807181011008/07/25 18:10:31  5-MIN KNYC 072310Z AUTO VRB04KT 10SM CLR 22/12 A3033 -210 51 600 VRB/04 RMK AO2 T02220117 $
94728KNYC NYC20250807181511008/07/25 18:15:31  5-MIN KNYC 072315Z AUTO VRB03KT 10SM CLR 22/12 A3033 -210 51 600 VRB/03 RMK AO2 T02220117 $
94728KNYC NYC20250807182010008/07/25 18:20:31  5-MIN KNYC 072320Z AUTO 10SM CLR 22/12 A3033 -210 51 600 M /M RMK AO2 T02220117 $
94728KNYC NYC20250807182511008/07/25 18:25:31  5-MIN KNYC 072325Z AUTO 00000KT 10SM CLR 22/12 A3033 -210 51 600 000/00 RMK AO2 T02220117 $
94728KNYC NYC20250807183011008/07/25 18:30:31  5-MIN KNYC 072330Z AUTO 14003KT 10SM CLR 22/11 A3033 -210 49 600 150/03 RMK AO2 T02220111 $
94728KNYC NYC20250807183511008/07/25 18:35:31  5-MIN KNYC 072335Z AUTO 00000KT 10SM CLR 22/12 A3033 -210 51 600 000/00 RMK AO2 T02220117 $
94728KNYC NYC20250807184011008/07/25 18:40:31  5-MIN KNYC 072340Z AUTO VRB03KT 10SM CLR 22/12 A3033 -210 51 600 VRB/03 RMK AO2 T02220117 $
94728KNYC NYC20250807184513508/07/25 18:45:31  5-MIN KNYC 072345Z AUTO VRB04KT 10SM CLR 22/12 A3033 -210 51 600 VRB/04 RMK AO2 SLP260 T02220117 10261 20217 56011 $
94728KNYC NYC20250807185013508/07/25 18:50:31  5-MIN KNYC 072350Z AUTO 00000KT 10SM CLR 22/12 A3033 -210 52 600 000/00 RMK AO2 SLP260 T02170117 10261 20217 56011 $
94728KNYC NYC20250807185511008/07/25 18:55:31  5-MIN KNYC 072355Z AUTO 00000KT 10SM CLR 22/12 A3032 -210 52 600 000/00 RMK AO2 T02170117 $
94728KNYC NYC20250807190011008/07/25 19:00:31  5-MIN KNYC 080000Z AUTO 00000KT 10SM CLR 22/12 A3033 -210 52 600 000/00 RMK AO2 T02170117 $
94728KNYC NYC20250807190511008/07/25 19:05:31  5-MIN KNYC 080005Z AUTO VRB03KT 10SM CLR 22/11 A3032 -210 49 600 VRB/03 RMK AO2 T02170106 $
94728KNYC NYC20250807191011008/07/25 19:10:31  5-MIN KNYC 080010Z AUTO VRB06KT 10SM CLR 22/11 A3033 -210 49 600 VRB/06 RMK AO2 T02170106 $
94728KNYC NYC20250807191511008/07/25 19:15:31  5-MIN KNYC 080015Z AUTO 13005KT 10SM CLR 22/10 A3033 -210 45 600 140/05 RMK AO2 T02220100 $
94728KNYC NYC20250807192011008/07/25 19:20:31  5-MIN KNYC 080020Z AUTO VRB04KT 10SM CLR 22/09 A3033 -210 42 600 VRB/04 RMK AO2 T02220089 $
94728KNYC NYC20250807192510008/07/25 19:25:31  5-MIN KNYC 080025Z AUTO 10SM CLR 22/09 A3033 -210 42 600 M /M RMK AO2 T02220089 $
94728KNYC NYC20250807193010008/07/25 19:30:31  5-MIN KNYC 080030Z AUTO 10SM CLR 22/09 A3033 -210 42 600 M /M RMK AO2 T02220089 $
94728KNYC NYC20250807193511008/07/25 19:35:31  5-MIN KNYC 080035Z AUTO 13004KT 10SM CLR 22/08 A3033 -210 40 600 140/04 RMK AO2 T02220083 $
94728KNYC NYC20250807194011008/07/25 19:40:31  5-MIN KNYC 080040Z AUTO 14004KT 10SM CLR 22/09 A3033 -210 42 600 150/04 RMK AO2 T02220089 $
94728KNYC NYC20250807194511708/07/25 19:45:31  5-MIN KNYC 080045Z AUTO 13005KT 10SM CLR 22/09 A3033 -220 42 600 140/05 RMK AO2 SLP262 T02220089 $
94728KNYC NYC20250807195011708/07/25 19:50:31  5-MIN KNYC 080050Z AUTO 12005KT 10SM CLR 22/09 A3033 -220 42 600 140/05 RMK AO2 SLP263 T02220089 $
94728KNYC NYC20250807195511008/07/25 19:55:31  5-MIN KNYC 080055Z AUTO 12006KT 10SM CLR 22/09 A3033 -220 42 600 130/06 RMK AO2 T02220089 $
94728KNYC NYC20250807200011008/07/25 20:00:31  5-MIN KNYC 080100Z AUTO VRB05KT 10SM CLR 22/09 A3034 -220 45 500 VRB/05 RMK AO2 T02170094 $
94728KNYC NYC20250807200511008/07/25 20:05:31  5-MIN KNYC 080105Z AUTO VRB03KT 10SM CLR 22/10 A3034 -220 47 500 VRB/03 RMK AO2 T02170100 $
94728KNYC NYC20250807201011008/07/25 20:10:31  5-MIN KNYC 080110Z AUTO VRB03KT 10SM CLR 22/10 A3034 -220 45 600 VRB/03 RMK AO2 T02220100 $
94728KNYC NYC20250807201511008/07/25 20:15:31  5-MIN KNYC 080115Z AUTO 00000KT 10SM CLR 22/11 A3034 -220 49 500 000/00 RMK AO2 T02170106 $
94728KNYC NYC20250807202011008/07/25 20:20:31  5-MIN KNYC 080120Z AUTO 11004KT 10SM CLR 21/11 A3034 -220 50 500 130/04 RMK AO2 T02110106 $
94728KNYC NYC20250807202511008/07/25 20:25:31  5-MIN KNYC 080125Z AUTO VRB04KT 10SM CLR 21/11 A3034 -220 52 400 VRB/04 RMK AO2 T02060106 $
94728KNYC NYC20250807203011008/07/25 20:30:31  5-MIN KNYC 080130Z AUTO 10004KT 10SM CLR 21/11 A3034 -220 52 400 110/04 RMK AO2 T02060106 $
94728KNYC NYC20250807203511008/07/25 20:35:31  5-MIN KNYC 080135Z AUTO 00000KT 10SM CLR 21/11 A3034 -220 52 400 000/00 RMK AO2 T02060106 $
94728KNYC NYC20250807204011008/07/25 20:40:31  5-MIN KNYC 080140Z AUTO 12003KT 10SM CLR 21/11 A3034 -220 52 400 130/03 RMK AO2 T02060106 $
94728KNYC NYC20250807204511708/07/25 20:45:31  5-MIN KNYC 080145Z AUTO 00000KT 10SM CLR 21/11 A3034 -220 52 400 000/00 RMK AO2 SLP265 T02060106 $
94728KNYC NYC20250807205011708/07/25 20:50:31  5-MIN KNYC 080150Z AUTO 00000KT 10SM CLR 21/11 A3034 -220 52 400 000/00 RMK AO2 SLP265 T02060106 $
94728KNYC NYC20250807205511008/07/25 20:55:31  5-MIN KNYC 080155Z AUTO 07003KT 10SM CLR 21/11 A3034 -220 54 400 090/03 RMK AO2 T02060111 $
94728KNYC NYC20250807210011008/07/25 21:00:31  5-MIN KNYC 080200Z AUTO 07004KT 10SM CLR 21/11 A3034 -220 54 400 090/04 RMK AO2 T02060111 $
94728KNYC NYC20250807210511008/07/25 21:05:31  5-MIN KNYC 080205Z AUTO VRB04KT 10SM CLR 20/11 A3034 -220 56 300 VRB/04 RMK AO2 T02000111 $
94728KNYC NYC20250807211011008/07/25 21:10:31  5-MIN KNYC 080210Z AUTO 09006KT 10SM CLR 21/12 A3034 -220 56 400 110/06 RMK AO2 T02060117 $
94728KNYC NYC20250807211511008/07/25 21:15:31  5-MIN KNYC 080215Z AUTO 07005KT 10SM CLR 21/12 A3034 -220 54 500 080/05 RMK AO2 T02110117 $
94728KNYC NYC20250807212011008/07/25 21:20:31  5-MIN KNYC 080220Z AUTO VRB03KT 10SM CLR 21/12 A3034 -220 54 500 VRB/03 RMK AO2 T02110117 $
94728KNYC NYC20250807212511008/07/25 21:25:31  5-MIN KNYC 080225Z AUTO VRB03KT 10SM CLR 21/12 A3034 -220 54 500 VRB/03 RMK AO2 T02110117 $
94728KNYC NYC20250807213011008/07/25 21:30:31  5-MIN KNYC 080230Z AUTO VRB03KT 10SM CLR 20/12 A3034 -220 58 300 VRB/03 RMK AO2 T02000117 $
94728KNYC NYC20250807213511008/07/25 21:35:31  5-MIN KNYC 080235Z AUTO 06003KT 10SM CLR 20/12 A3034 -220 58 300 080/03 RMK AO2 T02000117 $
94728KNYC NYC20250807214011008/07/25 21:40:31  5-MIN KNYC 080240Z AUTO VRB04KT 10SM CLR 20/12 A3034 -220 60 300 VRB/04 RMK AO2 T02000122 $
94728KNYC NYC20250807214512308/07/25 21:45:31  5-MIN KNYC 080245Z AUTO VRB03KT 10SM CLR 21/12 A3034 -220 56 400 VRB/03 RMK AO2 SLP265 T02060117 50001 $
94728KNYC NYC20250807215012308/07/25 21:50:31  5-MIN KNYC 080250Z AUTO 13004KT 10SM CLR 20/12 A3034 -220 60 300 140/04 RMK AO2 SLP265 T02000122 50001 $
94728KNYC NYC20250807215511008/07/25 21:55:31  5-MIN KNYC 080255Z AUTO 11004KT 10SM CLR 20/12 A3034 -220 60 300 130/04 RMK AO2 T02000122 $
94728KNYC NYC20250807220011008/07/25 22:00:31  5-MIN KNYC 080300Z AUTO 13003KT 10SM CLR 20/12 A3034 -220 60 300 140/03 RMK AO2 T02000122 $
94728KNYC NYC20250807220511008/07/25 22:05:31  5-MIN KNYC 080305Z AUTO 00000KT 10SM CLR 19/12 A3034 -220 62 300 000/00 RMK AO2 T01940122 $
94728KNYC NYC20250807221011008/07/25 22:10:31  5-MIN KNYC 080310Z AUTO 06004KT 10SM CLR 19/12 A3034 -220 60 300 070/04 RMK AO2 T01940117 $
94728KNYC NYC20250807221511008/07/25 22:15:31  5-MIN KNYC 080315Z AUTO 00000KT 10SM CLR 19/12 A3034 -220 60 300 000/00 RMK AO2 T01940117 $
94728KNYC NYC20250807222011008/07/25 22:20:31  5-MIN KNYC 080320Z AUTO 07004KT 10SM CLR 19/12 A3034 -220 60 300 080/04 RMK AO2 T01940117 $
94728KNYC NYC20250807222511008/07/25 22:25:31  5-MIN KNYC 080325Z AUTO 08004KT 10SM CLR 20/12 A3034 -220 58 300 090/04 RMK AO2 T02000117 $
94728KNYC NYC20250807223011008/07/25 22:30:31  5-MIN KNYC 080330Z AUTO VRB03KT 10SM CLR 21/12 A3034 -220 58 400 VRB/03 RMK AO2 T02060122 $
94728KNYC NYC20250807223511008/07/25 22:35:31  5-MIN KNYC 080335Z AUTO VRB04KT 10SM CLR 19/12 A3033 -220 62 300 VRB/04 RMK AO2 T01940122 $
94728KNYC NYC20250807224011008/07/25 22:40:31  5-MIN KNYC 080340Z AUTO VRB03KT 10SM CLR 19/12 A3033 -220 62 300 VRB/03 RMK AO2 T01940122 $
94728KNYC NYC20250807224511708/07/25 22:45:31  5-MIN KNYC 080345Z AUTO VRB03KT 10SM CLR 19/12 A3034 -220 62 300 VRB/03 RMK AO2 SLP263 T01940122 $
94728KNYC NYC20250807225011708/07/25 22:50:31  5-MIN KNYC 080350Z AUTO 10005KT 10SM CLR 19/12 A3034 -220 62 300 110/05 RMK AO2 SLP263 T01940122 $
94728KNYC NYC20250807225511008/07/25 22:55:31  5-MIN KNYC 080355Z AUTO 12003KT 10SM CLR 19/12 A3033 -220 62 300 130/03 RMK AO2 T01940122 $
94728KNYC NYC20250807230011008/07/25 23:00:31  5-MIN KNYC 080400Z AUTO 12003KT 10SM CLR 19/12 A3033 -220 62 300 130/03 RMK AO2 T01940122 $
94728KNYC NYC20250807230511008/07/25 23:05:31  5-MIN KNYC 080405Z AUTO 00000KT 10SM CLR 19/12 A3033 -220 62 300 000/00 RMK AO2 T01940122 $
94728KNYC NYC20250807231011008/07/25 23:10:31  5-MIN KNYC 080410Z AUTO 00000KT 10SM CLR 19/12 A3033 -210 62 300 000/00 RMK AO2 T01940122 $
94728KNYC NYC20250807231511008/07/25 23:15:31  5-MIN KNYC 080415Z AUTO 00000KT 10SM CLR 19/12 A3033 -210 62 300 000/00 RMK AO2 T01940122 $
94728KNYC NYC20250807232011008/07/25 23:20:31  5-MIN KNYC 080420Z AUTO 00000KT 10SM CLR 19/12 A3033 -210 62 300 000/00 RMK AO2 T01940122 $
94728KNYC NYC20250807232511008/07/25 23:25:31  5-MIN KNYC 080425Z AUTO VRB04KT 10SM CLR 19/12 A3033 -210 62 300 VRB/04 RMK AO2 T01940122 $
94728KNYC NYC20250807233011008/07/25 23:30:31  5-MIN KNYC 080430Z AUTO 00000KT 10SM CLR 19/12 A3033 -210 62 300 000/00 RMK AO2 T01940122 $
94728KNYC NYC20250807233511008/07/25 23:35:31  5-MIN KNYC 080435Z AUTO 00000KT 10SM CLR 19/12 A3032 -210 62 300 000/00 RMK AO2 T01940122 $
94728KNYC NYC20250807234011008/07/25 23:40:31  5-MIN KNYC 080440Z AUTO 00000KT 10SM CLR 19/12 A3032 -210 62 300 000/00 RMK AO2 T01940122 $
94728KNYC NYC20250807234512708/07/25 23:45:31  5-MIN KNYC 080445Z AUTO 00000KT 10SM CLR 19/12 A3032 -210 62 300 000/00 RMK AO2 SLP259 T01940122 402720178 $
94728KNYC NYC20250807235012708/07/25 23:50:31  5-MIN KNYC 080450Z AUTO 00000KT 10SM CLR 19/12 A3032 -210 62 300 000/00 RMK AO2 SLP259 T01940122 402720178 $
94728KNYC NYC20250807235511008/07/25 23:55:31  5-MIN KNYC 080455Z AUTO 08003KT 10SM CLR 19/12 A3032 -210 62 300 100/03 RMK AO2 T01940122 $
94728KNYC NYC20250808000011008/08/25 00:00:31  5-MIN KNYC 080500Z AUTO 00000KT 10SM CLR 19/12 A3032 -210 62 300 000/00 RMK AO2 T01940122 $
94728KNYC NYC20250808000511008/08/25 00:05:31  5-MIN KNYC 080505Z AUTO 00000KT 10SM CLR 19/12 A3032 -210 62 300 000/00 RMK AO2 T01940122 $
94728KNYC NYC20250808001011008/08/25 00:10:31  5-MIN KNYC 080510Z AUTO 00000KT 10SM CLR 19/12 A3032 -210 62 300 000/00 RMK AO2 T01940122 $
94728KNYC NYC20250808001511008/08/25 00:15:31  5-MIN KNYC 080515Z AUTO 00000KT 10SM CLR 19/12 A3032 -200 62 300 000/00 RMK AO2 T01940122 $
94728KNYC NYC20250808002011008/08/25 00:20:31  5-MIN KNYC 080520Z AUTO 00000KT 10SM CLR 19/13 A3032 -200 67 200 000/00 RMK AO2 T01890128 $
94728KNYC NYC20250808002511008/08/25 00:25:31  5-MIN KNYC 080525Z AUTO 00000KT 10SM CLR 19/13 A3032 -200 67 200 000/00 RMK AO2 T01890128 $
94728KNYC NYC20250808003011008/08/25 00:30:31  5-MIN KNYC 080530Z AUTO 00000KT 10SM CLR 19/13 A3031 -200 67 200 000/00 RMK AO2 T01890128 $
94728KNYC NYC20250808003511008/08/25 00:35:31  5-MIN KNYC 080535Z AUTO 10003KT 10SM CLR 19/13 A3031 -200 67 200 120/03 RMK AO2 T01890128 $
94728KNYC NYC20250808004011008/08/25 00:40:31  5-MIN KNYC 080540Z AUTO 10003KT 10SM CLR 19/13 A3031 -200 67 300 110/03 RMK AO2 T01890128 $
94728KNYC NYC20250808004513508/08/25 00:45:31  5-MIN KNYC 080545Z AUTO 10003KT 10SM CLR 19/13 A3031 -190 67 300 110/03 RMK AO2 SLP254 T01890128 10222 20189 50005 $
94728KNYC NYC20250808005013508/08/25 00:50:31  5-MIN KNYC 080550Z AUTO 08004KT 10SM CLR 19/13 A3031 -190 67 300 090/04 RMK AO2 SLP253 T01890128 10222 20189 50005 $
94728KNYC NYC20250808005511008/08/25 00:55:31  5-MIN KNYC 080555Z AUTO 08003KT 10SM CLR 19/13 A3030 -190 67 300 090/03 RMK AO2 T01890128 $
94728KNYC NYC20250808010011008/08/25 01:00:31  5-MIN KNYC 080600Z AUTO VRB03KT 10SM CLR 19/13 A3030 -190 67 300 VRB/03 RMK AO2 T01890128 $
94728KNYC NYC20250808010511008/08/25 01:05:31  5-MIN KNYC 080605Z AUTO 10003KT 10SM CLR 19/13 A3030 -190 67 300 120/03 RMK AO2 T01890128 $
94728KNYC NYC20250808011011008/08/25 01:10:31  5-MIN KNYC 080610Z AUTO 00000KT 10SM CLR 19/13 A3031 -190 67 300 000/00 RMK AO2 T01890128 $
94728KNYC NYC20250808011511008/08/25 01:15:31  5-MIN KNYC 080615Z AUTO 00000KT 10SM CLR 19/13 A3031 -190 67 300 000/00 RMK AO2 T01890128 $
94728KNYC NYC20250808012011008/08/25 01:20:31  5-MIN KNYC 080620Z AUTO 00000KT 10SM CLR 19/13 A3030 -190 67 300 000/00 RMK AO2 T01890128 $
94728KNYC NYC20250808012511008/08/25 01:25:31  5-MIN KNYC 080625Z AUTO 00000KT 10SM CLR 19/13 A3030 -190 67 300 000/00 RMK AO2 T01890128 $
94728KNYC NYC20250808013011008/08/25 01:30:31  5-MIN KNYC 080630Z AUTO 00000KT 10SM CLR 19/13 A3030 -190 67 300 000/00 RMK AO2 T01890128 $
94728KNYC NYC20250808013511008/08/25 01:35:31  5-MIN KNYC 080635Z AUTO 00000KT 10SM CLR 19/13 A3030 -190 67 300 000/00 RMK AO2 T01890128 $
94728KNYC NYC20250808014011008/08/25 01:40:31  5-MIN KNYC 080640Z AUTO 00000KT 10SM CLR 19/13 A3030 -190 70 300 000/00 RMK AO2 T01890133 $
94728KNYC NYC20250808014511708/08/25 01:45:31  5-MIN KNYC 080645Z AUTO 06003KT 10SM CLR 19/13 A3030 -190 70 300 070/03 RMK AO2 SLP251 T01890133 $
94728KNYC NYC20250808015011708/08/25 01:50:31  5-MIN KNYC 080650Z AUTO 00000KT 10SM CLR 19/13 A3030 -190 70 300 000/00 RMK AO2 SLP251 T01890133 $
94728KNYC NYC20250808015511008/08/25 01:55:31  5-MIN KNYC 080655Z AUTO 00000KT 10SM CLR 18/13 A3030 -190 72 200 000/00 RMK AO2 T01830133 $
94728KNYC NYC20250808020011008/08/25 02:00:31  5-MIN KNYC 080700Z AUTO 00000KT 10SM CLR 18/13 A3030 -180 72 200 000/00 RMK AO2 T01830133 $
94728KNYC NYC20250808020511008/08/25 02:05:31  5-MIN KNYC 080705Z AUTO 00000KT 10SM CLR 18/14 A3030 -180 75 200 000/00 RMK AO2 T01830139 $
94728KNYC NYC20250808021011008/08/25 02:10:31  5-MIN KNYC 080710Z AUTO 00000KT 10SM CLR 18/14 A3030 -180 75 200 000/00 RMK AO2 T01830139 $
94728KNYC NYC20250808021511008/08/25 02:15:31  5-MIN KNYC 080715Z AUTO 00000KT 10SM CLR 18/13 A3030 -180 72 200 000/00 RMK AO2 T01830133 $
94728KNYC NYC20250808022011008/08/25 02:20:31  5-MIN KNYC 080720Z AUTO 00000KT 10SM CLR 18/13 A3030 -180 72 200 000/00 RMK AO2 T01830133 $
94728KNYC NYC20250808022511008/08/25 02:25:31  5-MIN KNYC 080725Z AUTO 00000KT 10SM CLR 18/13 A3029 -180 72 200 000/00 RMK AO2 T01830133 $
94728KNYC NYC20250808023011008/08/25 02:30:31  5-MIN KNYC 080730Z AUTO 00000KT 10SM CLR 18/14 A3029 -180 75 200 000/00 RMK AO2 T01830139 $
94728KNYC NYC20250808023511008/08/25 02:35:31  5-MIN KNYC 080735Z AUTO 00000KT 10SM CLR 18/14 A3029 -180 75 200 000/00 RMK AO2 T01830139 $
94728KNYC NYC20250808024011008/08/25 02:40:31  5-MIN KNYC 080740Z AUTO 04003KT 10SM CLR 18/14 A3029 -180 75 200 050/03 RMK AO2 T01830139 $
94728KNYC NYC20250808024511708/08/25 02:45:31  5-MIN KNYC 080745Z AUTO 03003KT 10SM CLR 18/13 A3029 -180 72 200 050/03 RMK AO2 SLP248 T01830133 $
94728KNYC NYC20250808025011708/08/25 02:50:31  5-MIN KNYC 080750Z AUTO 00000KT 10SM CLR 18/13 A3029 -180 75 100 000/00 RMK AO2 SLP248 T01780133 $
94728KNYC NYC20250808025511008/08/25 02:55:31  5-MIN KNYC 080755Z AUTO 00000KT 10SM CLR 18/13 A3029 -180 72 200 000/00 RMK AO2 T01830133 $
94728KNYC NYC20250808030011008/08/25 03:00:31  5-MIN KNYC 080800Z AUTO 00000KT 10SM CLR 18/13 A3029 -180 72 200 000/00 RMK AO2 T01830133 $
94728KNYC NYC20250808030511008/08/25 03:05:31  5-MIN KNYC 080805Z AUTO 01003KT 10SM CLR 18/13 A3029 -180 72 200 030/03 RMK AO2 T01830133 $
94728KNYC NYC20250808031011008/08/25 03:10:31  5-MIN KNYC 080810Z AUTO 02003KT 10SM CLR 18/14 A3029 -180 75 200 030/03 RMK AO2 T01830139 $
94728KNYC NYC20250808031511008/08/25 03:15:31  5-MIN KNYC 080815Z AUTO 02003KT 10SM CLR 18/13 A3029 -180 72 200 030/03 RMK AO2 T01830133 $
94728KNYC NYC20250808032011008/08/25 03:20:31  5-MIN KNYC 080820Z AUTO 03003KT 10SM CLR 18/13 A3029 -180 72 200 040/03 RMK AO2 T01830133 $
94728KNYC NYC20250808032511008/08/25 03:25:31  5-MIN KNYC 080825Z AUTO 02003KT 10SM CLR 18/14 A3029 -180 75 200 030/03 RMK AO2 T01830139 $
94728KNYC NYC20250808033011008/08/25 03:30:31  5-MIN KNYC 080830Z AUTO 01003KT 10SM CLR 18/14 A3029 -180 75 200 030/03 RMK AO2 T01830139 $
94728KNYC NYC20250808033511008/08/25 03:35:31  5-MIN KNYC 080835Z AUTO 02004KT 10SM CLR 18/13 A3029 -180 72 200 030/04 RMK AO2 T01830133 $
94728KNYC NYC20250808034011008/08/25 03:40:31  5-MIN KNYC 080840Z AUTO 02003KT 10SM CLR 19/14 A3029 -180 72 300 030/03 RMK AO2 T01890139 $
94728KNYC NYC20250808034512308/08/25 03:45:31  5-MIN KNYC 080845Z AUTO 03004KT 10SM CLR 19/14 A3029 -180 72 300 040/04 RMK AO2 SLP248 T01890139 58012 $
94728KNYC NYC20250808035012308/08/25 03:50:31  5-MIN KNYC 080850Z AUTO 03003KT 10SM CLR 19/14 A3029 -180 72 300 040/03 RMK AO2 SLP248 T01890139 58012 $
94728KNYC NYC20250808073011008/08/25 07:30:31  5-MIN KNYC 081230Z AUTO 09004KT 10SM CLR 21/12 A3031 -190 54 500 110/04 RMK AO2 T02110117 $
94728KNYC NYC20250808073511008/08/25 07:35:31  5-MIN KNYC 081235Z AUTO VRB04KT 10SM CLR 21/12 A3031 -190 54 500 VRB/04 RMK AO2 T02110117 $
94728KNYC NYC20250808074011008/08/25 07:40:31  5-MIN KNYC 081240Z AUTO 06005KT 10SM CLR 22/11 A3031 -200 50 600 080/05 RMK AO2 T02170111 $
94728KNYC NYC20250808074511708/08/25 07:45:31  5-MIN KNYC 081245Z AUTO 06004KT 10SM CLR 22/11 A3031 -190 49 600 070/04 RMK AO2 SLP254 T02170106 $
94728KNYC NYC20250808075011708/08/25 07:50:31  5-MIN KNYC 081250Z AUTO 00000KT 10SM CLR 22/11 A3031 -190 50 600 000/00 RMK AO2 SLP254 T02170111 $
94728KNYC NYC20250808075510008/08/25 07:55:31  5-MIN KNYC 081255Z AUTO 10SM CLR 22/11 A3031 -190 47 600 M /M RMK AO2 T02220106 $
94728KNYC NYC20250808080011008/08/25 08:00:31  5-MIN KNYC 081300Z AUTO 00000KT 10SM CLR 22/10 A3031 -190 45 600 000/00 RMK AO2 T02220100 $
94728KNYC NYC20250808080511008/08/25 08:05:31  5-MIN KNYC 081305Z AUTO 10006KT 10SM CLR 22/10 A3031 -190 45 600 110/06 RMK AO2 T02220100 $
94728KNYC NYC20250808081011008/08/25 08:10:31  5-MIN KNYC 081310Z AUTO 06004KT 10SM CLR 22/10 A3031 -190 45 600 080/04 RMK AO2 T02220100 $
94728KNYC NYC20250808081511008/08/25 08:15:31  5-MIN KNYC 081315Z AUTO VRB03KT 10SM CLR 22/11 A3031 -190 47 600 VRB/03 RMK AO2 T02220106 $
94728KNYC NYC20250808082010008/08/25 08:20:31  5-MIN KNYC 081320Z AUTO 10SM CLR 22/11 A3031 -190 49 600 M /M RMK AO2 T02220111 $
94728KNYC NYC20250808082511008/08/25 08:25:31  5-MIN KNYC 081325Z AUTO VRB05KT 10SM CLR 23/10 A3031 -190 44 700 VRB/05 RMK AO2 T02280100 $
94728KNYC NYC20250808083011008/08/25 08:30:31  5-MIN KNYC 081330Z AUTO 00000KT 10SM CLR 23/10 A3031 -190 44 700 000/00 RMK AO2 T02280100 $
94728KNYC NYC20250808083511008/08/25 08:35:31  5-MIN KNYC 081335Z AUTO 07004KT 10SM CLR 23/10 A3031 -200 44 700 080/04 RMK AO2 T02280100 $
94728KNYC NYC20250808084011008/08/25 08:40:31  5-MIN KNYC 081340Z AUTO VRB05KT 10SM CLR 23/10 A3031 -200 44 700 VRB/05 RMK AO2 T02280100 $
94728KNYC NYC20250808084511708/08/25 08:45:31  5-MIN KNYC 081345Z AUTO 05004KT 10SM CLR 23/10 A3031 -200 44 700 060/04 RMK AO2 SLP256 T02280100 $
94728KNYC NYC20250808085011708/08/25 08:50:31  5-MIN KNYC 081350Z AUTO VRB03KT 10SM CLR 23/11 A3031 -200 44 800 VRB/03 RMK AO2 SLP256 T02330106 $
94728KNYC NYC20250808085511008/08/25 08:55:31  5-MIN KNYC 081355Z AUTO 05006KT 10SM CLR 23/10 A3031 -200 42 800 060/06 RMK AO2 T02330100 $
94728KNYC NYC20250808090011008/08/25 09:00:31  5-MIN KNYC 081400Z AUTO VRB05KT 10SM CLR 23/10 A3032 -200 42 800 VRB/05 RMK AO2 T02330100 $
94728KNYC NYC20250808090511008/08/25 09:05:31  5-MIN KNYC 081405Z AUTO 08006KT 10SM CLR 23/11 A3032 -200 44 800 090/06 RMK AO2 T02330106 $
94728KNYC NYC20250808091011008/08/25 09:10:31  5-MIN KNYC 081410Z AUTO VRB04KT 10SM CLR 23/11 A3032 -200 44 800 VRB/04 RMK AO2 T02330106 $
94728KNYC NYC20250808091511008/08/25 09:15:31  5-MIN KNYC 081415Z AUTO VRB06KT 10SM CLR 24/11 A3032 -200 44 800 VRB/06 RMK AO2 T02390111 $
94728KNYC NYC20250808092011008/08/25 09:20:31  5-MIN KNYC 081420Z AUTO 07005KT 10SM CLR 24/11 A3032 -200 42 800 080/05 RMK AO2 T02390106 $
94728KNYC NYC20250808092511008/08/25 09:25:31  5-MIN KNYC 081425Z AUTO 07004KT 10SM CLR 24/11 A3032 -200 42 800 080/04 RMK AO2 T02390106 $
94728KNYC NYC20250808093011008/08/25 09:30:31  5-MIN KNYC 081430Z AUTO VRB06KT 10SM CLR 24/11 A3032 -200 44 800 VRB/06 RMK AO2 T02390111 $
94728KNYC NYC20250808093511008/08/25 09:35:31  5-MIN KNYC 081435Z AUTO VRB05KT 10SM CLR 24/11 A3032 -200 44 800 VRB/05 RMK AO2 T02390111 $
94728KNYC NYC20250808094011008/08/25 09:40:31  5-MIN KNYC 081440Z AUTO 07004KT 10SM CLR 24/11 A3032 -200 42 800 080/04 RMK AO2 T02390106 $
94728KNYC NYC20250808094512308/08/25 09:45:31  5-MIN KNYC 081445Z AUTO 08006KT 10SM CLR 24/11 A3032 -200 42 900 100/06 RMK AO2 SLP258 T02440111 51006 $
94728KNYC NYC20250808095013908/08/25 09:50:31  5-MIN KNYC 081450Z AUTO 05007KT 360V070 10SM CLR 24/11 A3032 -200 41 900 060/07 010V080 RMK AO2 SLP258 T02440106 51006 $
94728KNYC NYC20250808095511008/08/25 09:55:31  5-MIN KNYC 081455Z AUTO 05007KT 10SM CLR 24/11 A3032 -200 41 900 060/07 RMK AO2 T02440106 $
94728KNYC NYC20250808100011008/08/25 10:00:31  5-MIN KNYC 081500Z AUTO VRB03KT 10SM CLR 24/11 A3032 -200 41 900 VRB/03 RMK AO2 T02440106 $
94728KNYC NYC20250808100511008/08/25 10:05:31  5-MIN KNYC 081505Z AUTO 07005KT 10SM CLR 25/11 A3032 -200 39 900 080/05 RMK AO2 T02500106 $
94728KNYC NYC20250808101011008/08/25 10:10:31  5-MIN KNYC 081510Z AUTO 05005KT 10SM CLR 25/11 A3032 -200 41 900 060/05 RMK AO2 T02500111 $
94728KNYC NYC20250808101511008/08/25 10:15:31  5-MIN KNYC 081515Z AUTO VRB04KT 10SM CLR 25/11 A3032 -200 39 900 VRB/04 RMK AO2 T02500106 $
94728KNYC NYC20250808102011108/08/25 10:20:31  5-MIN KNYC 081520Z AUTO VRB04KT 10SM CLR 26/11 A3032 -210 40 1000 VRB/04 RMK AO2 T02560111 $
94728KNYC NYC20250808102511108/08/25 10:25:31  5-MIN KNYC 081525Z AUTO VRB03KT 10SM CLR 26/11 A3032 -200 38 1000 VRB/03 RMK AO2 T02560106 $
94728KNYC NYC20250808103011108/08/25 10:30:31  5-MIN KNYC 081530Z AUTO VRB03KT 10SM CLR 26/11 A3032 -200 38 1000 VRB/03 RMK AO2 T02560106 $
94728KNYC NYC20250808103510108/08/25 10:35:31  5-MIN KNYC 081535Z AUTO 10SM CLR 26/11 A3032 -200 40 1000 M /M RMK AO2 T02560111 $
94728KNYC NYC20250808104011108/08/25 10:40:31  5-MIN KNYC 081540Z AUTO VRB06KT 10SM CLR 26/11 A3032 -200 37 1100 VRB/06 RMK AO2 T02610106 $
94728KNYC NYC20250808104511808/08/25 10:45:31  5-MIN KNYC 081545Z AUTO 14004KT 10SM CLR 26/10 A3032 -200 37 1000 160/04 RMK AO2 SLP257 T02560100 $
94728KNYC NYC20250808105011808/08/25 10:50:31  5-MIN KNYC 081550Z AUTO 07006KT 10SM CLR 26/11 A3031 -200 38 1000 080/06 RMK AO2 SLP256 T02560106 $
94728KNYC NYC20250808105511108/08/25 10:55:31  5-MIN KNYC 081555Z AUTO VRB04KT 10SM CLR 26/11 A3031 -200 37 1100 VRB/04 RMK AO2 T02610106 $
94728KNYC NYC20250808110011108/08/25 11:00:31  5-MIN KNYC 081600Z AUTO VRB05KT 10SM CLR 26/09 A3031 -200 34 1100 VRB/05 RMK AO2 T02610094 $
94728KNYC NYC20250808110511108/08/25 11:05:31  5-MIN KNYC 081605Z AUTO VRB05KT 10SM CLR 26/10 A3031 -190 36 1100 VRB/05 RMK AO2 T02610100 $
94728KNYC NYC20250808111011108/08/25 11:10:31  5-MIN KNYC 081610Z AUTO VRB05KT 10SM CLR 27/09 A3031 -190 33 1100 VRB/05 RMK AO2 T02670094 $
94728KNYC NYC20250808111511108/08/25 11:15:31  5-MIN KNYC 081615Z AUTO VRB03KT 10SM CLR 27/09 A3031 -190 33 1100 VRB/03 RMK AO2 T02670094 $
94728KNYC NYC20250808112011108/08/25 11:20:31  5-MIN KNYC 081620Z AUTO VRB03KT 10SM CLR 27/10 A3031 -190 34 1100 VRB/03 RMK AO2 T02670100 $
94728KNYC NYC20250808112511108/08/25 11:25:31  5-MIN KNYC 081625Z AUTO VRB03KT 10SM CLR 27/10 A3031 -190 33 1200 VRB/03 RMK AO2 T02720100 $
94728KNYC NYC20250808113011108/08/25 11:30:31  5-MIN KNYC 081630Z AUTO 06006KT 10SM CLR 27/10 A3030 -190 34 1200 070/06 RMK AO2 T02670100 $
94728KNYC NYC20250808113511108/08/25 11:35:31  5-MIN KNYC 081635Z AUTO 07005KT 10SM CLR 28/09 A3030 -190 31 1300 080/05 RMK AO2 T02780094 $
94728KNYC NYC20250808114011108/08/25 11:40:31  5-MIN KNYC 081640Z AUTO VRB04KT 10SM CLR 27/10 A3030 -180 34 1200 VRB/04 RMK AO2 T02670100 $
94728KNYC NYC20250808114511808/08/25 11:45:31  5-MIN KNYC 081645Z AUTO VRB04KT 10SM CLR 27/09 A3030 -180 31 1200 VRB/04 RMK AO2 SLP250 T02720089 $
94728KNYC NYC20250808115011808/08/25 11:50:31  5-MIN KNYC 081650Z AUTO VRB05KT 10SM CLR 27/09 A3030 -180 32 1200 VRB/05 RMK AO2 SLP250 T02720094 $
94728KNYC NYC20250808115510108/08/25 11:55:31  5-MIN KNYC 081655Z AUTO 10SM CLR 27/09 A3030 -180 31 1200 M /M RMK AO2 T02720089 $
94728KNYC NYC20250808120011108/08/25 12:00:31  5-MIN KNYC 081700Z AUTO VRB05KT 10SM CLR 28/09 A3029 -180 30 1300 VRB/05 RMK AO2 T02780089 $
94728KNYC NYC20250808120511108/08/25 12:05:31  5-MIN KNYC 081705Z AUTO 00000KT 10SM CLR 27/09 A3029 -180 31 1200 000/00 RMK AO2 T02720089 $
94728KNYC NYC20250808121011108/08/25 12:10:31  5-MIN KNYC 081710Z AUTO 00000KT 10SM CLR 27/09 A3029 -180 32 1200 000/00 RMK AO2 T02720094 $
94728KNYC NYC20250808121511108/08/25 12:15:31  5-MIN KNYC 081715Z AUTO 08005KT 10SM CLR 27/09 A3029 -180 32 1200 100/05 RMK AO2 T02720094 $
94728KNYC NYC20250808122011108/08/25 12:20:31  5-MIN KNYC 081720Z AUTO VRB03KT 10SM CLR 27/10 A3029 -180 33 1200 VRB/03 RMK AO2 T02720100 $
94728KNYC NYC20250808122511108/08/25 12:25:31  5-MIN KNYC 081725Z AUTO VRB05KT 10SM CLR 27/10 A3029 -180 34 1200 VRB/05 RMK AO2 T02670100 $
94728KNYC NYC20250808123011108/08/25 12:30:31  5-MIN KNYC 081730Z AUTO VRB03KT 10SM CLR 27/09 A3029 -170 33 1200 VRB/03 RMK AO2 T02670094 $
94728KNYC NYC20250808123511108/08/25 12:35:31  5-MIN KNYC 081735Z AUTO 21006KT 10SM CLR 27/08 A3028 -170 31 1200 220/06 RMK AO2 T02670083 $
94728KNYC NYC20250808124011108/08/25 12:40:31  5-MIN KNYC 081740Z AUTO VRB05KT 10SM CLR 27/09 A3028 -170 31 1200 VRB/05 RMK AO2 T02720089 $
94728KNYC NYC20250808124513608/08/25 12:45:31  5-MIN KNYC 081745Z AUTO VRB03KT 10SM CLR 27/09 A3028 -170 31 1200 VRB/03 RMK AO2 SLP245 T02720089 10278 20200 53003 $
94728KNYC NYC20250808125012608/08/25 12:50:31  5-MIN KNYC 081750Z AUTO 10SM CLR 27/09 A3028 -170 31 1200 M /M RMK AO2 SLP244 T02720089 10278 20200 53003 $
94728KNYC NYC20250808125511108/08/25 12:55:31  5-MIN KNYC 081755Z AUTO 00000KT 10SM CLR 27/09 A3028 -170 32 1200 000/00 RMK AO2 T02720094 $
94728KNYC NYC20250808130010108/08/25 13:00:31  5-MIN KNYC 081800Z AUTO 10SM CLR 27/09 A3028 -170 31 1200 M /M RMK AO2 T02720089 $
94728KNYC NYC20250808130511108/08/25 13:05:31  5-MIN KNYC 081805Z AUTO VRB03KT 10SM CLR 27/08 A3028 -170 31 1200 VRB/03 RMK AO2 T02670083 $
94728KNYC NYC20250808131011108/08/25 13:10:31  5-MIN KNYC 081810Z AUTO VRB06KT 10SM CLR 27/08 A3028 -170 29 1200 VRB/06 RMK AO2 T02670078 $
94728KNYC NYC20250808131510108/08/25 13:15:31  5-MIN KNYC 081815Z AUTO 10SM CLR 27/08 A3028 -170 29 1200 M /M RMK AO2 T02670078 $
94728KNYC NYC20250808132011108/08/25 13:20:31  5-MIN KNYC 081820Z AUTO VRB03KT 10SM CLR 27/08 A3028 -170 29 1200 VRB/03 RMK AO2 T02670078 $
94728KNYC NYC20250808132510108/08/25 13:25:31  5-MIN KNYC 081825Z AUTO 10SM CLR 27/09 A3028 -170 33 1200 M /M RMK AO2 T02670094 $
94728KNYC NYC20250808133011108/08/25 13:30:31  5-MIN KNYC 081830Z AUTO VRB03KT 10SM CLR 27/09 A3028 -160 31 1200 VRB/03 RMK AO2 T02720089 $
94728KNYC NYC20250808133510108/08/25 13:35:31  5-MIN KNYC 081835Z AUTO 10SM CLR 27/08 A3027 -160 29 1200 M /M RMK AO2 T02670078 $
94728KNYC NYC20250808134011108/08/25 13:40:31  5-MIN KNYC 081840Z AUTO 00000KT 10SM CLR 27/08 A3027 -160 29 1200 000/00 RMK AO2 T02670078 $
94728KNYC NYC20250808134510808/08/25 13:45:31  5-MIN KNYC 081845Z AUTO 10SM CLR 27/08 A3027 -150 29 1200 M /M RMK AO2 SLP240 T02670078 $
94728KNYC NYC20250808135011808/08/25 13:50:31  5-MIN KNYC 081850Z AUTO VRB04KT 10SM CLR 27/08 A3027 -150 31 1200 VRB/04 RMK AO2 SLP239 T02670083 $
94728KNYC NYC20250808135511108/08/25 13:55:31  5-MIN KNYC 081855Z AUTO VRB04KT 10SM CLR 27/07 A3026 -150 28 1200 VRB/04 RMK AO2 T02670072 $
94728KNYC NYC20250808140011108/08/25 14:00:31  5-MIN KNYC 081900Z AUTO VRB04KT 10SM CLR 27/07 A3026 -150 28 1200 VRB/04 RMK AO2 T02670072 $
94728KNYC NYC20250808140510108/08/25 14:05:31  5-MIN KNYC 081905Z AUTO 10SM CLR 27/08 A3026 -150 31 1200 M /M RMK AO2 T02670083 $
94728KNYC NYC20250808141011108/08/25 14:10:31  5-MIN KNYC 081910Z AUTO 12003KT 10SM CLR 27/08 A3026 -150 31 1200 140/03 RMK AO2 T02670083 $
94728KNYC NYC20250808141510108/08/25 14:15:31  5-MIN KNYC 081915Z AUTO 10SM CLR 26/08 A3026 -150 32 1100 M /M RMK AO2 T02610083 $
94728KNYC NYC20250808142011108/08/25 14:20:31  5-MIN KNYC 081920Z AUTO 00000KT 10SM CLR 26/08 A3026 -150 31 1100 000/00 RMK AO2 T02610078 $
94728KNYC NYC20250808142511108/08/25 14:25:31  5-MIN KNYC 081925Z AUTO 13003KT 10SM CLR 26/09 A3026 -150 33 1100 140/03 RMK AO2 T02610089 $
94728KNYC NYC20250808143010108/08/25 14:30:31  5-MIN KNYC 081930Z AUTO 10SM CLR 26/08 A3026 -150 31 1100 M /M RMK AO2 T02610078 $
94728KNYC NYC20250808143511108/08/25 14:35:31  5-MIN KNYC 081935Z AUTO VRB03KT 10SM CLR 26/08 A3026 -150 32 1100 VRB/03 RMK AO2 T02610083 $
94728KNYC NYC20250808144011108/08/25 14:40:31  5-MIN KNYC 081940Z AUTO VRB04KT 10SM CLR 26/08 A3026 -150 32 1100 VRB/04 RMK AO2 T02610083 $
94728KNYC NYC20250808144511808/08/25 14:45:31  5-MIN KNYC 081945Z AUTO VRB06KT 10SM CLR 27/08 A3026 -150 29 1200 VRB/06 RMK AO2 SLP238 T02670078 $
94728KNYC NYC20250808145011808/08/25 14:50:31  5-MIN KNYC 081950Z AUTO VRB03KT 10SM CLR 26/08 A3026 -150 31 1100 VRB/03 RMK AO2 SLP238 T02610078 $
94728KNYC NYC20250808145510108/08/25 14:55:31  5-MIN KNYC 081955Z AUTO 10SM CLR 26/08 A3026 -150 31 1100 M /M RMK AO2 T02610078 $
94728KNYC NYC20250808150011108/08/25 15:00:31  5-MIN KNYC 082000Z AUTO VRB03KT 10SM CLR 26/09 A3026 -150 33 1100 VRB/03 RMK AO2 T02610089 $
94728KNYC NYC20250808150511108/08/25 15:05:31  5-MIN KNYC 082005Z AUTO 00000KT 10SM CLR 26/09 A3026 -150 33 1100 000/00 RMK AO2 T02610089 $
94728KNYC NYC20250808151011108/08/25 15:10:31  5-MIN KNYC 082010Z AUTO VRB05KT 10SM CLR 26/09 A3026 -150 33 1100 VRB/05 RMK AO2 T02610089 $
94728KNYC NYC20250808151511108/08/25 15:15:31  5-MIN KNYC 082015Z AUTO 00000KT 10SM CLR 26/09 A3026 -150 34 1100 000/00 RMK AO2 T02560089 $
94728KNYC NYC20250808152011108/08/25 15:20:31  5-MIN KNYC 082020Z AUTO 15004KT 10SM CLR 26/09 A3026 -150 35 1100 160/04 RMK AO2 T02560094 $
94728KNYC NYC20250808152510108/08/25 15:25:31  5-MIN KNYC 082025Z AUTO 10SM CLR 26/09 A3026 -150 34 1100 M /M RMK AO2 T02560089 $
94728KNYC NYC20250808153011108/08/25 15:30:31  5-MIN KNYC 082030Z AUTO VRB03KT 10SM CLR 26/09 A3026 -150 35 1100 VRB/03 RMK AO2 T02560094 $
94728KNYC NYC20250808153510108/08/25 15:35:31  5-MIN KNYC 082035Z AUTO 10SM CLR 26/09 A3026 -150 34 1100 M /M RMK AO2 T02560089 $
94728KNYC NYC20250808154011108/08/25 15:40:31  5-MIN KNYC 082040Z AUTO VRB03KT 10SM CLR 26/09 A3026 -150 34 1100 VRB/03 RMK AO2 T02560089 $
94728KNYC NYC20250808154512408/08/25 15:45:31  5-MIN KNYC 082045Z AUTO 00000KT 10SM CLR 26/09 A3026 -150 34 1100 000/00 RMK AO2 SLP237 T02560089 58012 $
94728KNYC NYC20250808155011408/08/25 15:50:31  5-MIN KNYC 082050Z AUTO 10SM CLR 26/08 A3026 -150 32 1100 M /M RMK AO2 SLP237 T02610083 58012 $
94728KNYC NYC20250808155511108/08/25 15:55:31  5-MIN KNYC 082055Z AUTO 00000KT 10SM CLR 26/09 A3026 -150 34 1100 000/00 RMK AO2 T02560089 $
94728KNYC NYC20250808160011108/08/25 16:00:31  5-MIN KNYC 082100Z AUTO VRB06KT 10SM CLR 26/09 A3026 -150 35 1100 VRB/06 RMK AO2 T02560094 $
94728KNYC NYC20250808160511108/08/25 16:05:31  5-MIN KNYC 082105Z AUTO VRB04KT 10SM CLR 26/09 A3026 -150 34 1100 VRB/04 RMK AO2 T02560089 $
94728KNYC NYC20250808161011108/08/25 16:10:31  5-MIN KNYC 082110Z AUTO VRB03KT 10SM CLR 25/09 A3026 -150 35 1000 VRB/03 RMK AO2 T02500089 $
94728KNYC NYC20250808161511108/08/25 16:15:31  5-MIN KNYC 082115Z AUTO VRB03KT 10SM CLR 25/10 A3025 -140 38 1000 VRB/03 RMK AO2 T02500100 $
94728KNYC NYC20250808162011108/08/25 16:20:31  5-MIN KNYC 082120Z AUTO VRB03KT 10SM CLR 25/09 A3025 -140 37 1000 VRB/03 RMK AO2 T02500094 $
94728KNYC NYC20250808162511108/08/25 16:25:31  5-MIN KNYC 082125Z AUTO 00000KT 10SM CLR 25/10 A3025 -140 38 1000 000/00 RMK AO2 T02500100 $
94728KNYC NYC20250808163011108/08/25 16:30:31  5-MIN KNYC 082130Z AUTO VRB05KT 10SM CLR 25/11 A3025 -140 39 1000 VRB/05 RMK AO2 T02500106 $
94728KNYC NYC20250808163511108/08/25 16:35:31  5-MIN KNYC 082135Z AUTO 12005KT 10SM CLR 25/10 A3025 -140 38 1000 130/05 RMK AO2 T02500100 $
94728KNYC NYC20250808164011108/08/25 16:40:31  5-MIN KNYC 082140Z AUTO VRB05KT 10SM CLR 25/10 A3025 -140 38 1000 VRB/05 RMK AO2 T02500100 $
94728KNYC NYC20250808164511808/08/25 16:45:31  5-MIN KNYC 082145Z AUTO VRB04KT 10SM CLR 25/11 A3025 -140 39 1000 VRB/04 RMK AO2 SLP234 T02500106 $
94728KNYC NYC20250808165010808/08/25 16:50:31  5-MIN KNYC 082150Z AUTO 10SM CLR 24/11 A3025 -140 42 1000 M /M RMK AO2 SLP234 T02440111 $
94728KNYC NYC20250808165510108/08/25 16:55:31  5-MIN KNYC 082155Z AUTO 10SM CLR 24/11 A3025 -140 42 1000 M /M RMK AO2 T02440111 $
94728KNYC NYC20250808170011108/08/25 17:00:31  5-MIN KNYC 082200Z AUTO 00000KT 10SM CLR 24/11 A3025 -140 42 1000 000/00 RMK AO2 T02440111 $
94728KNYC NYC20250808170510008/08/25 17:05:31  5-MIN KNYC 082205Z AUTO 10SM CLR 24/12 A3025 -140 46 900 M /M RMK AO2 T02390117 $
94728KNYC NYC20250808171011008/08/25 17:10:31  5-MIN KNYC 082210Z AUTO VRB05KT 10SM CLR 24/11 A3025 -140 44 900 VRB/05 RMK AO2 T02390111 $
94728KNYC NYC20250808171511008/08/25 17:15:31  5-MIN KNYC 082215Z AUTO VRB03KT 10SM CLR 24/12 A3025 -140 46 900 VRB/03 RMK AO2 T02390117 $
94728KNYC NYC20250808172010008/08/25 17:20:31  5-MIN KNYC 082220Z AUTO 10SM CLR 24/12 A3025 -140 46 900 M /M RMK AO2 T02390117 $
94728KNYC NYC20250808172511008/08/25 17:25:31  5-MIN KNYC 082225Z AUTO VRB04KT 10SM CLR 23/12 A3026 -150 47 800 VRB/04 RMK AO2 T02330117 $
94728KNYC NYC20250808173011008/08/25 17:30:31  5-MIN KNYC 082230Z AUTO VRB04KT 10SM CLR 23/11 A3026 -150 45 800 VRB/04 RMK AO2 T02330111 $
94728KNYC NYC20250808173511008/08/25 17:35:31  5-MIN KNYC 082235Z AUTO VRB03KT 10SM CLR 23/11 A3025 -140 45 800 VRB/03 RMK AO2 T02330111 $
94728KNYC NYC20250808174011008/08/25 17:40:31  5-MIN KNYC 082240Z AUTO 14007KT 10SM CLR 23/11 A3026 -150 45 800 150/07 RMK AO2 T02330111 $
94728KNYC NYC20250808174511708/08/25 17:45:31  5-MIN KNYC 082245Z AUTO 00000KT 10SM CLR 23/11 A3026 -150 44 800 000/00 RMK AO2 SLP236 T02330106 $
94728KNYC NYC20250808175011708/08/25 17:50:31  5-MIN KNYC 082250Z AUTO VRB03KT 10SM CLR 23/11 A3025 -140 45 800 VRB/03 RMK AO2 SLP236 T02330111 $
94728KNYC NYC20250808175511008/08/25 17:55:31  5-MIN KNYC 082255Z AUTO VRB03KT 10SM CLR 23/11 A3025 -140 45 800 VRB/03 RMK AO2 T02330111 $
94728KNYC NYC20250808180011008/08/25 18:00:31  5-MIN KNYC 082300Z AUTO VRB04KT 10SM CLR 23/11 A3026 -150 47 800 VRB/04 RMK AO2 T02280111 $
94728KNYC NYC20250808180510008/08/25 18:05:31  5-MIN KNYC 082305Z AUTO 10SM CLR 23/11 A3026 -150 47 800 M /M RMK AO2 T02280111 $
94728KNYC NYC20250808181011008/08/25 18:10:31  5-MIN KNYC 082310Z AUTO VRB05KT 10SM CLR 23/11 A3026 -150 47 800 VRB/05 RMK AO2 T02280111 $
94728KNYC NYC20250808181511008/08/25 18:15:31  5-MIN KNYC 082315Z AUTO VRB04KT 10SM CLR 23/11 A3026 -150 45 800 VRB/04 RMK AO2 T02280106 $
94728KNYC NYC20250808182011008/08/25 18:20:31  5-MIN KNYC 082320Z AUTO 00000KT 10SM CLR 23/11 A3026 -150 45 800 000/00 RMK AO2 T02280106 $
94728KNYC NYC20250808182511008/08/25 18:25:31  5-MIN KNYC 082325Z AUTO 00000KT 10SM CLR 23/11 A3026 -150 45 800 000/00 RMK AO2 T02280106 $
94728KNYC NYC20250808183011008/08/25 18:30:31  5-MIN KNYC 082330Z AUTO 00000KT 10SM CLR 23/11 A3026 -150 45 800 000/00 RMK AO2 T02280106 $
94728KNYC NYC20250808183510008/08/25 18:35:31  5-MIN KNYC 082335Z AUTO 10SM CLR 22/11 A3026 -150 49 700 M /M RMK AO2 T02220111 $
94728KNYC NYC20250808184011008/08/25 18:40:31  5-MIN KNYC 082340Z AUTO 00000KT 10SM CLR 22/11 A3026 -150 47 700 000/00 RMK AO2 T02220106 $
94728KNYC NYC20250808184513508/08/25 18:45:31  5-MIN KNYC 082345Z AUTO VRB03KT 10SM CLR 22/11 A3026 -150 47 700 VRB/03 RMK AO2 SLP239 T02220106 10272 20222 56008 $
94728KNYC NYC20250808185013508/08/25 18:50:31  5-MIN KNYC 082350Z AUTO 00000KT 10SM CLR 22/11 A3026 -150 47 700 000/00 RMK AO2 SLP239 T02220106 10272 20222 56008 $
94728KNYC NYC20250808185511008/08/25 18:55:31  5-MIN KNYC 082355Z AUTO VRB03KT 10SM CLR 22/11 A3026 -150 49 700 VRB/03 RMK AO2 T02220111 $
94728KNYC NYC20250808190011008/08/25 19:00:31  5-MIN KNYC 090000Z AUTO 00000KT 10SM CLR 22/11 A3026 -150 50 600 000/00 RMK AO2 T02170111 $
94728KNYC NYC20250808190511008/08/25 19:05:31  5-MIN KNYC 090005Z AUTO 00000KT 10SM CLR 22/11 A3026 -150 49 600 000/00 RMK AO2 T02170106 $
94728KNYC NYC20250808191010008/08/25 19:10:31  5-MIN KNYC 090010Z AUTO 10SM CLR 22/11 A3026 -150 49 600 M /M RMK AO2 T02170106 $
94728KNYC NYC20250808191511008/08/25 19:15:31  5-MIN KNYC 090015Z AUTO VRB05KT 10SM CLR 22/11 A3026 -150 49 600 VRB/05 RMK AO2 T02170106 $
94728KNYC NYC20250808192011008/08/25 19:20:31  5-MIN KNYC 090020Z AUTO 00000KT 10SM CLR 22/11 A3026 -150 49 600 000/00 RMK AO2 T02170106 $
94728KNYC NYC20250808192511008/08/25 19:25:31  5-MIN KNYC 090025Z AUTO 00000KT 10SM CLR 21/11 A3027 -160 50 600 000/00 RMK AO2 T02110106 $
94728KNYC NYC20250808193011008/08/25 19:30:31  5-MIN KNYC 090030Z AUTO VRB03KT 10SM CLR 21/10 A3027 -160 48 600 VRB/03 RMK AO2 T02110100 $
94728KNYC NYC20250808193511008/08/25 19:35:31  5-MIN KNYC 090035Z AUTO 00000KT 10SM CLR 21/10 A3027 -160 48 600 000/00 RMK AO2 T02110100 $
94728KNYC NYC20250808194011008/08/25 19:40:31  5-MIN KNYC 090040Z AUTO 00000KT 10SM CLR 21/10 A3027 -160 48 600 000/00 RMK AO2 T02110100 $
94728KNYC NYC20250808194511708/08/25 19:45:31  5-MIN KNYC 090045Z AUTO 00000KT 10SM CLR 21/10 A3027 -160 48 600 000/00 RMK AO2 SLP241 T02110100 $
94728KNYC NYC20250808195011708/08/25 19:50:31  5-MIN KNYC 090050Z AUTO VRB03KT 10SM CLR 21/10 A3027 -160 48 600 VRB/03 RMK AO2 SLP240 T02110100 $
94728KNYC NYC20250808195511008/08/25 19:55:31  5-MIN KNYC 090055Z AUTO 00000KT 10SM CLR 21/10 A3026 -150 48 600 000/00 RMK AO2 T02110100 $
94728KNYC NYC20250808200011008/08/25 20:00:31  5-MIN KNYC 090100Z AUTO VRB03KT 10SM CLR 21/10 A3026 -150 48 600 VRB/03 RMK AO2 T02110100 $
94728KNYC NYC20250808200511008/08/25 20:05:31  5-MIN KNYC 090105Z AUTO VRB03KT 10SM CLR 21/10 A3026 -150 50 500 VRB/03 RMK AO2 T02060100 $
94728KNYC NYC20250808201011008/08/25 20:10:31  5-MIN KNYC 090110Z AUTO 00000KT 10SM CLR 21/10 A3026 -150 48 600 000/00 RMK AO2 T02110100 $
94728KNYC NYC20250808201511008/08/25 20:15:31  5-MIN KNYC 090115Z AUTO VRB03KT 10SM CLR 21/10 A3026 -150 50 500 VRB/03 RMK AO2 T02060100 $
94728KNYC NYC20250808202011008/08/25 20:20:31  5-MIN KNYC 090120Z AUTO 00000KT 10SM CLR 21/09 A3026 -150 48 500 000/00 RMK AO2 T02060094 $
94728KNYC NYC20250808202511008/08/25 20:25:31  5-MIN KNYC 090125Z AUTO 00000KT 10SM CLR 21/10 A3027 -150 50 500 000/00 RMK AO2 T02060100 $
94728KNYC NYC20250808203011008/08/25 20:30:31  5-MIN KNYC 090130Z AUTO 00000KT 10SM CLR 21/10 A3027 -150 50 500 000/00 RMK AO2 T02060100 $
94728KNYC NYC20250808203511008/08/25 20:35:31  5-MIN KNYC 090135Z AUTO 00000KT 10SM CLR 21/10 A3027 -150 50 500 000/00 RMK AO2 T02060100 $
94728KNYC NYC20250808204011008/08/25 20:40:31  5-MIN KNYC 090140Z AUTO 00000KT 10SM CLR 21/10 A3026 -150 50 500 000/00 RMK AO2 T02060100 $
94728KNYC NYC20250808204511708/08/25 20:45:31  5-MIN KNYC 090145Z AUTO 00000KT 10SM CLR 21/10 A3026 -150 50 500 000/00 RMK AO2 SLP239 T02060100 $
94728KNYC NYC20250808205011708/08/25 20:50:31  5-MIN KNYC 090150Z AUTO 00000KT 10SM CLR 21/10 A3026 -150 50 500 000/00 RMK AO2 SLP238 T02060100 $
94728KNYC NYC20250808205511008/08/25 20:55:31  5-MIN KNYC 090155Z AUTO 00000KT 10SM CLR 21/10 A3026 -150 50 500 000/00 RMK AO2 T02060100 $
94728KNYC NYC20250808210011008/08/25 21:00:31  5-MIN KNYC 090200Z AUTO 00000KT 10SM CLR 21/11 A3026 -150 52 500 000/00 RMK AO2 T02060106 $
94728KNYC NYC20250808210511008/08/25 21:05:31  5-MIN KNYC 090205Z AUTO 00000KT 10SM CLR 21/11 A3026 -150 54 500 000/00 RMK AO2 T02060111 $
94728KNYC NYC20250808211011008/08/25 21:10:31  5-MIN KNYC 090210Z AUTO VRB03KT 10SM CLR 21/11 A3026 -150 52 500 VRB/03 RMK AO2 T02060106 $
94728KNYC NYC20250808211511008/08/25 21:15:31  5-MIN KNYC 090215Z AUTO 00000KT 10SM CLR 21/10 A3026 -150 50 500 000/00 RMK AO2 T02060100 $
94728KNYC NYC20250808212011008/08/25 21:20:31  5-MIN KNYC 090220Z AUTO 00000KT 10SM CLR 21/11 A3026 -150 52 500 000/00 RMK AO2 T02060106 $
94728KNYC NYC20250808212511008/08/25 21:25:31  5-MIN KNYC 090225Z AUTO 00000KT 10SM CLR 21/11 A3026 -150 52 500 000/00 RMK AO2 T02060106 $
94728KNYC NYC20250808213011008/08/25 21:30:31  5-MIN KNYC 090230Z AUTO VRB03KT 10SM CLR 21/11 A3026 -150 52 500 VRB/03 RMK AO2 T02060106 $
94728KNYC NYC20250808213511008/08/25 21:35:31  5-MIN KNYC 090235Z AUTO 00000KT 10SM CLR 20/11 A3026 -150 56 400 000/00 RMK AO2 T02000111 $
94728KNYC NYC20250808214011008/08/25 21:40:31  5-MIN KNYC 090240Z AUTO 00000KT 10SM CLR 21/11 A3026 -150 52 500 000/00 RMK AO2 T02060106 $
94728KNYC NYC20250808214512308/08/25 21:45:31  5-MIN KNYC 090245Z AUTO 00000KT 10SM CLR 21/11 A3026 -150 54 500 000/00 RMK AO2 SLP239 T02060111 53001 $
94728KNYC NYC20250808215012308/08/25 21:50:31  5-MIN KNYC 090250Z AUTO 00000KT 10SM CLR 21/11 A3026 -150 54 500 000/00 RMK AO2 SLP238 T02060111 53001 $
94728KNYC NYC20250808215511008/08/25 21:55:31  5-MIN KNYC 090255Z AUTO 00000KT 10SM CLR 21/11 A3026 -150 54 500 000/00 RMK AO2 T02060111 $
94728KNYC NYC20250808220011008/08/25 22:00:31  5-MIN KNYC 090300Z AUTO 00000KT 10SM CLR 20/11 A3026 -150 56 400 000/00 RMK AO2 T02000111 $
94728KNYC NYC20250808220511008/08/25 22:05:31  5-MIN KNYC 090305Z AUTO 00000KT 10SM CLR 20/11 A3026 -150 56 400 000/00 RMK AO2 T02000111 $
94728KNYC NYC20250808221011008/08/25 22:10:31  5-MIN KNYC 090310Z AUTO 00000KT 10SM CLR 21/11 A3026 -150 54 500 000/00 RMK AO2 T02060111 $
94728KNYC NYC20250808221511008/08/25 22:15:31  5-MIN KNYC 090315Z AUTO 00000KT 10SM CLR 21/12 A3026 -150 56 500 000/00 RMK AO2 T02060117 $
94728KNYC NYC20250808222011008/08/25 22:20:31  5-MIN KNYC 090320Z AUTO 00000KT 10SM CLR 20/12 A3026 -150 58 400 000/00 RMK AO2 T02000117 $
94728KNYC NYC20250808222511008/08/25 22:25:31  5-MIN KNYC 090325Z AUTO 00000KT 10SM CLR 20/12 A3026 -150 58 400 000/00 RMK AO2 T02000117 $
94728KNYC NYC20250808223011008/08/25 22:30:31  5-MIN KNYC 090330Z AUTO 00000KT 10SM CLR 20/12 A3026 -150 58 400 000/00 RMK AO2 T02000117 $
94728KNYC NYC20250808223511008/08/25 22:35:31  5-MIN KNYC 090335Z AUTO 13003KT 10SM CLR 20/12 A3026 -150 58 400 140/03 RMK AO2 T02000117 $
94728KNYC NYC20250808224011008/08/25 22:40:31  5-MIN KNYC 090340Z AUTO 00000KT 10SM CLR 19/12 A3026 -150 60 400 000/00 RMK AO2 T01940117 $
94728KNYC NYC20250808224511708/08/25 22:45:31  5-MIN KNYC 090345Z AUTO 12003KT 10SM CLR 19/12 A3026 -150 62 400 140/03 RMK AO2 SLP237 T01940122 $
94728KNYC NYC20250808225011708/08/25 22:50:31  5-MIN KNYC 090350Z AUTO 00000KT 10SM CLR 20/12 A3026 -150 60 400 000/00 RMK AO2 SLP237 T02000122 $
94728KNYC NYC20250808225511008/08/25 22:55:31  5-MIN KNYC 090355Z AUTO 00000KT 10SM CLR 19/12 A3026 -150 62 400 000/00 RMK AO2 T01940122 $
94728KNYC NYC20250808230011008/08/25 23:00:31  5-MIN KNYC 090400Z AUTO 00000KT 10SM CLR 19/12 A3026 -150 62 400 000/00 RMK AO2 T01940122 $
94728KNYC NYC20250808230511008/08/25 23:05:31  5-MIN KNYC 090405Z AUTO 00000KT 10SM CLR 19/12 A3026 -150 62 400 000/00 RMK AO2 T01940122 $
94728KNYC NYC20250808231011008/08/25 23:10:31  5-MIN KNYC 090410Z AUTO 00000KT 10SM CLR 20/12 A3026 -150 60 400 000/00 RMK AO2 T02000122 $
94728KNYC NYC20250808231511008/08/25 23:15:31  5-MIN KNYC 090415Z AUTO 00000KT 10SM CLR 20/12 A3026 -150 60 400 000/00 RMK AO2 T02000122 $
94728KNYC NYC20250808232011008/08/25 23:20:31  5-MIN KNYC 090420Z AUTO 00000KT 10SM CLR 20/12 A3026 -150 60 400 000/00 RMK AO2 T02000122 $
94728KNYC NYC20250808232511008/08/25 23:25:31  5-MIN KNYC 090425Z AUTO 00000KT 10SM CLR 20/12 A3026 -150 60 400 000/00 RMK AO2 T02000122 $
94728KNYC NYC20250808233011008/08/25 23:30:31  5-MIN KNYC 090430Z AUTO 00000KT 10SM CLR 19/12 A3026 -150 62 400 000/00 RMK AO2 T01940122 $
94728KNYC NYC20250808233511008/08/25 23:35:31  5-MIN KNYC 090435Z AUTO 00000KT 10SM CLR 19/12 A3026 -150 62 400 000/00 RMK AO2 T01940122 $
94728KNYC NYC20250808234011008/08/25 23:40:31  5-MIN KNYC 090440Z AUTO 00000KT 10SM CLR 20/12 A3026 -150 60 400 000/00 RMK AO2 T02000122 $
94728KNYC NYC20250808234512708/08/25 23:45:31  5-MIN KNYC 090445Z AUTO 00000KT 10SM CLR 20/12 A3026 -150 58 400 000/00 RMK AO2 SLP238 T02000117 402780172 $
94728KNYC NYC20250808235012708/08/25 23:50:31  5-MIN KNYC 090450Z AUTO 00000KT 10SM CLR 19/12 A3027 -150 60 400 000/00 RMK AO2 SLP238 T01940117 402780172 $
94728KNYC NYC20250808235511008/08/25 23:55:31  5-MIN KNYC 090455Z AUTO 00000KT 10SM CLR 19/12 A3026 -150 62 400 000/00 RMK AO2 T01940122 $
94728KNYC NYC20250809000011008/09/25 00:00:31  5-MIN KNYC 090500Z AUTO 00000KT 10SM CLR 19/12 A3026 -150 62 400 000/00 RMK AO2 T01940122 $
94728KNYC NYC20250809000510508/09/25 00:05:31  5-MIN KNYC 090505Z 00000KT 10SM CLR 19/13 A3026 -150 65 400 000/00 RMK AO2 T01940128 $
94728KNYC NYC20250809001011008/09/25 00:10:31  5-MIN KNYC 090510Z AUTO 04003KT 10SM CLR 19/12 A3026 -150 62 400 050/03 RMK AO2 T01940122 $
94728KNYC NYC20250809001511008/09/25 00:15:31  5-MIN KNYC 090515Z AUTO 00000KT 10SM CLR 19/12 A3026 -150 62 400 000/00 RMK AO2 T01940122 $
94728KNYC NYC20250809002011008/09/25 00:20:31  5-MIN KNYC 090520Z AUTO 00000KT 10SM CLR 19/12 A3026 -150 62 400 000/00 RMK AO2 T01940122 $
94728KNYC NYC20250809002511008/09/25 00:25:31  5-MIN KNYC 090525Z AUTO 00000KT 10SM CLR 19/12 A3026 -150 62 400 000/00 RMK AO2 T01940122 $
94728KNYC NYC20250809003011008/09/25 00:30:31  5-MIN KNYC 090530Z AUTO 00000KT 10SM CLR 19/13 A3027 -150 65 400 000/00 RMK AO2 T01940128 $
94728KNYC NYC20250809003511008/09/25 00:35:31  5-MIN KNYC 090535Z AUTO 05003KT 10SM CLR 19/13 A3026 -150 65 400 060/03 RMK AO2 T01940128 $
94728KNYC NYC20250809004011008/09/25 00:40:31  5-MIN KNYC 090540Z AUTO 00000KT 10SM CLR 19/12 A3026 -150 62 400 000/00 RMK AO2 T01940122 $
94728KNYC NYC20250809004513508/09/25 00:45:31  5-MIN KNYC 090545Z AUTO 00000KT 10SM CLR 19/12 A3026 -150 62 400 000/00 RMK AO2 SLP238 T01940122 10222 20194 58000 $
94728KNYC NYC20250809005013508/09/25 00:50:31  5-MIN KNYC 090550Z AUTO 00000KT 10SM CLR 19/12 A3026 -150 62 400 000/00 RMK AO2 SLP238 T01940122 10222 20194 58000 $
94728KNYC NYC20250809005511008/09/25 00:55:31  5-MIN KNYC 090555Z AUTO 00000KT 10SM CLR 19/12 A3026 -150 65 300 000/00 RMK AO2 T01890122 $
94728KNYC NYC20250809010011008/09/25 01:00:31  5-MIN KNYC 090600Z AUTO 03003KT 10SM CLR 19/12 A3026 -150 62 400 040/03 RMK AO2 T01940122 $
94728KNYC NYC20250809010511008/09/25 01:05:31  5-MIN KNYC 090605Z AUTO 00000KT 10SM CLR 19/13 A3026 -150 65 400 000/00 RMK AO2 T01940128 $
94728KNYC NYC20250809011011008/09/25 01:10:31  5-MIN KNYC 090610Z AUTO 00000KT 10SM CLR 19/12 A3026 -150 65 300 000/00 RMK AO2 T01890122 $
94728KNYC NYC20250809011511008/09/25 01:15:31  5-MIN KNYC 090615Z AUTO 00000KT 10SM CLR 19/12 A3026 -150 60 400 000/00 RMK AO2 T01940117 $
94728KNYC NYC20250809012011008/09/25 01:20:31  5-MIN KNYC 090620Z AUTO 00000KT 10SM CLR 20/12 A3026 -150 58 400 000/00 RMK AO2 T02000117 $
94728KNYC NYC20250809012511008/09/25 01:25:31  5-MIN KNYC 090625Z AUTO 00000KT 10SM CLR 19/12 A3026 -150 60 400 000/00 RMK AO2 T01940117 $
94728KNYC NYC20250809013011008/09/25 01:30:31  5-MIN KNYC 090630Z AUTO 00000KT 10SM CLR 19/12 A3026 -150 62 400 000/00 RMK AO2 T01940122 $
94728KNYC NYC20250809013511008/09/25 01:35:31  5-MIN KNYC 090635Z AUTO 00000KT 10SM CLR 19/12 A3026 -150 62 400 000/00 RMK AO2 T01940122 $
94728KNYC NYC20250809014011008/09/25 01:40:31  5-MIN KNYC 090640Z AUTO 00000KT 10SM CLR 19/12 A3026 -150 60 400 000/00 RMK AO2 T01940117 $
94728KNYC NYC20250809014511708/09/25 01:45:31  5-MIN KNYC 090645Z AUTO 00000KT 10SM CLR 19/12 A3026 -150 60 400 000/00 RMK AO2 SLP237 T01940117 $
94728KNYC NYC20250809015011708/09/25 01:50:31  5-MIN KNYC 090650Z AUTO 00000KT 10SM CLR 19/12 A3026 -150 60 400 000/00 RMK AO2 SLP237 T01940117 $
94728KNYC NYC20250809015511008/09/25 01:55:31  5-MIN KNYC 090655Z AUTO 00000KT 10SM CLR 19/12 A3026 -150 60 400 000/00 RMK AO2 T01940117 $
94728KNYC NYC20250809020011008/09/25 02:00:31  5-MIN KNYC 090700Z AUTO 00000KT 10SM CLR 19/12 A3026 -150 60 400 000/00 RMK AO2 T01940117 $
94728KNYC NYC20250809020511008/09/25 02:05:31  5-MIN KNYC 090705Z AUTO 00000KT 10SM CLR 19/12 A3026 -150 62 400 000/00 RMK AO2 T01940122 $
94728KNYC NYC20250809021011008/09/25 02:10:31  5-MIN KNYC 090710Z AUTO 33003KT 10SM CLR 19/12 A3026 -150 62 400 350/03 RMK AO2 T01940122 $
94728KNYC NYC20250809021511008/09/25 02:15:31  5-MIN KNYC 090715Z AUTO 00000KT 10SM CLR 19/12 A3026 -150 65 300 000/00 RMK AO2 T01890122 $
94728KNYC NYC20250809022011008/09/25 02:20:31  5-MIN KNYC 090720Z AUTO 00000KT 10SM CLR 19/13 A3026 -150 67 300 000/00 RMK AO2 T01890128 $
94728KNYC NYC20250809022511008/09/25 02:25:31  5-MIN KNYC 090725Z AUTO 00000KT 10SM CLR 19/13 A3026 -150 67 300 000/00 RMK AO2 T01890128 $
94728KNYC NYC20250809023011008/09/25 02:30:31  5-MIN KNYC 090730Z AUTO 00000KT 10SM CLR 19/12 A3026 -150 65 300 000/00 RMK AO2 T01890122 $
94728KNYC NYC20250809023511008/09/25 02:35:31  5-MIN KNYC 090735Z AUTO 00000KT 10SM CLR 19/12 A3026 -150 65 300 000/00 RMK AO2 T01890122 $
94728KNYC NYC20250809024011008/09/25 02:40:31  5-MIN KNYC 090740Z AUTO 00000KT 10SM CLR 19/12 A3026 -150 65 300 000/00 RMK AO2 T01890122 $
94728KNYC NYC20250809024511708/09/25 02:45:31  5-MIN KNYC 090745Z AUTO 00000KT 10SM CLR 19/12 A3026 -150 65 300 000/00 RMK AO2 SLP238 T01890122 $
94728KNYC NYC20250809025011708/09/25 02:50:31  5-MIN KNYC 090750Z AUTO 00000KT 10SM CLR 19/12 A3026 -150 65 300 000/00 RMK AO2 SLP237 T01890122 $
94728KNYC NYC20250809025511008/09/25 02:55:31  5-MIN KNYC 090755Z AUTO 00000KT 10SM CLR 19/12 A3026 -150 62 300 000/00 RMK AO2 T01890117 $
94728KNYC NYC20250809030011008/09/25 03:00:31  5-MIN KNYC 090800Z AUTO 00000KT 10SM CLR 19/12 A3026 -150 65 300 000/00 RMK AO2 T01890122 $
94728KNYC NYC20250809030511008/09/25 03:05:31  5-MIN KNYC 090805Z AUTO 00000KT 10SM CLR 19/12 A3026 -150 62 300 000/00 RMK AO2 T01890117 $
94728KNYC NYC20250809031011008/09/25 03:10:31  5-MIN KNYC 090810Z AUTO 00000KT 10SM CLR 19/12 A3026 -150 62 300 000/00 RMK AO2 T01890117 $
94728KNYC NYC20250809031511008/09/25 03:15:31  5-MIN KNYC 090815Z AUTO 00000KT 10SM CLR 19/12 A3026 -150 65 300 000/00 RMK AO2 T01890122 $
94728KNYC NYC20250809032011008/09/25 03:20:31  5-MIN KNYC 090820Z AUTO 00000KT 10SM CLR 18/12 A3026 -150 67 200 000/00 RMK AO2 T01830122 $
94728KNYC NYC20250809032511008/09/25 03:25:31  5-MIN KNYC 090825Z AUTO VRB03KT 10SM CLR 18/12 A3027 -150 67 200 VRB/03 RMK AO2 T01830122 $
94728KNYC NYC20250809033011008/09/25 03:30:31  5-MIN KNYC 090830Z AUTO 00000KT 10SM CLR 18/12 A3027 -160 67 200 000/00 RMK AO2 T01830122 $
94728KNYC NYC20250809033511008/09/25 03:35:31  5-MIN KNYC 090835Z AUTO 00000KT 10SM CLR 19/12 A3027 -160 65 300 000/00 RMK AO2 T01890122 $
94728KNYC NYC20250809034011008/09/25 03:40:31  5-MIN KNYC 090840Z AUTO 00000KT 10SM CLR 19/12 A3027 -160 65 300 000/00 RMK AO2 T01890122 $
94728KNYC NYC20250809034512308/09/25 03:45:31  5-MIN KNYC 090845Z AUTO 00000KT 10SM CLR 18/12 A3027 -160 67 200 000/00 RMK AO2 SLP241 T01830122 53001 $
94728KNYC NYC20250809035012308/09/25 03:50:31  5-MIN KNYC 090850Z AUTO 00000KT 10SM CLR 19/12 A3027 -160 65 300 000/00 RMK AO2 SLP241 T01890122 53001 $
94728KNYC NYC20250809035511008/09/25 03:55:31  5-MIN KNYC 090855Z AUTO 31003KT 10SM CLR 18/12 A3027 -160 65 200 320/03 RMK AO2 T01830117 $
94728KNYC NYC20250809040011008/09/25 04:00:31  5-MIN KNYC 090900Z AUTO 30003KT 10SM CLR 19/12 A3027 -160 62 300 310/03 RMK AO2 T01890117 $
94728KNYC NYC20250809040511008/09/25 04:05:31  5-MIN KNYC 090905Z AUTO 00000KT 10SM CLR 19/12 A3027 -160 62 300 000/00 RMK AO2 T01890117 $
94728KNYC NYC20250809041011008/09/25 04:10:31  5-MIN KNYC 090910Z AUTO 00000KT 10SM CLR 19/12 A3027 -160 62 300 000/00 RMK AO2 T01890117 $
94728KNYC NYC20250809041511008/09/25 04:15:31  5-MIN KNYC 090915Z AUTO 34003KT 10SM CLR 18/12 A3027 -160 67 200 350/03 RMK AO2 T01830122 $
94728KNYC NYC20250809042011008/09/25 04:20:31  5-MIN KNYC 090920Z AUTO 00000KT 10SM CLR 18/12 A3027 -160 67 200 000/00 RMK AO2 T01830122 $
94728KNYC NYC20250809042511008/09/25 04:25:31  5-MIN KNYC 090925Z AUTO 00000KT 10SM CLR 18/12 A3027 -160 67 200 000/00 RMK AO2 T01830122 $
94728KNYC NYC20250809043011008/09/25 04:30:31  5-MIN KNYC 090930Z AUTO 00000KT 10SM CLR 18/12 A3027 -160 67 200 000/00 RMK AO2 T01830122 $
94728KNYC NYC20250809043511008/09/25 04:35:31  5-MIN KNYC 090935Z AUTO 00000KT 10SM CLR 18/12 A3027 -160 67 200 000/00 RMK AO2 T01780117 $
94728KNYC NYC20250809044011008/09/25 04:40:31  5-MIN KNYC 090940Z AUTO 00000KT 10SM CLR 18/12 A3027 -160 67 200 000/00 RMK AO2 T01780117 $
94728KNYC NYC20250809044511708/09/25 04:45:31  5-MIN KNYC 090945Z AUTO 00000KT 10SM CLR 18/12 A3027 -160 67 200 000/00 RMK AO2 SLP241 T01780117 $
94728KNYC NYC20250809045011708/09/25 04:50:31  5-MIN KNYC 090950Z AUTO 00000KT 10SM CLR 18/12 A3027 -160 69 200 000/00 RMK AO2 SLP241 T01780122 $
94728KNYC NYC20250809045511008/09/25 04:55:31  5-MIN KNYC 090955Z AUTO VRB03KT 10SM CLR 18/12 A3027 -160 69 200 VRB/03 RMK AO2 T01780122 $
94728KNYC NYC20250809050011008/09/25 05:00:31  5-MIN KNYC 091000Z AUTO 00000KT 10SM CLR 18/13 A3027 -160 70 200 000/00 RMK AO2 T01830128 $
94728KNYC NYC20250809050511008/09/25 05:05:31  5-MIN KNYC 091005Z AUTO 00000KT 10SM CLR 18/12 A3027 -160 69 200 000/00 RMK AO2 T01780122 $
94728KNYC NYC20250809051011008/09/25 05:10:31  5-MIN KNYC 091010Z AUTO 01003KT 10SM CLR 18/12 A3027 -160 69 200 020/03 RMK AO2 T01780122 $
94728KNYC NYC20250809051511008/09/25 05:15:31  5-MIN KNYC 091015Z AUTO 01003KT 10SM CLR 18/12 A3027 -160 67 200 030/03 RMK AO2 T01830122 $
94728KNYC NYC20250809052011008/09/25 05:20:31  5-MIN KNYC 091020Z AUTO 00000KT 10SM CLR 18/12 A3027 -160 67 200 000/00 RMK AO2 T01830122 $
94728KNYC NYC20250809052511008/09/25 05:25:31  5-MIN KNYC 091025Z AUTO 00000KT 10SM CLR 18/12 A3028 -160 69 200 000/00 RMK AO2 T01780122 $
94728KNYC NYC20250809053011008/09/25 05:30:31  5-MIN KNYC 091030Z AUTO 00000KT 10SM CLR 18/12 A3028 -160 69 200 000/00 RMK AO2 T01780122 $
94728KNYC NYC20250809053511008/09/25 05:35:31  5-MIN KNYC 091035Z AUTO 00000KT 10SM CLR 18/12 A3028 -170 69 200 000/00 RMK AO2 T01780122 $
94728KNYC NYC20250809054011008/09/25 05:40:31  5-MIN KNYC 091040Z AUTO 00000KT 10SM CLR 18/12 A3027 -160 67 200 000/00 RMK AO2 T01830122 $
94728KNYC NYC20250809054511708/09/25 05:45:31  5-MIN KNYC 091045Z AUTO 00000KT 10SM CLR 18/12 A3028 -160 67 200 000/00 RMK AO2 SLP243 T01830122 $
94728KNYC NYC20250809055011708/09/25 05:50:31  5-MIN KNYC 091050Z AUTO 00000KT 10SM CLR 18/12 A3027 -160 67 200 000/00 RMK AO2 SLP243 T01830122 $
94728KNYC NYC20250809055511008/09/25 05:55:31  5-MIN KNYC 091055Z AUTO 00000KT 10SM CLR 19/12 A3027 -160 65 300 000/00 RMK AO2 T01890122 $
94728KNYC NYC20250809060011008/09/25 06:00:31  5-MIN KNYC 091100Z AUTO 00000KT 10SM CLR 19/13 A3027 -160 67 300 000/00 RMK AO2 T01890128 $
94728KNYC NYC20250809060511008/09/25 06:05:31  5-MIN KNYC 091105Z AUTO 00000KT 10SM CLR 19/13 A3027 -160 67 300 000/00 RMK AO2 T01890128 $
94728KNYC NYC20250809061011008/09/25 06:10:31  5-MIN KNYC 091110Z AUTO 00000KT 10SM CLR 19/13 A3027 -160 67 300 000/00 RMK AO2 T01890128 $
94728KNYC NYC20250809061511008/09/25 06:15:31  5-MIN KNYC 091115Z AUTO 00000KT 10SM CLR 19/13 A3027 -160 67 300 000/00 RMK AO2 T01890128 $
94728KNYC NYC20250809062011008/09/25 06:20:31  5-MIN KNYC 091120Z AUTO 00000KT 10SM CLR 19/13 A3027 -160 67 400 000/00 RMK AO2 T01940133 $
94728KNYC NYC20250809062511008/09/25 06:25:31  5-MIN KNYC 091125Z AUTO 00000KT 10SM CLR 19/13 A3027 -160 67 400 000/00 RMK AO2 T01940133 $
94728KNYC NYC20250809063011008/09/25 06:30:31  5-MIN KNYC 091130Z AUTO 00000KT 10SM CLR 19/13 A3027 -160 67 400 000/00 RMK AO2 T01940133 $
94728KNYC NYC20250809063511008/09/25 06:35:31  5-MIN KNYC 091135Z AUTO 00000KT 10SM CLR 19/13 A3027 -160 67 400 000/00 RMK AO2 T01940133 $
94728KNYC NYC20250809064011008/09/25 06:40:31  5-MIN KNYC 091140Z AUTO 00000KT 10SM CLR 20/13 A3027 -160 65 400 000/00 RMK AO2 T02000133 $
94728KNYC NYC20250809064513508/09/25 06:45:31  5-MIN KNYC 091145Z AUTO 00000KT 10SM CLR 20/13 A3028 -160 65 400 000/00 RMK AO2 SLP243 T02000133 10200 20178 53002 $
94728KNYC NYC20250809065013508/09/25 06:50:31  5-MIN KNYC 091150Z AUTO 00000KT 10SM CLR 20/13 A3028 -170 65 400 000/00 RMK AO2 SLP244 T02000133 10200 20178 53002 $
94728KNYC NYC20250809065511008/09/25 06:55:31  5-MIN KNYC 091155Z AUTO 00000KT 10SM CLR 21/13 A3028 -170 63 500 000/00 RMK AO2 T02060133 $
94728KNYC NYC20250809070011008/09/25 07:00:31  5-MIN KNYC 091200Z AUTO 00000KT 10SM CLR 21/13 A3028 -170 63 500 000/00 RMK AO2 T02060133 $
94728KNYC NYC20250809070511008/09/25 07:05:31  5-MIN KNYC 091205Z AUTO VRB03KT 10SM CLR 21/13 A3028 -170 63 500 VRB/03 RMK AO2 T02060133 $
94728KNYC NYC20250809071011008/09/25 07:10:31  5-MIN KNYC 091210Z AUTO 00000KT 10SM CLR 21/13 A3028 -170 58 500 000/00 RMK AO2 T02110128 $
94728KNYC NYC20250809071511008/09/25 07:15:31  5-MIN KNYC 091215Z AUTO 00000KT 10SM CLR 21/13 A3028 -170 58 500 000/00 RMK AO2 T02110128 $
94728KNYC NYC20250809072011008/09/25 07:20:31  5-MIN KNYC 091220Z AUTO 06003KT 10SM CLR 21/13 A3028 -170 61 500 070/03 RMK AO2 T02110133 $
94728KNYC NYC20250809072511008/09/25 07:25:31  5-MIN KNYC 091225Z AUTO 05003KT 10SM CLR 21/13 A3028 -170 58 500 070/03 RMK AO2 T02110128 $
94728KNYC NYC20250809073011008/09/25 07:30:31  5-MIN KNYC 091230Z AUTO 06004KT 10SM CLR 22/13 A3028 -170 56 600 070/04 RMK AO2 T02170128 $
94728KNYC NYC20250809073511008/09/25 07:35:31  5-MIN KNYC 091235Z AUTO VRB03KT 10SM CLR 22/12 A3028 -170 54 600 VRB/03 RMK AO2 T02170122 $
94728KNYC NYC20250809074011008/09/25 07:40:31  5-MIN KNYC 091240Z AUTO 06004KT 10SM CLR 22/12 A3028 -170 54 600 070/04 RMK AO2 T02170122 $
94728KNYC NYC20250809074511708/09/25 07:45:31  5-MIN KNYC 091245Z AUTO VRB03KT 10SM CLR 22/12 A3028 -170 51 700 VRB/03 RMK AO2 SLP245 T02220117 $
94728KNYC NYC20250809075011708/09/25 07:50:31  5-MIN KNYC 091250Z AUTO VRB03KT 10SM CLR 22/12 A3028 -170 52 700 VRB/03 RMK AO2 SLP245 T02220122 $
94728KNYC NYC20250809075511008/09/25 07:55:31  5-MIN KNYC 091255Z AUTO VRB03KT 10SM CLR 22/12 A3028 -170 52 700 VRB/03 RMK AO2 T02220122 $
94728KNYC NYC20250809080011008/09/25 08:00:31  5-MIN KNYC 091300Z AUTO VRB03KT 10SM CLR 23/12 A3028 -170 51 700 VRB/03 RMK AO2 T02280122 $
94728KNYC NYC20250809080511008/09/25 08:05:31  5-MIN KNYC 091305Z AUTO 07004KT 10SM CLR 23/12 A3028 -170 51 700 080/04 RMK AO2 T02280122 $
94728KNYC NYC20250809081011008/09/25 08:10:31  5-MIN KNYC 091310Z AUTO 00000KT 10SM CLR 23/12 A3028 -170 51 700 000/00 RMK AO2 T02280122 $
94728KNYC NYC20250809081511008/09/25 08:15:31  5-MIN KNYC 091315Z AUTO 00000KT 10SM CLR 23/12 A3028 -170 51 700 000/00 RMK AO2 T02280122 $
94728KNYC NYC20250809082011008/09/25 08:20:31  5-MIN KNYC 091320Z AUTO 00000KT 10SM CLR 23/12 A3028 -170 51 700 000/00 RMK AO2 T02280122 $
94728KNYC NYC20250809082511008/09/25 08:25:31  5-MIN KNYC 091325Z AUTO 00000KT 10SM CLR 23/13 A3028 -170 53 700 000/00 RMK AO2 T02280128 $
94728KNYC NYC20250809083011008/09/25 08:30:31  5-MIN KNYC 091330Z AUTO 00000KT 10SM CLR 23/12 A3029 -170 51 700 000/00 RMK AO2 T02280122 $
94728KNYC NYC20250809083511008/09/25 08:35:31  5-MIN KNYC 091335Z AUTO VRB03KT 10SM CLR 23/12 A3029 -170 49 800 VRB/03 RMK AO2 T02330122 $
94728KNYC NYC20250809084011008/09/25 08:40:31  5-MIN KNYC 091340Z AUTO 03003KT 10SM CLR 23/12 A3029 -170 47 800 040/03 RMK AO2 T02330117 $
94728KNYC NYC20250809084511708/09/25 08:45:31  5-MIN KNYC 091345Z AUTO 00000KT 10SM CLR 23/12 A3029 -170 47 800 000/00 RMK AO2 SLP247 T02330117 $
94728KNYC NYC20250809085011708/09/25 08:50:31  5-MIN KNYC 091350Z AUTO 00000KT 10SM CLR 23/12 A3029 -170 49 800 000/00 RMK AO2 SLP246 T02330122 $
94728KNYC NYC20250809085511008/09/25 08:55:31  5-MIN KNYC 091355Z AUTO 00000KT 10SM CLR 24/12 A3029 -170 46 900 000/00 RMK AO2 T02390117 $
94728KNYC NYC20250809090011008/09/25 09:00:31  5-MIN KNYC 091400Z AUTO VRB03KT 10SM CLR 24/12 A3029 -170 46 900 VRB/03 RMK AO2 T02390117 $
94728KNYC NYC20250809090511008/09/25 09:05:31  5-MIN KNYC 091405Z AUTO VRB03KT 10SM CLR 24/12 A3028 -170 47 900 VRB/03 RMK AO2 T02390122 $
94728KNYC NYC20250809091011008/09/25 09:10:31  5-MIN KNYC 091410Z AUTO 07003KT 10SM CLR 24/12 A3028 -170 47 900 080/03 RMK AO2 T02390122 $
94728KNYC NYC20250809091511008/09/25 09:15:31  5-MIN KNYC 091415Z AUTO 00000KT 10SM CLR 24/12 A3028 -170 46 900 000/00 RMK AO2 T02440122 $
94728KNYC NYC20250809092011008/09/25 09:20:31  5-MIN KNYC 091420Z AUTO VRB03KT 10SM CLR 24/12 A3028 -170 46 900 VRB/03 RMK AO2 T02440122 $
94728KNYC NYC20250809092511008/09/25 09:25:31  5-MIN KNYC 091425Z AUTO VRB04KT 10SM CLR 24/12 A3028 -170 46 900 VRB/04 RMK AO2 T02440122 $
94728KNYC NYC20250809093011108/09/25 09:30:31  5-MIN KNYC 091430Z AUTO VRB03KT 10SM CLR 25/12 A3029 -170 44 1000 VRB/03 RMK AO2 T02500122 $
94728KNYC NYC20250809093511108/09/25 09:35:31  5-MIN KNYC 091435Z AUTO VRB03KT 10SM CLR 25/12 A3029 -170 44 1000 VRB/03 RMK AO2 T02500122 $
94728KNYC NYC20250809094011108/09/25 09:40:31  5-MIN KNYC 091440Z AUTO 00000KT 10SM CLR 25/12 A3029 -170 43 1000 000/00 RMK AO2 T02500117 $
94728KNYC NYC20250809094512408/09/25 09:45:31  5-MIN KNYC 091445Z AUTO 07003KT 10SM CLR 25/12 A3029 -170 43 1000 080/03 RMK AO2 SLP246 T02500117 53003 $
94728KNYC NYC20250809095012408/09/25 09:50:31  5-MIN KNYC 091450Z AUTO VRB04KT 10SM CLR 26/12 A3028 -170 43 1000 VRB/04 RMK AO2 SLP244 T02560122 53003 $
94728KNYC NYC20250809095511108/09/25 09:55:31  5-MIN KNYC 091455Z AUTO 07004KT 10SM CLR 26/12 A3028 -170 43 1000 090/04 RMK AO2 T02560122 $
94728KNYC NYC20250809100011108/09/25 10:00:31  5-MIN KNYC 091500Z AUTO VRB03KT 10SM CLR 26/12 A3028 -170 41 1000 VRB/03 RMK AO2 T02560117 $
94728KNYC NYC20250809100511108/09/25 10:05:31  5-MIN KNYC 091505Z AUTO VRB03KT 10SM CLR 25/12 A3028 -170 44 1000 VRB/03 RMK AO2 T02500122 $
94728KNYC NYC20250809101011108/09/25 10:10:31  5-MIN KNYC 091510Z AUTO VRB03KT 10SM CLR 26/12 A3028 -170 43 1000 VRB/03 RMK AO2 T02560122 $
94728KNYC NYC20250809101510108/09/25 10:15:31  5-MIN KNYC 091515Z AUTO 10SM CLR 25/12 A3028 -170 44 1000 M /M RMK AO2 T02500122 $
94728KNYC NYC20250809102011108/09/25 10:20:31  5-MIN KNYC 091520Z AUTO VRB03KT 10SM CLR 26/12 A3028 -170 41 1100 VRB/03 RMK AO2 T02610122 $
94728KNYC NYC20250809102511108/09/25 10:25:31  5-MIN KNYC 091525Z AUTO 00000KT 10SM CLR 26/12 A3028 -170 41 1100 000/00 RMK AO2 T02560117 $
94728KNYC NYC20250809103011108/09/25 10:30:31  5-MIN KNYC 091530Z AUTO 14004KT 10SM CLR 26/12 A3028 -170 41 1100 150/04 RMK AO2 T02560117 $
94728KNYC NYC20250809103511108/09/25 10:35:31  5-MIN KNYC 091535Z AUTO 00000KT 10SM CLR 25/11 A3028 -170 41 1000 000/00 RMK AO2 T02500111 $
94728KNYC NYC20250809104011108/09/25 10:40:31  5-MIN KNYC 091540Z AUTO 07003KT 10SM CLR 27/11 A3028 -170 37 1200 080/03 RMK AO2 T02670111 $
94728KNYC NYC20250809104511808/09/25 10:45:31  5-MIN KNYC 091545Z AUTO 00000KT 10SM CLR 27/11 A3028 -170 37 1200 000/00 RMK AO2 SLP242 T02670111 $
94728KNYC NYC20250809105013408/09/25 10:50:31  5-MIN KNYC 091550Z AUTO 07007KT 030V130 10SM CLR 27/12 A3028 -160 38 1200 080/07 040V140 RMK AO2 SLP242 T02670117 $
94728KNYC NYC20250809105511108/09/25 10:55:31  5-MIN KNYC 091555Z AUTO 07004KT 10SM CLR 27/11 A3027 -160 34 1200 090/04 RMK AO2 T02720106 $
94728KNYC NYC20250809110011108/09/25 11:00:31  5-MIN KNYC 091600Z AUTO VRB03KT 10SM CLR 27/11 A3027 -160 36 1200 VRB/03 RMK AO2 T02670106 $
94728KNYC NYC20250809110511108/09/25 11:05:31  5-MIN KNYC 091605Z AUTO 04005KT 10SM CLR 27/10 A3027 -160 33 1200 060/05 RMK AO2 T02720100 $
94728KNYC NYC20250809111011108/09/25 11:10:31  5-MIN KNYC 091610Z AUTO 04004KT 10SM CLR 27/10 A3027 -160 33 1200 050/04 RMK AO2 T02720100 $
94728KNYC NYC20250809111511108/09/25 11:15:31  5-MIN KNYC 091615Z AUTO 06006KT 10SM CLR 28/09 A3027 -160 31 1300 070/06 RMK AO2 T02780094 $
94728KNYC NYC20250809112011108/09/25 11:20:31  5-MIN KNYC 091620Z AUTO 05006KT 10SM CLR 28/09 A3027 -160 31 1300 060/06 RMK AO2 T02780094 $
94728KNYC NYC20250809112511108/09/25 11:25:31  5-MIN KNYC 091625Z AUTO VRB04KT 10SM CLR 28/09 A3027 -160 31 1300 VRB/04 RMK AO2 T02780094 $
94728KNYC NYC20250809113011108/09/25 11:30:31  5-MIN KNYC 091630Z AUTO 00000KT 10SM CLR 27/10 A3026 -150 34 1200 000/00 RMK AO2 T02670100 $
94728KNYC NYC20250809113510108/09/25 11:35:31  5-MIN KNYC 091635Z AUTO 10SM CLR 27/10 A3026 -150 34 1200 M /M RMK AO2 T02670100 $
94728KNYC NYC20250809114011108/09/25 11:40:31  5-MIN KNYC 091640Z AUTO 07006KT 10SM CLR 27/10 A3026 -150 33 1300 080/06 RMK AO2 T02720100 $
94728KNYC NYC20250809114511808/09/25 11:45:31  5-MIN KNYC 091645Z AUTO VRB04KT 10SM CLR 28/09 A3026 -150 30 1400 VRB/04 RMK AO2 SLP238 T02830094 $
94728KNYC NYC20250809115011808/09/25 11:50:31  5-MIN KNYC 091650Z AUTO 00000KT 10SM CLR 28/09 A3026 -150 30 1400 000/00 RMK AO2 SLP237 T02830094 $
94728KNYC NYC20250809115511108/09/25 11:55:31  5-MIN KNYC 091655Z AUTO VRB03KT 10SM CLR 28/09 A3026 -150 31 1300 VRB/03 RMK AO2 T02780094 $
94728KNYC NYC20250809120010108/09/25 12:00:31  5-MIN KNYC 091700Z AUTO 10SM CLR 28/09 A3026 -150 30 1300 M /M RMK AO2 T02780089 $
94728KNYC NYC20250809120511108/09/25 12:05:31  5-MIN KNYC 091705Z AUTO VRB04KT 10SM CLR 27/09 A3026 -150 31 1300 VRB/04 RMK AO2 T02720089 $
94728KNYC NYC20250809121011108/09/25 12:10:31  5-MIN KNYC 091710Z AUTO VRB03KT 10SM CLR 28/09 A3025 -140 29 1400 VRB/03 RMK AO2 T02830089 $
94728KNYC NYC20250809121511108/09/25 12:15:31  5-MIN KNYC 091715Z AUTO VRB04KT 10SM CLR 28/09 A3025 -140 31 1300 VRB/04 RMK AO2 T02780094 $
94728KNYC NYC20250809122011108/09/25 12:20:31  5-MIN KNYC 091720Z AUTO VRB03KT 10SM CLR 28/09 A3025 -140 29 1400 VRB/03 RMK AO2 T02830089 $
94728KNYC NYC20250809122511108/09/25 12:25:31  5-MIN KNYC 091725Z AUTO VRB05KT 10SM CLR 28/08 A3025 -140 29 1300 VRB/05 RMK AO2 T02780083 $
94728KNYC NYC20250809123011108/09/25 12:30:31  5-MIN KNYC 091730Z AUTO VRB04KT 10SM CLR 29/09 A3025 -140 28 1500 VRB/04 RMK AO2 T02890089 $
94728KNYC NYC20250809123512708/09/25 12:35:31  5-MIN KNYC 091735Z AUTO 08007KT 030V110 10SM CLR 28/08 A3025 -140 28 1400 090/07 040V120 RMK AO2 T02830083 $
94728KNYC NYC20250809124010108/09/25 12:40:31  5-MIN KNYC 091740Z AUTO 10SM CLR 28/08 A3024 -140 27 1400 M /M RMK AO2 T02830078 $
94728KNYC NYC20250809124513608/09/25 12:45:31  5-MIN KNYC 091745Z AUTO VRB05KT 10SM CLR 29/08 A3024 -130 27 1500 VRB/05 RMK AO2 SLP231 T02890083 10289 20206 50002 $
94728KNYC NYC20250809125013608/09/25 12:50:31  5-MIN KNYC 091750Z AUTO VRB05KT 10SM CLR 29/08 A3024 -130 25 1500 VRB/05 RMK AO2 SLP230 T02940078 10294 20206 50002 $
94728KNYC NYC20250809125511108/09/25 12:55:31  5-MIN KNYC 091755Z AUTO VRB03KT 10SM CLR 28/09 A3024 -130 29 1400 VRB/03 RMK AO2 T02830089 $
94728KNYC NYC20250809130011108/09/25 13:00:31  5-MIN KNYC 091800Z AUTO 02004KT 10SM CLR 29/08 A3024 -130 26 1500 030/04 RMK AO2 T02940083 $
94728KNYC NYC20250809130510108/09/25 13:05:31  5-MIN KNYC 091805Z AUTO 10SM CLR 29/08 A3024 -130 26 1500 M /M RMK AO2 T02890078 $
94728KNYC NYC20250809131011108/09/25 13:10:31  5-MIN KNYC 091810Z AUTO 00000KT 10SM CLR 29/07 A3024 -130 25 1500 000/00 RMK AO2 T02890072 $
94728KNYC NYC20250809131511108/09/25 13:15:31  5-MIN KNYC 091815Z AUTO 05005KT 10SM CLR 29/08 A3023 -120 27 1500 060/05 RMK AO2 T02890083 $
94728KNYC NYC20250809132011108/09/25 13:20:31  5-MIN KNYC 091820Z AUTO 07006KT 10SM CLR 29/07 A3023 -120 25 1500 080/06 RMK AO2 T02890072 $
94728KNYC NYC20250809132511108/09/25 13:25:31  5-MIN KNYC 091825Z AUTO VRB05KT 10SM CLR 28/07 A3023 -130 25 1400 VRB/05 RMK AO2 T02830067 $
94728KNYC NYC20250809133010108/09/25 13:30:31  5-MIN KNYC 091830Z AUTO 10SM CLR 28/04 A3023 -130 21 1400 M /M RMK AO2 T02830044 $
94728KNYC NYC20250809133510108/09/25 13:35:31  5-MIN KNYC 091835Z AUTO 10SM CLR 29/04 A3023 -120 20 1500 M /M RMK AO2 T02890039 $
94728KNYC NYC20250809134011108/09/25 13:40:31  5-MIN KNYC 091840Z AUTO VRB04KT 10SM CLR 28/05 A3023 -120 22 1400 VRB/04 RMK AO2 T02830050 $
94728KNYC NYC20250809134511808/09/25 13:45:31  5-MIN KNYC 091845Z AUTO 04004KT 10SM CLR 29/05 A3023 -120 21 1500 050/04 RMK AO2 SLP226 T02940050 $
94728KNYC NYC20250809135011808/09/25 13:50:31  5-MIN KNYC 091850Z AUTO 04006KT 10SM CLR 29/05 A3023 -120 21 1500 050/06 RMK AO2 SLP226 T02940050 $
94728KNYC NYC20250809135511108/09/25 13:55:31  5-MIN KNYC 091855Z AUTO VRB05KT 10SM CLR 29/06 A3023 -120 22 1500 VRB/05 RMK AO2 T02890056 $
94728KNYC NYC20250809140011108/09/25 14:00:31  5-MIN KNYC 091900Z AUTO 00000KT 10SM CLR 29/07 A3023 -120 23 1500 000/00 RMK AO2 T02940067 $
94728KNYC NYC20250809140510108/09/25 14:05:31  5-MIN KNYC 091905Z AUTO 10SM CLR 28/08 A3022 -120 28 1400 M /M RMK AO2 T02830083 $
94728KNYC NYC20250809141011108/09/25 14:10:31  5-MIN KNYC 091910Z AUTO VRB04KT 10SM CLR 29/09 A3022 -110 28 1500 VRB/04 RMK AO2 T02890089 $
94728KNYC NYC20250809141511108/09/25 14:15:31  5-MIN KNYC 091915Z AUTO VRB04KT 10SM CLR 28/09 A3022 -110 30 1400 VRB/04 RMK AO2 T02830094 $
94728KNYC NYC20250809142011108/09/25 14:20:31  5-MIN KNYC 091920Z AUTO VRB03KT 10SM CLR 28/11 A3022 -110 33 1400 VRB/03 RMK AO2 T02830111 $
94728KNYC NYC20250809142511108/09/25 14:25:31  5-MIN KNYC 091925Z AUTO 19004KT 10SM CLR 28/13 A3022 -110 39 1400 200/04 RMK AO2 T02780128 $
94728KNYC NYC20250809143011108/09/25 14:30:31  5-MIN KNYC 091930Z AUTO 00000KT 10SM CLR 27/13 A3022 -110 40 1300 000/00 RMK AO2 T02720128 $
94728KNYC NYC20250809143511108/09/25 14:35:31  5-MIN KNYC 091935Z AUTO VRB03KT 10SM CLR 27/13 A3022 -110 42 1300 VRB/03 RMK AO2 T02720133 $
94728KNYC NYC20250809144011108/09/25 14:40:31  5-MIN KNYC 091940Z AUTO VRB03KT 10SM CLR 28/13 A3022 -110 39 1400 VRB/03 RMK AO2 T02780128 $
94728KNYC NYC20250809144511808/09/25 14:45:31  5-MIN KNYC 091945Z AUTO VRB03KT 10SM CLR 27/13 A3021 -110 40 1300 VRB/03 RMK AO2 SLP221 T02720128 $
94728KNYC NYC20250809145011808/09/25 14:50:31  5-MIN KNYC 091950Z AUTO 00000KT 10SM CLR 28/13 A3021 -110 39 1400 000/00 RMK AO2 SLP221 T02780128 $
94728KNYC NYC20250809145511108/09/25 14:55:31  5-MIN KNYC 091955Z AUTO 13004KT 10SM CLR 28/13 A3021 -110 39 1400 150/04 RMK AO2 T02780128 $
94728KNYC NYC20250809150011108/09/25 15:00:31  5-MIN KNYC 092000Z AUTO VRB04KT 10SM CLR 27/13 A3021 -110 40 1300 VRB/04 RMK AO2 T02720128 $
94728KNYC NYC20250809150510108/09/25 15:05:31  5-MIN KNYC 092005Z AUTO 10SM CLR 27/13 A3021 -110 40 1300 M /M RMK AO2 T02720128 $
94728KNYC NYC20250809151011108/09/25 15:10:31  5-MIN KNYC 092010Z AUTO 13005KT 10SM CLR 28/12 A3022 -110 37 1400 150/05 RMK AO2 T02780122 $
94728KNYC NYC20250809151511108/09/25 15:15:31  5-MIN KNYC 092015Z AUTO 00000KT 10SM CLR 27/12 A3022 -110 39 1300 000/00 RMK AO2 T02720122 $
94728KNYC NYC20250809152011108/09/25 15:20:31  5-MIN KNYC 092020Z AUTO 00000KT 10SM CLR 27/13 A3021 -100 40 1300 000/00 RMK AO2 T02720128 $
94728KNYC NYC20250809152510108/09/25 15:25:31  5-MIN KNYC 092025Z AUTO 10SM CLR 27/13 A3021 -100 40 1300 M /M RMK AO2 T02720128 $
94728KNYC NYC20250809153011108/09/25 15:30:31  5-MIN KNYC 092030Z AUTO VRB03KT 10SM CLR 27/12 A3021 -100 40 1300 VRB/03 RMK AO2 T02670122 $
94728KNYC NYC20250809153511108/09/25 15:35:31  5-MIN KNYC 092035Z AUTO 00000KT 10SM CLR 27/12 A3021 -100 39 1300 000/00 RMK AO2 T02720122 $
94728KNYC NYC20250809154011108/09/25 15:40:31  5-MIN KNYC 092040Z AUTO 14004KT 10SM CLR 27/12 A3021 -100 37 1300 150/04 RMK AO2 T02720117 $
94728KNYC NYC20250809154512408/09/25 15:45:31  5-MIN KNYC 092045Z AUTO VRB04KT 10SM CLR 27/12 A3021 -100 37 1300 VRB/04 RMK AO2 SLP220 T02720117 58014 $
94728KNYC NYC20250809155012408/09/25 15:50:31  5-MIN KNYC 092050Z AUTO 00000KT 10SM CLR 27/12 A3021 -100 37 1300 000/00 RMK AO2 SLP218 T02720117 58014 $
94728KNYC NYC20250809155510108/09/25 15:55:31  5-MIN KNYC 092055Z AUTO 10SM CLR 27/12 A3021 -100 39 1300 M /M RMK AO2 T02720122 $
94728KNYC NYC20250809160011108/09/25 16:00:31  5-MIN KNYC 092100Z AUTO 00000KT 10SM CLR 27/12 A3021 -100 37 1300 000/00 RMK AO2 T02720117 $
94728KNYC NYC20250809160510108/09/25 16:05:31  5-MIN KNYC 092105Z AUTO 10SM CLR 27/12 A3021 -100 40 1300 M /M RMK AO2 T02670122 $
94728KNYC NYC20250809161010108/09/25 16:10:31  5-MIN KNYC 092110Z AUTO 10SM CLR 27/12 A3021 -100 40 1300 M /M RMK AO2 T02670122 $
94728KNYC NYC20250809161511108/09/25 16:15:31  5-MIN KNYC 092115Z AUTO VRB04KT 10SM CLR 27/12 A3021 -100 40 1300 VRB/04 RMK AO2 T02670122 $
94728KNYC NYC20250809162011108/09/25 16:20:31  5-MIN KNYC 092120Z AUTO VRB03KT 10SM CLR 27/12 A3021 -100 38 1300 VRB/03 RMK AO2 T02670117 $
94728KNYC NYC20250809162510108/09/25 16:25:31  5-MIN KNYC 092125Z AUTO 10SM CLR 26/12 A3021 -110 41 1200 M /M RMK AO2 T02610122 $
94728KNYC NYC20250809163011108/09/25 16:30:31  5-MIN KNYC 092130Z AUTO VRB05KT 10SM CLR 26/12 A3022 -110 40 1200 VRB/05 RMK AO2 T02610117 $
94728KNYC NYC20250809163510108/09/25 16:35:31  5-MIN KNYC 092135Z AUTO 10SM CLR 26/12 A3022 -110 41 1100 M /M RMK AO2 T02560117 $
94728KNYC NYC20250809164011108/09/25 16:40:31  5-MIN KNYC 092140Z AUTO VRB04KT 10SM CLR 26/12 A3022 -110 43 1100 VRB/04 RMK AO2 T02560122 $
94728KNYC NYC20250809164511808/09/25 16:45:31  5-MIN KNYC 092145Z AUTO VRB04KT 10SM CLR 26/12 A3022 -110 41 1100 VRB/04 RMK AO2 SLP225 T02560117 $
94728KNYC NYC20250809165011808/09/25 16:50:31  5-MIN KNYC 092150Z AUTO VRB03KT 10SM CLR 26/12 A3022 -120 41 1100 VRB/03 RMK AO2 SLP225 T02560117 $
94728KNYC NYC20250809165511108/09/25 16:55:31  5-MIN KNYC 092155Z AUTO VRB04KT 10SM CLR 26/12 A3022 -110 43 1100 VRB/04 RMK AO2 T02560122 $
94728KNYC NYC20250809170011108/09/25 17:00:31  5-MIN KNYC 092200Z AUTO VRB03KT 10SM CLR 26/12 A3022 -120 41 1100 VRB/03 RMK AO2 T02560117 $
94728KNYC NYC20250809170511108/09/25 17:05:31  5-MIN KNYC 092205Z AUTO VRB05KT 10SM CLR 25/12 A3022 -120 44 1100 VRB/05 RMK AO2 T02500122 $
94728KNYC NYC20250809171011108/09/25 17:10:31  5-MIN KNYC 092210Z AUTO 00000KT 10SM CLR 25/12 A3023 -120 43 1000 000/00 RMK AO2 T02500117 $
94728KNYC NYC20250809171510108/09/25 17:15:31  5-MIN KNYC 092215Z AUTO 10SM CLR 25/12 A3023 -120 43 1000 M /M RMK AO2 T02500117 $
94728KNYC NYC20250809172011108/09/25 17:20:31  5-MIN KNYC 092220Z AUTO 00000KT 10SM CLR 25/12 A3023 -120 43 1000 000/00 RMK AO2 T02500117 $
94728KNYC NYC20250809172511108/09/25 17:25:31  5-MIN KNYC 092225Z AUTO 00000KT 10SM CLR 25/12 A3023 -120 43 1000 000/00 RMK AO2 T02500117 $
94728KNYC NYC20250809173011108/09/25 17:30:31  5-MIN KNYC 092230Z AUTO 00000KT 10SM CLR 25/12 A3023 -120 43 1000 000/00 RMK AO2 T02500117 $
94728KNYC NYC20250809173511108/09/25 17:35:31  5-MIN KNYC 092235Z AUTO 00000KT 10SM CLR 25/12 A3023 -120 43 1000 000/00 RMK AO2 T02500117 $
94728KNYC NYC20250809174010108/09/25 17:40:31  5-MIN KNYC 092240Z AUTO 10SM CLR 25/12 A3023 -120 43 1000 M /M RMK AO2 T02500117 $
94728KNYC NYC20250809174511808/09/25 17:45:31  5-MIN KNYC 092245Z AUTO 00000KT 10SM CLR 25/12 A3023 -120 43 1000 000/00 RMK AO2 SLP226 T02500117 $
94728KNYC NYC20250809175010808/09/25 17:50:31  5-MIN KNYC 092250Z AUTO 10SM CLR 25/12 A3022 -120 43 1100 M /M RMK AO2 SLP225 T02500117 $
94728KNYC NYC20250809175511108/09/25 17:55:31  5-MIN KNYC 092255Z AUTO 00000KT 10SM CLR 24/12 A3022 -110 46 1000 000/00 RMK AO2 T02440122 $
94728KNYC NYC20250809180011108/09/25 18:00:31  5-MIN KNYC 092300Z AUTO 00000KT 10SM CLR 24/12 A3022 -120 46 1000 000/00 RMK AO2 T02440122 $
94728KNYC NYC20250809180511108/09/25 18:05:31  5-MIN KNYC 092305Z AUTO VRB03KT 10SM CLR 25/12 A3022 -120 43 1100 VRB/03 RMK AO2 T02500117 $
94728KNYC NYC20250809181011108/09/25 18:10:31  5-MIN KNYC 092310Z AUTO 00000KT 10SM CLR 24/12 A3023 -120 44 1000 000/00 RMK AO2 T02440117 $
94728KNYC NYC20250809181511108/09/25 18:15:31  5-MIN KNYC 092315Z AUTO VRB04KT 10SM CLR 24/12 A3022 -120 44 1000 VRB/04 RMK AO2 T02440117 $
94728KNYC NYC20250809182010008/09/25 18:20:31  5-MIN KNYC 092320Z AUTO 10SM CLR 24/12 A3022 -120 46 900 M /M RMK AO2 T02390117 $
94728KNYC NYC20250809182511008/09/25 18:25:31  5-MIN KNYC 092325Z AUTO VRB03KT 10SM CLR 24/12 A3023 -120 47 900 VRB/03 RMK AO2 T02390122 $
94728KNYC NYC20250809183011008/09/25 18:30:31  5-MIN KNYC 092330Z AUTO VRB03KT 10SM CLR 24/12 A3023 -120 47 900 VRB/03 RMK AO2 T02390122 $
94728KNYC NYC20250809183511008/09/25 18:35:31  5-MIN KNYC 092335Z AUTO 00000KT 10SM CLR 24/12 A3023 -120 46 900 000/00 RMK AO2 T02390117 $
94728KNYC NYC20250809184011008/09/25 18:40:31  5-MIN KNYC 092340Z AUTO 00000KT 10SM CLR 24/12 A3023 -130 46 900 000/00 RMK AO2 T02390117 $
94728KNYC NYC20250809184512508/09/25 18:45:31  5-MIN KNYC 092345Z AUTO 10SM CLR 23/12 A3024 -130 47 800 M /M RMK AO2 SLP230 T02330117 10294 20233 56012 $
94728KNYC NYC20250809185013508/09/25 18:50:31  5-MIN KNYC 092350Z AUTO VRB04KT 10SM CLR 23/12 A3024 -130 47 800 VRB/04 RMK AO2 SLP231 T02330117 10294 20233 56012 $
94728KNYC NYC20250809185511008/09/25 18:55:31  5-MIN KNYC 092355Z AUTO VRB03KT 10SM CLR 23/12 A3024 -130 47 800 VRB/03 RMK AO2 T02330117 $
94728KNYC NYC20250809190011008/09/25 19:00:31  5-MIN KNYC 100000Z AUTO 00000KT 10SM CLR 23/12 A3024 -130 47 800 000/00 RMK AO2 T02330117 $
94728KNYC NYC20250809190511008/09/25 19:05:31  5-MIN KNYC 100005Z AUTO VRB03KT 10SM CLR 23/12 A3024 -130 47 800 VRB/03 RMK AO2 T02330117 $
94728KNYC NYC20250809191011008/09/25 19:10:31  5-MIN KNYC 100010Z AUTO 00000KT 10SM CLR 23/12 A3024 -130 47 800 000/00 RMK AO2 T02330117 $
94728KNYC NYC20250809191511008/09/25 19:15:31  5-MIN KNYC 100015Z AUTO VRB03KT 10SM CLR 23/12 A3024 -130 51 800 VRB/03 RMK AO2 T02280122 $
94728KNYC NYC20250809192011008/09/25 19:20:31  5-MIN KNYC 100020Z AUTO 17003KT 10SM CLR 23/12 A3024 -140 49 800 180/03 RMK AO2 T02280117 $
94728KNYC NYC20250809192511008/09/25 19:25:31  5-MIN KNYC 100025Z AUTO 00000KT 10SM CLR 23/11 A3025 -140 47 800 000/00 RMK AO2 T02280111 $
94728KNYC NYC20250809193011008/09/25 19:30:31  5-MIN KNYC 100030Z AUTO VRB03KT 10SM CLR 23/11 A3025 -140 47 800 VRB/03 RMK AO2 T02280111 $
94728KNYC NYC20250809193511008/09/25 19:35:31  5-MIN KNYC 100035Z AUTO 00000KT 10SM CLR 23/11 A3025 -140 45 800 000/00 RMK AO2 T02330111 $
94728KNYC NYC20250809194011008/09/25 19:40:31  5-MIN KNYC 100040Z AUTO 00000KT 10SM CLR 23/12 A3025 -140 49 800 000/00 RMK AO2 T02280117 $
94728KNYC NYC20250809194511708/09/25 19:45:31  5-MIN KNYC 100045Z AUTO 00000KT 10SM CLR 23/11 A3025 -140 47 800 000/00 RMK AO2 SLP234 T02280111 $
94728KNYC NYC20250809195011708/09/25 19:50:31  5-MIN KNYC 100050Z AUTO 00000KT 10SM CLR 23/12 A3025 -140 49 800 000/00 RMK AO2 SLP234 T02280117 $
94728KNYC NYC20250809195511008/09/25 19:55:31  5-MIN KNYC 100055Z AUTO 00000KT 10SM CLR 23/11 A3025 -140 47 800 000/00 RMK AO2 T02280111 $
94728KNYC NYC20250809200011008/09/25 20:00:31  5-MIN KNYC 100100Z AUTO 00000KT 10SM CLR 23/11 A3025 -140 47 800 000/00 RMK AO2 T02280111 $
94728KNYC NYC20250809200511008/09/25 20:05:31  5-MIN KNYC 100105Z AUTO 00000KT 10SM CLR 23/11 A3025 -140 47 800 000/00 RMK AO2 T02280111 $
94728KNYC NYC20250809201011008/09/25 20:10:31  5-MIN KNYC 100110Z AUTO 00000KT 10SM CLR 22/11 A3025 -140 49 700 000/00 RMK AO2 T02220111 $
94728KNYC NYC20250809201511008/09/25 20:15:31  5-MIN KNYC 100115Z AUTO 00000KT 10SM CLR 23/11 A3025 -140 47 800 000/00 RMK AO2 T02280111 $
94728KNYC NYC20250809202011008/09/25 20:20:31  5-MIN KNYC 100120Z AUTO 00000KT 10SM CLR 23/11 A3025 -140 47 800 000/00 RMK AO2 T02280111 $
94728KNYC NYC20250809202511008/09/25 20:25:31  5-MIN KNYC 100125Z AUTO VRB03KT 10SM CLR 23/11 A3025 -140 47 800 VRB/03 RMK AO2 T02280111 $
94728KNYC NYC20250809203011008/09/25 20:30:31  5-MIN KNYC 100130Z AUTO 00000KT 10SM CLR 22/11 A3025 -140 49 700 000/00 RMK AO2 T02220111 $
94728KNYC NYC20250809203511008/09/25 20:35:31  5-MIN KNYC 100135Z AUTO 00000KT 10SM CLR 22/11 A3025 -140 49 700 000/00 RMK AO2 T02220111 $
94728KNYC NYC20250809204011008/09/25 20:40:31  5-MIN KNYC 100140Z AUTO 00000KT 10SM CLR 22/11 A3025 -140 47 700 000/00 RMK AO2 T02220106 $
94728KNYC NYC20250809204511708/09/25 20:45:31  5-MIN KNYC 100145Z AUTO 00000KT 10SM CLR 22/11 A3025 -140 47 700 000/00 RMK AO2 SLP235 T02220106 $
94728KNYC NYC20250809205011708/09/25 20:50:31  5-MIN KNYC 100150Z AUTO 00000KT 10SM CLR 22/11 A3025 -140 47 700 000/00 RMK AO2 SLP236 T02220106 $
94728KNYC NYC20250809205511008/09/25 20:55:31  5-MIN KNYC 100155Z AUTO 00000KT 10SM CLR 22/11 A3026 -150 47 700 000/00 RMK AO2 T02220106 $
94728KNYC NYC20250809210011008/09/25 21:00:31  5-MIN KNYC 100200Z AUTO 00000KT 10SM CLR 22/11 A3026 -150 49 600 000/00 RMK AO2 T02170106 $
94728KNYC NYC20250809210511008/09/25 21:05:31  5-MIN KNYC 100205Z AUTO 00000KT 10SM CLR 22/11 A3025 -140 49 600 000/00 RMK AO2 T02170106 $
94728KNYC NYC20250809211011008/09/25 21:10:31  5-MIN KNYC 100210Z AUTO 00000KT 10SM CLR 22/11 A3025 -140 49 600 000/00 RMK AO2 T02170106 $
94728KNYC NYC20250809211511008/09/25 21:15:31  5-MIN KNYC 100215Z AUTO 00000KT 10SM CLR 22/11 A3025 -140 50 600 000/00 RMK AO2 T02170111 $
94728KNYC NYC20250809212011008/09/25 21:20:31  5-MIN KNYC 100220Z AUTO 00000KT 10SM CLR 22/11 A3025 -140 50 600 000/00 RMK AO2 T02170111 $
94728KNYC NYC20250809212511008/09/25 21:25:31  5-MIN KNYC 100225Z AUTO 00000KT 10SM CLR 22/11 A3025 -140 49 600 000/00 RMK AO2 T02170106 $
94728KNYC NYC20250809213011008/09/25 21:30:31  5-MIN KNYC 100230Z AUTO 00000KT 10SM CLR 22/11 A3025 -140 49 600 000/00 RMK AO2 T02170106 $
94728KNYC NYC20250809213511008/09/25 21:35:31  5-MIN KNYC 100235Z AUTO 00000KT 10SM CLR 22/11 A3024 -130 49 600 000/00 RMK AO2 T02170106 $
94728KNYC NYC20250809214011008/09/25 21:40:31  5-MIN KNYC 100240Z AUTO 00000KT 10SM CLR 22/11 A3024 -130 50 700 000/00 RMK AO2 T02170111 $
94728KNYC NYC20250809214512308/09/25 21:45:31  5-MIN KNYC 100245Z AUTO 00000KT 10SM CLR 22/11 A3024 -130 49 700 000/00 RMK AO2 SLP229 T02170106 51012 $
94728KNYC NYC20250809215012308/09/25 21:50:31  5-MIN KNYC 100250Z AUTO 00000KT 10SM CLR 22/11 A3024 -130 50 700 000/00 RMK AO2 SLP230 T02170111 51012 $
94728KNYC NYC20250809215511008/09/25 21:55:31  5-MIN KNYC 100255Z AUTO 00000KT 10SM CLR 22/11 A3024 -130 49 700 000/00 RMK AO2 T02170106 $
94728KNYC NYC20250809220011008/09/25 22:00:31  5-MIN KNYC 100300Z AUTO 00000KT 10SM CLR 22/11 A3024 -130 49 600 000/00 RMK AO2 T02170106 $
94728KNYC NYC20250809220511008/09/25 22:05:31  5-MIN KNYC 100305Z AUTO 00000KT 10SM CLR 21/11 A3025 -140 52 600 000/00 RMK AO2 T02110111 $
94728KNYC NYC20250809221011008/09/25 22:10:31  5-MIN KNYC 100310Z AUTO 00000KT 10SM CLR 22/11 A3025 -140 50 600 000/00 RMK AO2 T02170111 $
94728KNYC NYC20250809221511008/09/25 22:15:31  5-MIN KNYC 100315Z AUTO 00000KT 10SM CLR 22/11 A3025 -140 50 600 000/00 RMK AO2 T02170111 $
94728KNYC NYC20250809222011008/09/25 22:20:31  5-MIN KNYC 100320Z AUTO 00000KT 10SM CLR 22/11 A3025 -140 49 600 000/00 RMK AO2 T02170106 $
94728KNYC NYC20250809222511008/09/25 22:25:31  5-MIN KNYC 100325Z AUTO 00000KT 10SM CLR 22/11 A3025 -140 49 600 000/00 RMK AO2 T02170106 $
94728KNYC NYC20250809223011008/09/25 22:30:31  5-MIN KNYC 100330Z AUTO 00000KT 10SM CLR 22/12 A3025 -140 52 600 000/00 RMK AO2 T02170117 $
94728KNYC NYC20250809223511008/09/25 22:35:31  5-MIN KNYC 100335Z AUTO 00000KT 10SM CLR 21/12 A3025 -140 56 600 000/00 RMK AO2 T02110122 $
94728KNYC NYC20250809224011008/09/25 22:40:31  5-MIN KNYC 100340Z AUTO 00000KT 10SM CLR 21/12 A3025 -140 54 600 000/00 RMK AO2 T02110117 $
94728KNYC NYC20250809224511708/09/25 22:45:31  5-MIN KNYC 100345Z AUTO 00000KT 10SM CLR 22/11 A3025 -140 49 600 000/00 RMK AO2 SLP233 T02170106 $
94728KNYC NYC20250809225011708/09/25 22:50:31  5-MIN KNYC 100350Z AUTO 00000KT 10SM CLR 22/11 A3025 -140 47 700 000/00 RMK AO2 SLP234 T02220106 $
94728KNYC NYC20250809225511008/09/25 22:55:31  5-MIN KNYC 100355Z AUTO 00000KT 10SM CLR 22/11 A3025 -140 47 700 000/00 RMK AO2 T02220106 $
94728KNYC NYC20250809230011008/09/25 23:00:31  5-MIN KNYC 100400Z AUTO 00000KT 10SM CLR 22/11 A3025 -140 50 600 000/00 RMK AO2 T02170111 $
94728KNYC NYC20250809230511008/09/25 23:05:31  5-MIN KNYC 100405Z AUTO 00000KT 10SM CLR 22/11 A3025 -140 49 600 000/00 RMK AO2 T02170106 $
94728KNYC NYC20250809231011008/09/25 23:10:31  5-MIN KNYC 100410Z AUTO 00000KT 10SM CLR 22/11 A3025 -140 49 600 000/00 RMK AO2 T02170106 $
94728KNYC NYC20250809231511008/09/25 23:15:31  5-MIN KNYC 100415Z AUTO 00000KT 10SM CLR 21/11 A3025 -140 50 600 000/00 RMK AO2 T02110106 $
94728KNYC NYC20250809232011008/09/25 23:20:31  5-MIN KNYC 100420Z AUTO VRB03KT 10SM CLR 22/10 A3025 -140 47 600 VRB/03 RMK AO2 T02170100 $
94728KNYC NYC20250809232511008/09/25 23:25:31  5-MIN KNYC 100425Z AUTO VRB03KT 10SM CLR 22/10 A3025 -140 47 600 VRB/03 RMK AO2 T02170100 $
94728KNYC NYC20250809233011008/09/25 23:30:31  5-MIN KNYC 100430Z AUTO 24003KT 10SM CLR 22/09 A3025 -140 43 700 250/03 RMK AO2 T02220094 $
94728KNYC NYC20250809233511008/09/25 23:35:31  5-MIN KNYC 100435Z AUTO 23004KT 10SM CLR 22/09 A3025 -140 43 700 250/04 RMK AO2 T02220094 $
94728KNYC NYC20250809234011008/09/25 23:40:31  5-MIN KNYC 100440Z AUTO 21003KT 10SM CLR 22/09 A3025 -140 43 700 230/03 RMK AO2 T02220094 $
94728KNYC NYC20250809234512708/09/25 23:45:31  5-MIN KNYC 100445Z AUTO 00000KT 10SM CLR 22/10 A3025 -140 45 700 000/00 RMK AO2 SLP234 T02220100 402940178 $
94728KNYC NYC20250809235012708/09/25 23:50:31  5-MIN KNYC 100450Z AUTO 23003KT 10SM CLR 22/10 A3025 -140 45 700 240/03 RMK AO2 SLP234 T02220100 402940178 $
94728KNYC NYC20250809235511008/09/25 23:55:31  5-MIN KNYC 100455Z AUTO 00000KT 10SM CLR 22/10 A3025 -140 47 600 000/00 RMK AO2 T02170100 $
94728KNYC NYC20250810000011008/10/25 00:00:31  5-MIN KNYC 100500Z AUTO 00000KT 10SM CLR 22/10 A3025 -140 47 600 000/00 RMK AO2 T02170100 $
94728KNYC NYC20250810000511008/10/25 00:05:31  5-MIN KNYC 100505Z AUTO 00000KT 10SM CLR 22/10 A3025 -140 47 600 000/00 RMK AO2 T02170100 $
94728KNYC NYC20250810001011008/10/25 00:10:31  5-MIN KNYC 100510Z AUTO 00000KT 10SM CLR 22/10 A3026 -150 47 600 000/00 RMK AO2 T02170100 $
94728KNYC NYC20250810001511008/10/25 00:15:31  5-MIN KNYC 100515Z AUTO 00000KT 10SM CLR 22/09 A3025 -140 45 600 000/00 RMK AO2 T02170094 $
94728KNYC NYC20250810002011008/10/25 00:20:31  5-MIN KNYC 100520Z AUTO 00000KT 10SM CLR 22/09 A3025 -140 45 600 000/00 RMK AO2 T02170094 $
94728KNYC NYC20250810002511008/10/25 00:25:31  5-MIN KNYC 100525Z AUTO 00000KT 10SM CLR 22/08 A3025 -140 42 600 000/00 RMK AO2 T02170083 $
94728KNYC NYC20250810003011008/10/25 00:30:31  5-MIN KNYC 100530Z AUTO 25003KT 10SM CLR 22/09 A3026 -150 43 600 270/03 RMK AO2 T02170089 $
94728KNYC NYC20250810003511008/10/25 00:35:31  5-MIN KNYC 100535Z AUTO 25003KT 10SM CLR 22/10 A3026 -150 47 600 270/03 RMK AO2 T02170100 $
94728KNYC NYC20250810004011008/10/25 00:40:31  5-MIN KNYC 100540Z AUTO 00000KT 10SM CLR 22/09 A3026 -150 43 600 000/00 RMK AO2 T02170089 $
94728KNYC NYC20250810004513508/10/25 00:45:31  5-MIN KNYC 100545Z AUTO 00000KT 10SM CLR 22/09 A3026 -150 43 600 000/00 RMK AO2 SLP237 T02170089 10233 20211 58000 $
94728KNYC NYC20250810005013508/10/25 00:50:31  5-MIN KNYC 100550Z AUTO 00000KT 10SM CLR 22/08 A3026 -150 40 600 000/00 RMK AO2 SLP237 T02170078 10233 20211 58000 $
94728KNYC NYC20250810005511008/10/25 00:55:31  5-MIN KNYC 100555Z AUTO 00000KT 10SM CLR 22/08 A3026 -150 42 600 000/00 RMK AO2 T02170083 $
94728KNYC NYC20250810010011008/10/25 01:00:31  5-MIN KNYC 100600Z AUTO 00000KT 10SM CLR 21/08 A3026 -150 43 600 000/00 RMK AO2 T02110083 $
94728KNYC NYC20250810010511008/10/25 01:05:31  5-MIN KNYC 100605Z AUTO 00000KT 10SM CLR 21/09 A3026 -150 45 600 000/00 RMK AO2 T02110089 $
94728KNYC NYC20250810011011008/10/25 01:10:31  5-MIN KNYC 100610Z AUTO 00000KT 10SM CLR 21/09 A3025 -140 45 600 000/00 RMK AO2 T02110089 $
94728KNYC NYC20250810011511008/10/25 01:15:31  5-MIN KNYC 100615Z AUTO 00000KT 10SM CLR 21/09 A3025 -140 45 600 000/00 RMK AO2 T02110089 $
94728KNYC NYC20250810012011008/10/25 01:20:31  5-MIN KNYC 100620Z AUTO 00000KT 10SM CLR 21/08 A3025 -140 43 600 000/00 RMK AO2 T02110083 $
94728KNYC NYC20250810012511008/10/25 01:25:31  5-MIN KNYC 100625Z AUTO 00000KT 10SM CLR 22/09 A3025 -140 43 600 000/00 RMK AO2 T02170089 $
94728KNYC NYC20250810013011008/10/25 01:30:31  5-MIN KNYC 100630Z AUTO 00000KT 10SM CLR 22/09 A3025 -140 43 600 000/00 RMK AO2 T02170089 $
94728KNYC NYC20250810013511008/10/25 01:35:31  5-MIN KNYC 100635Z AUTO 00000KT 10SM CLR 22/09 A3025 -140 43 600 000/00 RMK AO2 T02170089 $
94728KNYC NYC20250810014011008/10/25 01:40:31  5-MIN KNYC 100640Z AUTO 00000KT 10SM CLR 21/09 A3026 -150 47 600 000/00 RMK AO2 T02110094 $
94728KNYC NYC20250810014511708/10/25 01:45:31  5-MIN KNYC 100645Z AUTO 00000KT 10SM CLR 21/10 A3025 -140 48 600 000/00 RMK AO2 SLP235 T02110100 $
94728KNYC NYC20250810015011708/10/25 01:50:31  5-MIN KNYC 100650Z AUTO 00000KT 10SM CLR 21/09 A3025 -140 47 600 000/00 RMK AO2 SLP234 T02110094 $
94728KNYC NYC20250810015511008/10/25 01:55:31  5-MIN KNYC 100655Z AUTO 00000KT 10SM CLR 21/09 A3025 -140 47 600 000/00 RMK AO2 T02110094 $
94728KNYC NYC20250810020011008/10/25 02:00:31  5-MIN KNYC 100700Z AUTO 00000KT 10SM CLR 21/09 A3025 -140 47 600 000/00 RMK AO2 T02110094 $
94728KNYC NYC20250810020511008/10/25 02:05:31  5-MIN KNYC 100705Z AUTO 00000KT 10SM CLR 21/09 A3025 -140 47 600 000/00 RMK AO2 T02110094 $
94728KNYC NYC20250810021011008/10/25 02:10:31  5-MIN KNYC 100710Z AUTO 00000KT 10SM CLR 21/09 A3025 -140 47 600 000/00 RMK AO2 T02110094 $
94728KNYC NYC20250810021511008/10/25 02:15:31  5-MIN KNYC 100715Z AUTO 00000KT 10SM CLR 21/10 A3025 -140 48 600 000/00 RMK AO2 T02110100 $
94728KNYC NYC20250810022011008/10/25 02:20:31  5-MIN KNYC 100720Z AUTO 00000KT 10SM CLR 21/11 A3025 -140 52 500 000/00 RMK AO2 T02060106 $
94728KNYC NYC20250810022511008/10/25 02:25:31  5-MIN KNYC 100725Z AUTO 00000KT 10SM CLR 21/09 A3025 -140 48 500 000/00 RMK AO2 T02060094 $
94728KNYC NYC20250810023011008/10/25 02:30:31  5-MIN KNYC 100730Z AUTO 00000KT 10SM CLR 21/11 A3024 -140 52 500 000/00 RMK AO2 T02060106 $
94728KNYC NYC20250810023511008/10/25 02:35:31  5-MIN KNYC 100735Z AUTO 00000KT 10SM CLR 21/09 A3024 -130 48 500 000/00 RMK AO2 T02060094 $
94728KNYC NYC20250810024011008/10/25 02:40:31  5-MIN KNYC 100740Z AUTO 00000KT 10SM CLR 21/09 A3025 -140 47 600 000/00 RMK AO2 T02110094 $
94728KNYC NYC20250810024511708/10/25 02:45:31  5-MIN KNYC 100745Z AUTO 00000KT 10SM CLR 21/10 A3025 -140 50 500 000/00 RMK AO2 SLP232 T02060100 $
94728KNYC NYC20250810025011708/10/25 02:50:31  5-MIN KNYC 100750Z AUTO 00000KT 10SM CLR 21/10 A3025 -140 50 500 000/00 RMK AO2 SLP232 T02060100 $
94728KNYC NYC20250810025511008/10/25 02:55:31  5-MIN KNYC 100755Z AUTO 00000KT 10SM CLR 21/09 A3025 -140 48 500 000/00 RMK AO2 T02060094 $
94728KNYC NYC20250810030011008/10/25 03:00:31  5-MIN KNYC 100800Z AUTO 00000KT 10SM CLR 21/09 A3024 -130 45 600 000/00 RMK AO2 T02110089 $
94728KNYC NYC20250810030511008/10/25 03:05:31  5-MIN KNYC 100805Z AUTO 00000KT 10SM CLR 21/10 A3024 -130 50 500 000/00 RMK AO2 T02060100 $
94728KNYC NYC20250810031011008/10/25 03:10:31  5-MIN KNYC 100810Z AUTO 00000KT 10SM CLR 21/09 A3024 -130 48 500 000/00 RMK AO2 T02060094 $
94728KNYC NYC20250810031511008/10/25 03:15:31  5-MIN KNYC 100815Z AUTO 00000KT 10SM CLR 21/09 A3024 -130 48 500 000/00 RMK AO2 T02060094 $
94728KNYC NYC20250810032011008/10/25 03:20:31  5-MIN KNYC 100820Z AUTO 24003KT 10SM CLR 21/09 A3024 -130 47 600 260/03 RMK AO2 T02110094 $
94728KNYC NYC20250810032511008/10/25 03:25:31  5-MIN KNYC 100825Z AUTO 00000KT 10SM CLR 21/09 A3024 -130 48 500 000/00 RMK AO2 T02060094 $
94728KNYC NYC20250810033011008/10/25 03:30:31  5-MIN KNYC 100830Z AUTO 00000KT 10SM CLR 21/10 A3024 -130 48 600 000/00 RMK AO2 T02110100 $
94728KNYC NYC20250810033511008/10/25 03:35:31  5-MIN KNYC 100835Z AUTO 00000KT 10SM CLR 21/10 A3024 -130 50 500 000/00 RMK AO2 T02060100 $
94728KNYC NYC20250810034011008/10/25 03:40:31  5-MIN KNYC 100840Z AUTO 00000KT 10SM CLR 21/10 A3024 -130 50 500 000/00 RMK AO2 T02060100 $
94728KNYC NYC20250810034512308/10/25 03:45:31  5-MIN KNYC 100845Z AUTO 00000KT 10SM CLR 21/10 A3024 -130 50 500 000/00 RMK AO2 SLP229 T02060100 51007 $
94728KNYC NYC20250810035012308/10/25 03:50:31  5-MIN KNYC 100850Z AUTO 00000KT 10SM CLR 21/11 A3024 -130 52 500 000/00 RMK AO2 SLP230 T02060106 51007 $
94728KNYC NYC20250810035511008/10/25 03:55:31  5-MIN KNYC 100855Z AUTO 00000KT 10SM CLR 21/11 A3024 -130 54 500 000/00 RMK AO2 T02060111 $
94728KNYC NYC20250810040011008/10/25 04:00:31  5-MIN KNYC 100900Z AUTO 00000KT 10SM CLR 21/11 A3024 -130 54 500 000/00 RMK AO2 T02060111 $
94728KNYC NYC20250810040511008/10/25 04:05:31  5-MIN KNYC 100905Z AUTO 00000KT 10SM CLR 21/11 A3024 -130 54 500 000/00 RMK AO2 T02060111 $
94728KNYC NYC20250810041011008/10/25 04:10:31  5-MIN KNYC 100910Z AUTO 00000KT 10SM CLR 21/12 A3024 -130 58 500 000/00 RMK AO2 T02060122 $
94728KNYC NYC20250810041511008/10/25 04:15:31  5-MIN KNYC 100915Z AUTO 00000KT 10SM CLR 21/12 A3025 -140 56 500 000/00 RMK AO2 T02060117 $
94728KNYC NYC20250810042011008/10/25 04:20:31  5-MIN KNYC 100920Z AUTO 00000KT 10SM CLR 21/12 A3025 -140 56 500 000/00 RMK AO2 T02060117 $
94728KNYC NYC20250810042511008/10/25 04:25:31  5-MIN KNYC 100925Z AUTO 00000KT 10SM CLR 21/12 A3025 -140 56 600 000/00 RMK AO2 T02110122 $
94728KNYC NYC20250810043011008/10/25 04:30:31  5-MIN KNYC 100930Z AUTO 00000KT 10SM CLR 21/12 A3025 -140 56 600 000/00 RMK AO2 T02110122 $
94728KNYC NYC20250810043511008/10/25 04:35:31  5-MIN KNYC 100935Z AUTO 00000KT 10SM CLR 21/12 A3025 -140 58 500 000/00 RMK AO2 T02060122 $
94728KNYC NYC20250810044011008/10/25 04:40:31  5-MIN KNYC 100940Z AUTO 00000KT 10SM CLR 21/12 A3026 -140 58 500 000/00 RMK AO2 T02060122 $
94728KNYC NYC20250810044511708/10/25 04:45:31  5-MIN KNYC 100945Z AUTO 00000KT 10SM CLR 21/12 A3026 -150 58 500 000/00 RMK AO2 SLP236 T02060122 $
94728KNYC NYC20250810045011708/10/25 04:50:31  5-MIN KNYC 100950Z AUTO 00000KT 10SM CLR 21/13 A3026 -150 60 500 000/00 RMK AO2 SLP237 T02060128 $
94728KNYC NYC20250810045511008/10/25 04:55:31  5-MIN KNYC 100955Z AUTO 00000KT 10SM CLR 21/13 A3026 -150 60 500 000/00 RMK AO2 T02060128 $
94728KNYC NYC20250810050011008/10/25 05:00:31  5-MIN KNYC 101000Z AUTO 00000KT 10SM CLR 21/13 A3026 -150 63 500 000/00 RMK AO2 T02060133 $
94728KNYC NYC20250810050511008/10/25 05:05:31  5-MIN KNYC 101005Z AUTO VRB03KT 10SM CLR 21/13 A3026 -150 61 600 VRB/03 RMK AO2 T02110133 $
94728KNYC NYC20250810051011008/10/25 05:10:31  5-MIN KNYC 101010Z AUTO VRB03KT 10SM CLR 21/13 A3026 -150 61 600 VRB/03 RMK AO2 T02110133 $
94728KNYC NYC20250810051511008/10/25 05:15:31  5-MIN KNYC 101015Z AUTO 00000KT 10SM CLR 21/13 A3026 -150 61 600 000/00 RMK AO2 T02110133 $
94728KNYC NYC20250810052011008/10/25 05:20:31  5-MIN KNYC 101020Z AUTO 00000KT 10SM CLR 21/13 A3026 -150 61 600 000/00 RMK AO2 T02110133 $
94728KNYC NYC20250810052511008/10/25 05:25:31  5-MIN KNYC 101025Z AUTO 00000KT 10SM CLR 21/13 A3026 -150 61 600 000/00 RMK AO2 T02110133 $
94728KNYC NYC20250810053011008/10/25 05:30:31  5-MIN KNYC 101030Z AUTO 00000KT 10SM CLR 21/13 A3027 -160 63 500 000/00 RMK AO2 T02060133 $
94728KNYC NYC20250810053511008/10/25 05:35:31  5-MIN KNYC 101035Z AUTO 00000KT 10SM CLR 21/13 A3027 -160 63 500 000/00 RMK AO2 T02060133 $
94728KNYC NYC20250810054011008/10/25 05:40:31  5-MIN KNYC 101040Z AUTO 00000KT 10SM CLR 21/13 A3027 -160 63 500 000/00 RMK AO2 T02060133 $
94728KNYC NYC20250810054511708/10/25 05:45:31  5-MIN KNYC 101045Z AUTO 00000KT 10SM CLR 21/14 A3027 -160 63 600 000/00 RMK AO2 SLP239 T02110139 $
94728KNYC NYC20250810055011708/10/25 05:50:31  5-MIN KNYC 101050Z AUTO 00000KT 10SM CLR 21/14 A3027 -160 63 600 000/00 RMK AO2 SLP239 T02110139 $
94728KNYC NYC20250810055511008/10/25 05:55:31  5-MIN KNYC 101055Z AUTO 00000KT 10SM CLR 21/14 A3027 -160 63 600 000/00 RMK AO2 T02110139 $
94728KNYC NYC20250810060011008/10/25 06:00:31  5-MIN KNYC 101100Z AUTO 00000KT 10SM CLR 21/14 A3027 -160 63 600 000/00 RMK AO2 T02110139 $
94728KNYC NYC20250810060511008/10/25 06:05:31  5-MIN KNYC 101105Z AUTO 00000KT 10SM CLR 21/14 A3027 -160 65 600 000/00 RMK AO2 T02110144 $
94728KNYC NYC20250810061011008/10/25 06:10:31  5-MIN KNYC 101110Z AUTO 00000KT 10SM CLR 21/14 A3027 -160 65 500 000/00 RMK AO2 T02110144 $
94728KNYC NYC20250810061511008/10/25 06:15:31  5-MIN KNYC 101115Z AUTO 00000KT 10SM CLR 21/14 A3028 -170 65 500 000/00 RMK AO2 T02110144 $
94728KNYC NYC20250810062011008/10/25 06:20:31  5-MIN KNYC 101120Z AUTO 00000KT 10SM CLR 22/14 A3028 -170 61 600 000/00 RMK AO2 T02170139 $
94728KNYC NYC20250810062511008/10/25 06:25:31  5-MIN KNYC 101125Z AUTO 00000KT 10SM CLR 22/14 A3028 -170 61 600 000/00 RMK AO2 T02170139 $
94728KNYC NYC20250810063011008/10/25 06:30:31  5-MIN KNYC 101130Z AUTO 00000KT 10SM CLR 22/14 A3028 -170 61 600 000/00 RMK AO2 T02170139 $
94728KNYC NYC20250810063511008/10/25 06:35:31  5-MIN KNYC 101135Z AUTO 00000KT 10SM CLR 22/14 A3028 -170 61 600 000/00 RMK AO2 T02170139 $
94728KNYC NYC20250810064011008/10/25 06:40:31  5-MIN KNYC 101140Z AUTO 00000KT 10SM CLR 22/14 A3028 -170 61 600 000/00 RMK AO2 T02170139 $
94728KNYC NYC20250810064513508/10/25 06:45:31  5-MIN KNYC 101145Z AUTO 00000KT 10SM CLR 22/14 A3028 -170 59 700 000/00 RMK AO2 SLP246 T02220139 10222 20206 56007 $
94728KNYC NYC20250810065013508/10/25 06:50:31  5-MIN KNYC 101150Z AUTO 30003KT 10SM CLR 22/14 A3028 -170 59 700 310/03 RMK AO2 SLP246 T02220139 10222 20206 56007 $
94728KNYC NYC20250810065511008/10/25 06:55:31  5-MIN KNYC 101155Z AUTO 00000KT 10SM CLR 22/14 A3028 -170 61 700 000/00 RMK AO2 T02220144 $
94728KNYC NYC20250810070011008/10/25 07:00:31  5-MIN KNYC 101200Z AUTO 00000KT 10SM CLR 22/14 A3028 -170 59 700 000/00 RMK AO2 T02220139 $
94728KNYC NYC20250810070511008/10/25 07:05:31  5-MIN KNYC 101205Z AUTO 00000KT 10SM CLR 22/14 A3028 -170 59 700 000/00 RMK AO2 T02220139 $
94728KNYC NYC20250810071011008/10/25 07:10:31  5-MIN KNYC 101210Z AUTO 00000KT 10SM CLR 22/14 A3028 -170 59 700 000/00 RMK AO2 T02220139 $
94728KNYC NYC20250810071511008/10/25 07:15:31  5-MIN KNYC 101215Z AUTO 00000KT 10SM CLR 23/14 A3028 -170 57 700 000/00 RMK AO2 T02280139 $
94728KNYC NYC20250810072011008/10/25 07:20:31  5-MIN KNYC 101220Z AUTO 00000KT 10SM CLR 23/14 A3028 -170 57 700 000/00 RMK AO2 T02280139 $
94728KNYC NYC20250810072511008/10/25 07:25:31  5-MIN KNYC 101225Z AUTO 00000KT 10SM CLR 23/13 A3028 -170 55 700 000/00 RMK AO2 T02280133 $
94728KNYC NYC20250810073011008/10/25 07:30:31  5-MIN KNYC 101230Z AUTO 00000KT 10SM CLR 23/13 A3028 -160 53 800 000/00 RMK AO2 T02330133 $
94728KNYC NYC20250810073511008/10/25 07:35:31  5-MIN KNYC 101235Z AUTO 00000KT 10SM CLR 23/14 A3028 -160 55 800 000/00 RMK AO2 T02330139 $
94728KNYC NYC20250810074011008/10/25 07:40:31  5-MIN KNYC 101240Z AUTO 00000KT 10SM CLR 23/13 A3028 -160 53 800 000/00 RMK AO2 T02330133 $
94728KNYC NYC20250810074511708/10/25 07:45:31  5-MIN KNYC 101245Z AUTO 00000KT 10SM CLR 24/13 A3028 -160 51 900 000/00 RMK AO2 SLP242 T02390133 $
94728KNYC NYC20250810075011708/10/25 07:50:31  5-MIN KNYC 101250Z AUTO 00000KT 10SM CLR 24/13 A3027 -160 51 900 000/00 RMK AO2 SLP242 T02390133 $
94728KNYC NYC20250810075511008/10/25 07:55:31  5-MIN KNYC 101255Z AUTO 00000KT 10SM CLR 23/14 A3027 -160 55 800 000/00 RMK AO2 T02330139 $
94728KNYC NYC20250810080011008/10/25 08:00:31  5-MIN KNYC 101300Z AUTO 00000KT 10SM CLR 24/14 A3027 -160 53 900 000/00 RMK AO2 T02390139 $
94728KNYC NYC20250810080511008/10/25 08:05:31  5-MIN KNYC 101305Z AUTO 00000KT 10SM CLR 24/14 A3028 -160 53 900 000/00 RMK AO2 T02390139 $
94728KNYC NYC20250810081011008/10/25 08:10:31  5-MIN KNYC 101310Z AUTO 00000KT 10SM CLR 24/14 A3028 -160 55 900 000/00 RMK AO2 T02390144 $
94728KNYC NYC20250810081511008/10/25 08:15:31  5-MIN KNYC 101315Z AUTO 28003KT 10SM CLR 24/13 A3028 -170 49 900 290/03 RMK AO2 T02440133 $
94728KNYC NYC20250810082011108/10/25 08:20:31  5-MIN KNYC 101320Z AUTO VRB03KT 10SM CLR 25/12 A3028 -170 44 1000 VRB/03 RMK AO2 T02500122 $
94728KNYC NYC20250810082511108/10/25 08:25:31  5-MIN KNYC 101325Z AUTO VRB03KT 10SM CLR 25/12 A3028 -170 44 1000 VRB/03 RMK AO2 T02500122 $
94728KNYC NYC20250810083011108/10/25 08:30:31  5-MIN KNYC 101330Z AUTO 27003KT 10SM CLR 25/12 A3027 -160 44 1000 290/03 RMK AO2 T02500122 $
94728KNYC NYC20250810083511108/10/25 08:35:31  5-MIN KNYC 101335Z AUTO 28004KT 10SM CLR 25/12 A3027 -160 44 1000 290/04 RMK AO2 T02500122 $
94728KNYC NYC20250810084011108/10/25 08:40:31  5-MIN KNYC 101340Z AUTO 00000KT 10SM CLR 26/12 A3027 -160 43 1100 000/00 RMK AO2 T02560122 $
94728KNYC NYC20250810084511808/10/25 08:45:31  5-MIN KNYC 101345Z AUTO 00000KT 10SM CLR 26/12 A3027 -160 43 1100 000/00 RMK AO2 SLP241 T02560122 $
94728KNYC NYC20250810085011808/10/25 08:50:31  5-MIN KNYC 101350Z AUTO 00000KT 10SM CLR 26/13 A3027 -160 44 1100 000/00 RMK AO2 SLP241 T02560128 $
94728KNYC NYC20250810085511108/10/25 08:55:31  5-MIN KNYC 101355Z AUTO 00000KT 10SM CLR 26/13 A3027 -160 46 1100 000/00 RMK AO2 T02560133 $
94728KNYC NYC20250810090011108/10/25 09:00:31  5-MIN KNYC 101400Z AUTO 00000KT 10SM CLR 26/12 A3027 -160 40 1100 000/00 RMK AO2 T02610117 $
94728KNYC NYC20250810090511108/10/25 09:05:31  5-MIN KNYC 101405Z AUTO 28003KT 10SM CLR 26/11 A3028 -160 38 1100 290/03 RMK AO2 T02610111 $
94728KNYC NYC20250810091011108/10/25 09:10:31  5-MIN KNYC 101410Z AUTO 29003KT 10SM CLR 27/11 A3028 -170 36 1200 300/03 RMK AO2 T02670106 $
94728KNYC NYC20250810091511108/10/25 09:15:31  5-MIN KNYC 101415Z AUTO 00000KT 10SM CLR 27/11 A3028 -170 36 1200 000/00 RMK AO2 T02670106 $
94728KNYC NYC20250810092011108/10/25 09:20:31  5-MIN KNYC 101420Z AUTO 00000KT 10SM CLR 27/10 A3028 -170 34 1200 000/00 RMK AO2 T02670100 $
94728KNYC NYC20250810092511108/10/25 09:25:31  5-MIN KNYC 101425Z AUTO 00000KT 10SM CLR 27/11 A3028 -160 36 1200 000/00 RMK AO2 T02670106 $
94728KNYC NYC20250810093011108/10/25 09:30:31  5-MIN KNYC 101430Z AUTO 00000KT 10SM CLR 27/11 A3027 -160 36 1200 000/00 RMK AO2 T02670106 $
94728KNYC NYC20250810093511108/10/25 09:35:31  5-MIN KNYC 101435Z AUTO 27005KT 10SM CLR 27/10 A3027 -160 33 1200 280/05 RMK AO2 T02720100 $
94728KNYC NYC20250810094011108/10/25 09:40:31  5-MIN KNYC 101440Z AUTO 00000KT 10SM CLR 27/09 A3027 -160 32 1200 000/00 RMK AO2 T02720094 $
94728KNYC NYC20250810094512408/10/25 09:45:31  5-MIN KNYC 101445Z AUTO VRB03KT 10SM CLR 28/09 A3027 -160 30 1300 VRB/03 RMK AO2 SLP241 T02780089 51015 $
94728KNYC NYC20250810095012408/10/25 09:50:31  5-MIN KNYC 101450Z AUTO 25003KT 10SM CLR 28/09 A3027 -160 31 1300 260/03 RMK AO2 SLP240 T02780094 51015 $
94728KNYC NYC20250810095511108/10/25 09:55:31  5-MIN KNYC 101455Z AUTO 00000KT 10SM CLR 28/09 A3027 -150 31 1300 000/00 RMK AO2 T02780094 $
94728KNYC NYC20250810100011108/10/25 10:00:31  5-MIN KNYC 101500Z AUTO 00000KT 10SM CLR 28/10 A3027 -150 32 1300 000/00 RMK AO2 T02780100 $
94728KNYC NYC20250810100511108/10/25 10:05:31  5-MIN KNYC 101505Z AUTO 25003KT 10SM CLR 28/11 A3026 -150 32 1400 260/03 RMK AO2 T02830106 $
94728KNYC NYC20250810101011108/10/25 10:10:31  5-MIN KNYC 101510Z AUTO 00000KT 10SM CLR 28/10 A3026 -150 31 1400 000/00 RMK AO2 T02830100 $
94728KNYC NYC20250810101511108/10/25 10:15:31  5-MIN KNYC 101515Z AUTO VRB03KT 10SM CLR 28/11 A3026 -150 32 1400 VRB/03 RMK AO2 T02830106 $
94728KNYC NYC20250810102011108/10/25 10:20:31  5-MIN KNYC 101520Z AUTO 00000KT 10SM CLR 28/11 A3026 -150 32 1400 000/00 RMK AO2 T02830106 $
94728KNYC NYC20250810102511108/10/25 10:25:31  5-MIN KNYC 101525Z AUTO 00000KT 10SM CLR 28/11 A3026 -150 35 1300 000/00 RMK AO2 T02780111 $
94728KNYC NYC20250810103011108/10/25 10:30:31  5-MIN KNYC 101530Z AUTO 00000KT 10SM CLR 29/11 A3026 -150 31 1400 000/00 RMK AO2 T02890106 $
94728KNYC NYC20250810103511108/10/25 10:35:31  5-MIN KNYC 101535Z AUTO VRB03KT 10SM CLR 29/11 A3026 -150 31 1500 VRB/03 RMK AO2 T02940111 $
94728KNYC NYC20250810104011108/10/25 10:40:31  5-MIN KNYC 101540Z AUTO VRB03KT 10SM CLR 29/11 A3026 -150 31 1400 VRB/03 RMK AO2 T02890106 $
94728KNYC NYC20250810104511808/10/25 10:45:31  5-MIN KNYC 101545Z AUTO 00000KT 10SM CLR 29/10 A3026 -150 29 1500 000/00 RMK AO2 SLP238 T02940100 $
94728KNYC NYC20250810105011808/10/25 10:50:31  5-MIN KNYC 101550Z AUTO VRB04KT 10SM CLR 29/11 A3026 -150 32 1400 VRB/04 RMK AO2 SLP238 T02890111 $
94728KNYC NYC20250810105511108/10/25 10:55:31  5-MIN KNYC 101555Z AUTO VRB03KT 10SM CLR 28/11 A3026 -150 33 1400 VRB/03 RMK AO2 T02830111 $
94728KNYC NYC20250810110011108/10/25 11:00:31  5-MIN KNYC 101600Z AUTO 36005KT 10SM CLR 29/09 A3026 -150 28 1500 010/05 RMK AO2 T02940094 $
94728KNYC NYC20250810110511108/10/25 11:05:31  5-MIN KNYC 101605Z AUTO 00000KT 10SM CLR 29/09 A3026 -150 28 1500 000/00 RMK AO2 T02940094 $
94728KNYC NYC20250810111011108/10/25 11:10:31  5-MIN KNYC 101610Z AUTO VRB03KT 10SM CLR 30/09 A3026 -150 27 1600 VRB/03 RMK AO2 T03000094 $
94728KNYC NYC20250810111511108/10/25 11:15:31  5-MIN KNYC 101615Z AUTO 00000KT 10SM CLR 30/09 A3026 -150 27 1600 000/00 RMK AO2 T03000094 $
94728KNYC NYC20250810112011108/10/25 11:20:31  5-MIN KNYC 101620Z AUTO 31004KT 10SM CLR 31/09 A3026 -150 26 1600 330/04 RMK AO2 T03060094 $
94728KNYC NYC20250810112511108/10/25 11:25:31  5-MIN KNYC 101625Z AUTO 00000KT 10SM CLR 31/09 A3026 -150 25 1600 000/00 RMK AO2 T03060089 $
94728KNYC NYC20250810154011008/10/25 15:40:31  5-MIN KNYC 102040Z AUTO VRB03KT 9SM CLR 30/14 A3023 -120 36 1600 VRB/03 RMK AO2 T03000139 $
94728KNYC NYC20250810154512408/10/25 15:45:31  5-MIN KNYC 102045Z AUTO VRB06KT 10SM CLR 30/14 A3023 -120 36 1600 VRB/06 RMK AO2 SLP226 T03000139 58013 $
94728KNYC NYC20250810155012408/10/25 15:50:31  5-MIN KNYC 102050Z AUTO VRB05KT 10SM CLR 29/14 A3023 -120 38 1500 VRB/05 RMK AO2 SLP227 T02940139 58013 $
94728KNYC NYC20250810155511108/10/25 15:55:31  5-MIN KNYC 102055Z AUTO VRB05KT 10SM CLR 29/14 A3023 -120 38 1500 VRB/05 RMK AO2 T02940139 $
94728KNYC NYC20250810160011108/10/25 16:00:31  5-MIN KNYC 102100Z AUTO 21008KT 10SM CLR 29/13 A3023 -120 36 1500 220/08 RMK AO2 T02940133 $
94728KNYC NYC20250810160512708/10/25 16:05:31  5-MIN KNYC 102105Z AUTO 21007KT 160V240 10SM CLR 29/13 A3023 -130 35 1500 220/07 170V250 RMK AO2 T02940128 $
94728KNYC NYC20250810161011108/10/25 16:10:31  5-MIN KNYC 102110Z AUTO VRB04KT 10SM CLR 29/13 A3023 -130 35 1500 VRB/04 RMK AO2 T02940128 $
94728KNYC NYC20250810161511108/10/25 16:15:31  5-MIN KNYC 102115Z AUTO VRB03KT 10SM CLR 29/13 A3023 -120 36 1500 VRB/03 RMK AO2 T02940133 $
94728KNYC NYC20250810162010108/10/25 16:20:31  5-MIN KNYC 102120Z AUTO 10SM CLR 29/14 A3023 -120 39 1500 M /M RMK AO2 T02890139 $
94728KNYC NYC20250810162511108/10/25 16:25:31  5-MIN KNYC 102125Z AUTO VRB06KT 10SM CLR 29/14 A3023 -120 40 1500 VRB/06 RMK AO2 T02890144 $
94728KNYC NYC20250810163010108/10/25 16:30:31  5-MIN KNYC 102130Z AUTO 10SM CLR 29/13 A3023 -120 38 1500 M /M RMK AO2 T02890133 $
94728KNYC NYC20250810163511108/10/25 16:35:31  5-MIN KNYC 102135Z AUTO VRB04KT 10SM CLR 29/13 A3023 -120 38 1500 VRB/04 RMK AO2 T02890133 $
94728KNYC NYC20250810164011108/10/25 16:40:31  5-MIN KNYC 102140Z AUTO VRB03KT 10SM CLR 29/14 A3023 -120 39 1500 VRB/03 RMK AO2 T02890139 $
94728KNYC NYC20250810164511808/10/25 16:45:31  5-MIN KNYC 102145Z AUTO 16005KT 10SM CLR 28/14 A3022 -120 40 1400 170/05 RMK AO2 SLP225 T02830139 $
94728KNYC NYC20250810165011808/10/25 16:50:31  5-MIN KNYC 102150Z AUTO VRB04KT 10SM CLR 28/14 A3023 -120 42 1400 VRB/04 RMK AO2 SLP226 T02830144 $
94728KNYC NYC20250810165510108/10/25 16:55:31  5-MIN KNYC 102155Z AUTO 10SM CLR 28/14 A3023 -120 42 1400 M /M RMK AO2 T02830144 $
94728KNYC NYC20250810170010108/10/25 17:00:31  5-MIN KNYC 102200Z AUTO 10SM CLR 28/14 A3023 -120 42 1400 M /M RMK AO2 T02830144 $
94728KNYC NYC20250810170511108/10/25 17:05:31  5-MIN KNYC 102205Z AUTO VRB05KT 10SM CLR 28/14 A3022 -120 42 1400 VRB/05 RMK AO2 T02830144 $
94728KNYC NYC20250810171011108/10/25 17:10:31  5-MIN KNYC 102210Z AUTO VRB03KT 10SM CLR 28/14 A3022 -120 42 1400 VRB/03 RMK AO2 T02830144 $
94728KNYC NYC20250810171511108/10/25 17:15:31  5-MIN KNYC 102215Z AUTO VRB04KT 10SM CLR 28/14 A3023 -120 42 1400 VRB/04 RMK AO2 T02830144 $
94728KNYC NYC20250810172011108/10/25 17:20:31  5-MIN KNYC 102220Z AUTO VRB03KT 10SM CLR 28/14 A3023 -120 42 1400 VRB/03 RMK AO2 T02830144 $
94728KNYC NYC20250810172510108/10/25 17:25:31  5-MIN KNYC 102225Z AUTO 10SM CLR 28/14 A3022 -120 42 1400 M /M RMK AO2 T02830144 $
94728KNYC NYC20250810173011108/10/25 17:30:31  5-MIN KNYC 102230Z AUTO 00000KT 10SM CLR 28/14 A3022 -120 42 1400 000/00 RMK AO2 T02780139 $
94728KNYC NYC20250810173510108/10/25 17:35:31  5-MIN KNYC 102235Z AUTO 10SM CLR 28/14 A3022 -120 43 1400 M /M RMK AO2 T02780144 $
94728KNYC NYC20250810174010108/10/25 17:40:31  5-MIN KNYC 102240Z AUTO 10SM CLR 28/14 A3022 -120 42 1400 M /M RMK AO2 T02780139 $
94728KNYC NYC20250810174511808/10/25 17:45:31  5-MIN KNYC 102245Z AUTO 18004KT 10SM CLR 28/14 A3022 -110 42 1400 190/04 RMK AO2 SLP224 T02780139 $
94728KNYC NYC20250810175011808/10/25 17:50:31  5-MIN KNYC 102250Z AUTO VRB04KT 10SM CLR 28/14 A3022 -110 42 1400 VRB/04 RMK AO2 SLP224 T02780139 $
94728KNYC NYC20250810175511108/10/25 17:55:31  5-MIN KNYC 102255Z AUTO VRB03KT 10SM CLR 28/13 A3022 -110 40 1400 VRB/03 RMK AO2 T02780133 $
94728KNYC NYC20250810180011108/10/25 18:00:31  5-MIN KNYC 102300Z AUTO VRB03KT 10SM CLR 28/13 A3022 -120 40 1400 VRB/03 RMK AO2 T02780133 $
94728KNYC NYC20250810180510108/10/25 18:05:31  5-MIN KNYC 102305Z AUTO 10SM CLR 28/14 A3022 -110 42 1400 M /M RMK AO2 T02780139 $
94728KNYC NYC20250810181011108/10/25 18:10:31  5-MIN KNYC 102310Z AUTO VRB03KT 10SM CLR 27/14 A3022 -110 43 1300 VRB/03 RMK AO2 T02720139 $
94728KNYC NYC20250810181511108/10/25 18:15:31  5-MIN KNYC 102315Z AUTO 00000KT 10SM CLR 27/14 A3022 -120 43 1300 000/00 RMK AO2 T02720139 $
94728KNYC NYC20250810182011108/10/25 18:20:31  5-MIN KNYC 102320Z AUTO VRB03KT 10SM CLR 27/14 A3022 -120 43 1300 VRB/03 RMK AO2 T02720139 $
94728KNYC NYC20250810182511108/10/25 18:25:31  5-MIN KNYC 102325Z AUTO VRB03KT 10SM CLR 27/14 A3023 -120 43 1300 VRB/03 RMK AO2 T02720139 $
94728KNYC NYC20250810183011108/10/25 18:30:31  5-MIN KNYC 102330Z AUTO VRB03KT 10SM CLR 27/14 A3022 -120 43 1300 VRB/03 RMK AO2 T02720139 $
94728KNYC NYC20250810183511108/10/25 18:35:31  5-MIN KNYC 102335Z AUTO 00000KT 10SM CLR 27/13 A3022 -120 42 1300 000/00 RMK AO2 T02720133 $
94728KNYC NYC20250810184010108/10/25 18:40:31  5-MIN KNYC 102340Z AUTO 10SM CLR 27/13 A3022 -120 42 1300 M /M RMK AO2 T02720133 $
94728KNYC NYC20250810184513608/10/25 18:45:31  5-MIN KNYC 102345Z AUTO VRB03KT 10SM CLR 27/13 A3022 -120 42 1300 VRB/03 RMK AO2 SLP224 T02720133 10322 20272 53001 $
94728KNYC NYC20250810185013608/10/25 18:50:31  5-MIN KNYC 102350Z AUTO 17003KT 10SM CLR 27/13 A3022 -120 42 1300 190/03 RMK AO2 SLP224 T02720133 10322 20272 53001 $
94728KNYC NYC20250810185511108/10/25 18:55:31  5-MIN KNYC 102355Z AUTO VRB03KT 10SM CLR 27/13 A3022 -120 43 1200 VRB/03 RMK AO2 T02670133 $
94728KNYC NYC20250810190011108/10/25 19:00:31  5-MIN KNYC 110000Z AUTO 00000KT 10SM CLR 27/13 A3022 -120 43 1200 000/00 RMK AO2 T02670133 $
94728KNYC NYC20250810190511108/10/25 19:05:31  5-MIN KNYC 110005Z AUTO 00000KT 10SM CLR 27/14 A3023 -120 45 1200 000/00 RMK AO2 T02670139 $
94728KNYC NYC20250810191011108/10/25 19:10:31  5-MIN KNYC 110010Z AUTO 00000KT 10SM CLR 27/14 A3023 -120 45 1200 000/00 RMK AO2 T02670139 $
94728KNYC NYC20250810191511108/10/25 19:15:31  5-MIN KNYC 110015Z AUTO 20006KT 10SM CLR 26/14 A3023 -120 46 1200 210/06 RMK AO2 T02610139 $
94728KNYC NYC20250810192010108/10/25 19:20:31  5-MIN KNYC 110020Z AUTO 10SM CLR 26/14 A3023 -120 46 1200 M /M RMK AO2 T02610139 $
94728KNYC NYC20250810192510108/10/25 19:25:31  5-MIN KNYC 110025Z AUTO 10SM CLR 26/14 A3023 -130 46 1200 M /M RMK AO2 T02610139 $
94728KNYC NYC20250810193011108/10/25 19:30:31  5-MIN KNYC 110030Z AUTO VRB03KT 10SM CLR 26/14 A3023 -120 46 1200 VRB/03 RMK AO2 T02610139 $
94728KNYC NYC20250810193511108/10/25 19:35:31  5-MIN KNYC 110035Z AUTO VRB03KT 10SM CLR 26/14 A3023 -130 46 1200 VRB/03 RMK AO2 T02610139 $
94728KNYC NYC20250810194011108/10/25 19:40:31  5-MIN KNYC 110040Z AUTO VRB03KT 10SM CLR 26/13 A3023 -130 44 1200 VRB/03 RMK AO2 T02610133 $
94728KNYC NYC20250810194510808/10/25 19:45:31  5-MIN KNYC 110045Z AUTO 10SM CLR 26/14 A3024 -130 46 1200 M /M RMK AO2 SLP229 T02610139 $
94728KNYC NYC20250810195011808/10/25 19:50:31  5-MIN KNYC 110050Z AUTO VRB03KT 10SM CLR 26/13 A3024 -130 44 1200 VRB/03 RMK AO2 SLP229 T02610133 $
94728KNYC NYC20250810195511108/10/25 19:55:31  5-MIN KNYC 110055Z AUTO 00000KT 10SM CLR 26/13 A3024 -130 44 1200 000/00 RMK AO2 T02610133 $
94728KNYC NYC20250810200011108/10/25 20:00:31  5-MIN KNYC 110100Z AUTO VRB04KT 10SM CLR 26/13 A3024 -130 44 1200 VRB/04 RMK AO2 T02610133 $
94728KNYC NYC20250810200511108/10/25 20:05:31  5-MIN KNYC 110105Z AUTO VRB03KT 10SM CLR 26/13 A3024 -130 44 1200 VRB/03 RMK AO2 T02610133 $
94728KNYC NYC20250810201011108/10/25 20:10:31  5-MIN KNYC 110110Z AUTO 00000KT 10SM CLR 26/13 A3024 -130 43 1200 000/00 RMK AO2 T02610128 $
94728KNYC NYC20250810201511108/10/25 20:15:31  5-MIN KNYC 110115Z AUTO VRB03KT 10SM CLR 26/13 A3024 -130 43 1200 VRB/03 RMK AO2 T02610128 $
94728KNYC NYC20250810202011108/10/25 20:20:31  5-MIN KNYC 110120Z AUTO VRB05KT 10SM CLR 26/13 A3024 -130 46 1100 VRB/05 RMK AO2 T02560133 $
94728KNYC NYC20250810202511108/10/25 20:25:31  5-MIN KNYC 110125Z AUTO 22005KT 10SM CLR 26/13 A3024 -130 46 1100 230/05 RMK AO2 T02560133 $
94728KNYC NYC20250810203011108/10/25 20:30:31  5-MIN KNYC 110130Z AUTO VRB03KT 10SM CLR 26/13 A3024 -130 44 1100 VRB/03 RMK AO2 T02560128 $
94728KNYC NYC20250810203511108/10/25 20:35:31  5-MIN KNYC 110135Z AUTO 24006KT 10SM CLR 26/13 A3024 -130 46 1100 250/06 RMK AO2 T02560133 $
94728KNYC NYC20250810204011108/10/25 20:40:31  5-MIN KNYC 110140Z AUTO 20005KT 10SM CLR 26/13 A3024 -130 46 1100 210/05 RMK AO2 T02560133 $
94728KNYC NYC20250810204511808/10/25 20:45:31  5-MIN KNYC 110145Z AUTO 24003KT 10SM CLR 25/14 A3024 -130 49 1000 260/03 RMK AO2 SLP231 T02500139 $
94728KNYC NYC20250810205011808/10/25 20:50:31  5-MIN KNYC 110150Z AUTO VRB04KT 10SM CLR 25/13 A3024 -130 48 1000 VRB/04 RMK AO2 SLP231 T02500133 $
94728KNYC NYC20250810205511108/10/25 20:55:31  5-MIN KNYC 110155Z AUTO 21003KT 10SM CLR 25/13 A3024 -130 48 1000 220/03 RMK AO2 T02500133 $
94728KNYC NYC20250810210011108/10/25 21:00:31  5-MIN KNYC 110200Z AUTO 22003KT 10SM CLR 26/13 A3024 -130 46 1100 230/03 RMK AO2 T02560133 $
94728KNYC NYC20250810210511108/10/25 21:05:31  5-MIN KNYC 110205Z AUTO VRB04KT 10SM CLR 25/13 A3024 -130 48 1000 VRB/04 RMK AO2 T02500133 $
94728KNYC NYC20250810211011108/10/25 21:10:31  5-MIN KNYC 110210Z AUTO VRB03KT 10SM CLR 25/13 A3024 -130 48 1000 VRB/03 RMK AO2 T02500133 $
94728KNYC NYC20250810211511108/10/25 21:15:31  5-MIN KNYC 110215Z AUTO VRB04KT 10SM CLR 25/13 A3024 -130 48 1000 VRB/04 RMK AO2 T02500133 $
94728KNYC NYC20250810212011108/10/25 21:20:31  5-MIN KNYC 110220Z AUTO 23006KT 10SM CLR 24/14 A3024 -130 51 1000 240/06 RMK AO2 T02440139 $
94728KNYC NYC20250810212511108/10/25 21:25:31  5-MIN KNYC 110225Z AUTO 23006KT 10SM CLR 24/14 A3024 -130 51 1000 240/06 RMK AO2 T02440139 $
94728KNYC NYC20250810213011108/10/25 21:30:31  5-MIN KNYC 110230Z AUTO VRB04KT 10SM CLR 25/14 A3024 -130 49 1000 VRB/04 RMK AO2 T02500139 $
94728KNYC NYC20250810213511108/10/25 21:35:31  5-MIN KNYC 110235Z AUTO 23004KT 10SM CLR 25/14 A3024 -130 49 1000 240/04 RMK AO2 T02500139 $
94728KNYC NYC20250810214011108/10/25 21:40:31  5-MIN KNYC 110240Z AUTO VRB04KT 10SM CLR 25/14 A3024 -130 49 1000 VRB/04 RMK AO2 T02500139 $
94728KNYC NYC20250810214512408/10/25 21:45:31  5-MIN KNYC 110245Z AUTO VRB03KT 10SM CLR 24/14 A3024 -130 51 1000 VRB/03 RMK AO2 SLP229 T02440139 55003 $
94728KNYC NYC20250810215012408/10/25 21:50:31  5-MIN KNYC 110250Z AUTO VRB03KT 10SM CLR 24/14 A3024 -130 51 1000 VRB/03 RMK AO2 SLP229 T02440139 55003 $
94728KNYC NYC20250810215511108/10/25 21:55:31  5-MIN KNYC 110255Z AUTO 23003KT 10SM CLR 24/14 A3024 -130 51 1000 250/03 RMK AO2 T02440139 $
94728KNYC NYC20250810220010108/10/25 22:00:31  5-MIN KNYC 110300Z AUTO 10SM CLR 24/14 A3024 -130 51 1000 M /M RMK AO2 T02440139 $
94728KNYC NYC20250810220511108/10/25 22:05:31  5-MIN KNYC 110305Z AUTO VRB03KT 10SM CLR 25/13 A3024 -130 48 1000 VRB/03 RMK AO2 T02500133 $
94728KNYC NYC20250810221011108/10/25 22:10:31  5-MIN KNYC 110310Z AUTO 00000KT 10SM CLR 24/14 A3024 -130 51 1000 000/00 RMK AO2 T02440139 $
94728KNYC NYC20250810221511108/10/25 22:15:31  5-MIN KNYC 110315Z AUTO VRB04KT 10SM CLR 24/14 A3024 -130 51 1000 VRB/04 RMK AO2 T02440139 $
94728KNYC NYC20250810222011108/10/25 22:20:31  5-MIN KNYC 110320Z AUTO VRB03KT 10SM CLR 24/14 A3024 -130 51 1000 VRB/03 RMK AO2 T02440139 $
94728KNYC NYC20250810222511108/10/25 22:25:31  5-MIN KNYC 110325Z AUTO VRB03KT 10SM CLR 24/14 A3024 -130 51 1000 VRB/03 RMK AO2 T02440139 $
94728KNYC NYC20250810223011108/10/25 22:30:31  5-MIN KNYC 110330Z AUTO VRB04KT 10SM CLR 24/14 A3024 -130 51 1000 VRB/04 RMK AO2 T02440139 $
94728KNYC NYC20250810223511108/10/25 22:35:31  5-MIN KNYC 110335Z AUTO 25005KT 10SM CLR 24/14 A3024 -130 51 1000 260/05 RMK AO2 T02440139 $
94728KNYC NYC20250810224011108/10/25 22:40:31  5-MIN KNYC 110340Z AUTO 23005KT 10SM CLR 24/14 A3024 -140 51 1000 240/05 RMK AO2 T02440139 $
94728KNYC NYC20250810224511808/10/25 22:45:31  5-MIN KNYC 110345Z AUTO VRB06KT 10SM CLR 24/14 A3024 -130 51 1000 VRB/06 RMK AO2 SLP231 T02440139 $
94728KNYC NYC20250810225011808/10/25 22:50:31  5-MIN KNYC 110350Z AUTO 24005KT 10SM CLR 24/14 A3024 -130 51 1000 250/05 RMK AO2 SLP231 T02440139 $
94728KNYC NYC20250810225510108/10/25 22:55:31  5-MIN KNYC 110355Z AUTO 10SM CLR 24/14 A3024 -130 51 1000 M /M RMK AO2 T02440139 $
94728KNYC NYC20250810230011108/10/25 23:00:31  5-MIN KNYC 110400Z AUTO VRB03KT 10SM CLR 24/14 A3024 -130 51 1000 VRB/03 RMK AO2 T02440139 $
94728KNYC NYC20250810230511108/10/25 23:05:31  5-MIN KNYC 110405Z AUTO 25004KT 10SM CLR 24/14 A3024 -130 51 1000 260/04 RMK AO2 T02440139 $
94728KNYC NYC20250810231010008/10/25 23:10:31  5-MIN KNYC 110410Z AUTO 10SM CLR 24/14 A3024 -130 53 900 M /M RMK AO2 T02390139 $
94728KNYC NYC20250810231511008/10/25 23:15:31  5-MIN KNYC 110415Z AUTO VRB05KT 10SM CLR 24/14 A3024 -130 53 900 VRB/05 RMK AO2 T02390139 $
94728KNYC NYC20250810232011108/10/25 23:20:31  5-MIN KNYC 110420Z AUTO VRB06KT 10SM CLR 24/14 A3024 -130 51 1000 VRB/06 RMK AO2 T02440139 $
94728KNYC NYC20250810232511108/10/25 23:25:31  5-MIN KNYC 110425Z AUTO VRB04KT 10SM CLR 24/14 A3024 -130 51 1000 VRB/04 RMK AO2 T02440139 $
94728KNYC NYC20250810233011108/10/25 23:30:31  5-MIN KNYC 110430Z AUTO VRB04KT 10SM CLR 24/14 A3023 -120 51 1000 VRB/04 RMK AO2 T02440139 $
94728KNYC NYC20250810233511008/10/25 23:35:31  5-MIN KNYC 110435Z AUTO 00000KT 10SM CLR 24/14 A3023 -120 55 900 000/00 RMK AO2 T02390144 $
94728KNYC NYC20250810234011008/10/25 23:40:31  5-MIN KNYC 110440Z AUTO VRB04KT 10SM CLR 24/14 A3023 -120 55 900 VRB/04 RMK AO2 T02390144 $
94728KNYC NYC20250810234512708/10/25 23:45:31  5-MIN KNYC 110445Z AUTO VRB03KT 10SM CLR 24/14 A3023 -120 55 900 VRB/03 RMK AO2 SLP226 T02390144 403220206 $
94728KNYC NYC20250810235011708/10/25 23:50:31  5-MIN KNYC 110450Z AUTO 10SM CLR 24/14 A3023 -120 55 900 M /M RMK AO2 SLP226 T02390144 403220206 $
94728KNYC NYC20250810235511008/10/25 23:55:31  5-MIN KNYC 110455Z AUTO VRB06KT 10SM CLR 24/14 A3023 -120 53 900 VRB/06 RMK AO2 T02390139 $
94728KNYC NYC20250811000010008/11/25 00:00:31  5-MIN KNYC 110500Z AUTO 10SM CLR 24/14 A3022 -120 55 900 M /M RMK AO2 T02390144 $
94728KNYC NYC20250811000511108/11/25 00:05:31  5-MIN KNYC 110505Z AUTO VRB05KT 10SM CLR 24/14 A3023 -120 51 1000 VRB/05 RMK AO2 T02440139 $
94728KNYC NYC20250811001011008/11/25 00:10:31  5-MIN KNYC 110510Z AUTO 24005KT 10SM CLR 24/14 A3023 -120 53 900 250/05 RMK AO2 T02390139 $
94728KNYC NYC20250811001511008/11/25 00:15:31  5-MIN KNYC 110515Z AUTO VRB04KT 10SM CLR 24/14 A3023 -120 55 900 VRB/04 RMK AO2 T02390144 $
94728KNYC NYC20250811002011008/11/25 00:20:31  5-MIN KNYC 110520Z AUTO VRB06KT 10SM CLR 24/14 A3023 -120 55 900 VRB/06 RMK AO2 T02390144 $
94728KNYC NYC20250811002511008/11/25 00:25:31  5-MIN KNYC 110525Z AUTO VRB06KT 10SM CLR 24/14 A3022 -120 55 900 VRB/06 RMK AO2 T02390144 $
94728KNYC NYC20250811003011008/11/25 00:30:31  5-MIN KNYC 110530Z AUTO VRB03KT 10SM CLR 24/14 A3022 -120 55 900 VRB/03 RMK AO2 T02390144 $
94728KNYC NYC20250811003510008/11/25 00:35:31  5-MIN KNYC 110535Z AUTO 10SM CLR 23/14 A3023 -120 57 900 M /M RMK AO2 T02330144 $
94728KNYC NYC20250811004011008/11/25 00:40:31  5-MIN KNYC 110540Z AUTO 26006KT 10SM CLR 23/14 A3023 -120 57 900 270/06 RMK AO2 T02330144 $
94728KNYC NYC20250811004512508/11/25 00:45:31  5-MIN KNYC 110545Z AUTO 10SM CLR 23/14 A3023 -120 57 900 M /M RMK AO2 SLP225 T02330144 10267 20233 50005 $
94728KNYC NYC20250811005013508/11/25 00:50:31  5-MIN KNYC 110550Z AUTO VRB03KT 10SM CLR 24/14 A3023 -120 55 900 VRB/03 RMK AO2 SLP225 T02390144 10267 20233 50005 $
94728KNYC NYC20250811005511008/11/25 00:55:31  5-MIN KNYC 110555Z AUTO 23006KT 10SM CLR 24/15 A3023 -120 57 900 250/06 RMK AO2 T02390150 $
94728KNYC NYC20250811010011008/11/25 01:00:31  5-MIN KNYC 110600Z AUTO VRB04KT 10SM CLR 24/14 A3023 -120 55 900 VRB/04 RMK AO2 T02390144 $
94728KNYC NYC20250811010511008/11/25 01:05:31  5-MIN KNYC 110605Z AUTO VRB03KT 10SM CLR 24/15 A3023 -120 57 900 VRB/03 RMK AO2 T02390150 $
94728KNYC NYC20250811011011008/11/25 01:10:31  5-MIN KNYC 110610Z AUTO VRB04KT 10SM CLR 23/15 A3022 -120 59 900 VRB/04 RMK AO2 T02330150 $
94728KNYC NYC20250811011511008/11/25 01:15:31  5-MIN KNYC 110615Z AUTO 00000KT 10SM CLR 23/15 A3022 -110 59 900 000/00 RMK AO2 T02330150 $
94728KNYC NYC20250811012010008/11/25 01:20:31  5-MIN KNYC 110620Z AUTO 10SM CLR 23/15 A3022 -120 59 900 M /M RMK AO2 T02330150 $
94728KNYC NYC20250811012511008/11/25 01:25:31  5-MIN KNYC 110625Z AUTO VRB04KT 10SM CLR 23/15 A3022 -120 59 900 VRB/04 RMK AO2 T02330150 $
94728KNYC NYC20250811013011008/11/25 01:30:31  5-MIN KNYC 110630Z AUTO VRB04KT 10SM CLR 23/15 A3022 -120 59 900 VRB/04 RMK AO2 T02330150 $
94728KNYC NYC20250811013511008/11/25 01:35:31  5-MIN KNYC 110635Z AUTO 27003KT 10SM CLR 23/15 A3022 -120 59 900 280/03 RMK AO2 T02330150 $
94728KNYC NYC20250811014011008/11/25 01:40:31  5-MIN KNYC 110640Z AUTO 26004KT 10SM CLR 23/15 A3022 -120 59 900 270/04 RMK AO2 T02330150 $
94728KNYC NYC20250811014511708/11/25 01:45:31  5-MIN KNYC 110645Z AUTO VRB03KT 10SM CLR 23/15 A3022 -120 59 900 VRB/03 RMK AO2 SLP224 T02330150 $
94728KNYC NYC20250811015011708/11/25 01:50:31  5-MIN KNYC 110650Z AUTO 27005KT 10SM CLR 23/15 A3022 -120 59 900 290/05 RMK AO2 SLP224 T02330150 $
94728KNYC NYC20250811015511008/11/25 01:55:31  5-MIN KNYC 110655Z AUTO 27004KT 10SM CLR 23/15 A3022 -120 59 900 290/04 RMK AO2 T02330150 $
94728KNYC NYC20250811020011008/11/25 02:00:31  5-MIN KNYC 110700Z AUTO VRB04KT 10SM CLR 23/15 A3022 -120 59 900 VRB/04 RMK AO2 T02330150 $
94728KNYC NYC20250811020511008/11/25 02:05:31  5-MIN KNYC 110705Z AUTO VRB03KT 10SM CLR 23/15 A3022 -120 59 900 VRB/03 RMK AO2 T02330150 $
94728KNYC NYC20250811021011008/11/25 02:10:31  5-MIN KNYC 110710Z AUTO 28003KT 10SM CLR 23/15 A3022 -120 61 800 290/03 RMK AO2 T02280150 $
94728KNYC NYC20250811021511008/11/25 02:15:31  5-MIN KNYC 110715Z AUTO 26003KT 10SM CLR 23/15 A3022 -120 61 800 280/03 RMK AO2 T02280150 $
94728KNYC NYC20250811022011008/11/25 02:20:31  5-MIN KNYC 110720Z AUTO 26004KT 10SM CLR 23/15 A3022 -120 61 800 270/04 RMK AO2 T02280150 $
94728KNYC NYC20250811022511008/11/25 02:25:31  5-MIN KNYC 110725Z AUTO VRB04KT 10SM CLR 23/15 A3022 -120 61 800 VRB/04 RMK AO2 T02280150 $
94728KNYC NYC20250811023011008/11/25 02:30:31  5-MIN KNYC 110730Z AUTO VRB03KT 10SM CLR 23/15 A3022 -120 61 800 VRB/03 RMK AO2 T02280150 $
94728KNYC NYC20250811023511008/11/25 02:35:31  5-MIN KNYC 110735Z AUTO 27003KT 10SM CLR 23/15 A3022 -120 61 800 280/03 RMK AO2 T02280150 $
94728KNYC NYC20250811024011008/11/25 02:40:31  5-MIN KNYC 110740Z AUTO 28004KT 10SM CLR 23/15 A3022 -110 61 800 290/04 RMK AO2 T02280150 $
94728KNYC NYC20250811024511708/11/25 02:45:31  5-MIN KNYC 110745Z AUTO 27003KT 10SM CLR 23/15 A3022 -110 61 800 280/03 RMK AO2 SLP224 T02280150 $
94728KNYC NYC20250811025011708/11/25 02:50:31  5-MIN KNYC 110750Z AUTO 00000KT 10SM CLR 23/15 A3022 -120 61 800 000/00 RMK AO2 SLP225 T02280150 $
94728KNYC NYC20250811025511008/11/25 02:55:31  5-MIN KNYC 110755Z AUTO 28004KT 10SM CLR 23/15 A3022 -120 61 800 290/04 RMK AO2 T02280150 $
94728KNYC NYC20250811030011008/11/25 03:00:31  5-MIN KNYC 110800Z AUTO VRB05KT 10SM CLR 23/15 A3022 -120 61 800 VRB/05 RMK AO2 T02280150 $
94728KNYC NYC20250811030511008/11/25 03:05:31  5-MIN KNYC 110805Z AUTO 28003KT 10SM CLR 23/15 A3022 -120 61 800 290/03 RMK AO2 T02280150 $
94728KNYC NYC20250811031011008/11/25 03:10:31  5-MIN KNYC 110810Z AUTO VRB03KT 10SM CLR 23/15 A3022 -120 61 800 VRB/03 RMK AO2 T02280150 $
94728KNYC NYC20250811031511008/11/25 03:15:31  5-MIN KNYC 110815Z AUTO 26003KT 10SM CLR 23/15 A3022 -120 61 800 270/03 RMK AO2 T02280150 $
94728KNYC NYC20250811032011008/11/25 03:20:31  5-MIN KNYC 110820Z AUTO 27004KT 10SM CLR 23/15 A3023 -120 61 800 280/04 RMK AO2 T02280150 $
94728KNYC NYC20250811032511008/11/25 03:25:31  5-MIN KNYC 110825Z AUTO 00000KT 10SM CLR 23/15 A3022 -120 61 800 000/00 RMK AO2 T02280150 $
94728KNYC NYC20250811033011008/11/25 03:30:31  5-MIN KNYC 110830Z AUTO 27004KT 10SM CLR 23/15 A3022 -120 61 800 280/04 RMK AO2 T02280150 $
94728KNYC NYC20250811033511008/11/25 03:35:31  5-MIN KNYC 110835Z AUTO 28004KT 10SM CLR 23/15 A3022 -120 61 800 290/04 RMK AO2 T02280150 $
94728KNYC NYC20250811034011008/11/25 03:40:31  5-MIN KNYC 110840Z AUTO 28003KT 10SM CLR 23/14 A3022 -120 59 800 290/03 RMK AO2 T02280144 $
94728KNYC NYC20250811034512308/11/25 03:45:31  5-MIN KNYC 110845Z AUTO 27003KT 10SM CLR 22/14 A3022 -120 61 700 290/03 RMK AO2 SLP224 T02220144 58004 $
94728KNYC NYC20250811035012308/11/25 03:50:31  5-MIN KNYC 110850Z AUTO VRB03KT 10SM CLR 22/15 A3022 -110 63 700 VRB/03 RMK AO2 SLP224 T02220150 58004 $
94728KNYC NYC20250811035511008/11/25 03:55:31  5-MIN KNYC 110855Z AUTO 00000KT 10SM CLR 22/15 A3022 -110 63 700 000/00 RMK AO2 T02220150 $
94728KNYC NYC20250811040011008/11/25 04:00:31  5-MIN KNYC 110900Z AUTO 26003KT 10SM CLR 22/15 A3022 -120 63 700 270/03 RMK AO2 T02220150 $
94728KNYC NYC20250811040511008/11/25 04:05:31  5-MIN KNYC 110905Z AUTO VRB03KT 10SM CLR 22/15 A3022 -120 63 700 VRB/03 RMK AO2 T02220150 $
94728KNYC NYC20250811041011008/11/25 04:10:31  5-MIN KNYC 110910Z AUTO 00000KT 10SM CLR 22/15 A3022 -120 63 700 000/00 RMK AO2 T02220150 $
94728KNYC NYC20250811041511008/11/25 04:15:31  5-MIN KNYC 110915Z AUTO 00000KT 10SM CLR 22/14 A3023 -120 61 700 000/00 RMK AO2 T02220144 $
94728KNYC NYC20250811042011008/11/25 04:20:31  5-MIN KNYC 110920Z AUTO 00000KT 10SM CLR 22/14 A3023 -120 61 700 000/00 RMK AO2 T02220144 $
94728KNYC NYC20250811042511008/11/25 04:25:31  5-MIN KNYC 110925Z AUTO 00000KT 10SM CLR 22/14 A3023 -120 61 700 000/00 RMK AO2 T02220144 $
94728KNYC NYC20250811043011008/11/25 04:30:31  5-MIN KNYC 110930Z AUTO 00000KT 10SM CLR 22/14 A3023 -120 61 700 000/00 RMK AO2 T02220144 $
94728KNYC NYC20250811043511008/11/25 04:35:31  5-MIN KNYC 110935Z AUTO 00000KT 10SM CLR 22/14 A3023 -120 61 700 000/00 RMK AO2 T02220144 $
94728KNYC NYC20250811044011008/11/25 04:40:31  5-MIN KNYC 110940Z AUTO 00000KT 10SM CLR 22/14 A3023 -120 61 700 000/00 RMK AO2 T02220144 $
94728KNYC NYC20250811044511708/11/25 04:45:31  5-MIN KNYC 110945Z AUTO 00000KT 10SM CLR 22/14 A3023 -120 61 700 000/00 RMK AO2 SLP227 T02220144 $
94728KNYC NYC20250811045011708/11/25 04:50:31  5-MIN KNYC 110950Z AUTO 28004KT 10SM CLR 22/14 A3023 -120 61 700 290/04 RMK AO2 SLP227 T02220144 $
94728KNYC NYC20250811045511008/11/25 04:55:31  5-MIN KNYC 110955Z AUTO 28003KT 10SM CLR 22/14 A3023 -130 61 700 290/03 RMK AO2 T02220144 $
94728KNYC NYC20250811050011008/11/25 05:00:31  5-MIN KNYC 111000Z AUTO 27003KT 10SM CLR 22/14 A3024 -130 59 700 280/03 RMK AO2 T02220139 $
94728KNYC NYC20250811050511008/11/25 05:05:31  5-MIN KNYC 111005Z AUTO 27003KT 10SM CLR 22/14 A3024 -130 59 700 290/03 RMK AO2 T02220139 $
94728KNYC NYC20250811051011008/11/25 05:10:31  5-MIN KNYC 111010Z AUTO 28003KT 10SM CLR 22/14 A3024 -130 59 700 290/03 RMK AO2 T02220139 $
94728KNYC NYC20250811051511008/11/25 05:15:31  5-MIN KNYC 111015Z AUTO VRB03KT 10SM CLR 22/14 A3024 -130 59 700 VRB/03 RMK AO2 T02220139 $
94728KNYC NYC20250811052011008/11/25 05:20:31  5-MIN KNYC 111020Z AUTO 28003KT 10SM CLR 22/14 A3024 -130 59 700 300/03 RMK AO2 T02220139 $
94728KNYC NYC20250811052511008/11/25 05:25:31  5-MIN KNYC 111025Z AUTO 28003KT 10SM CLR 22/14 A3024 -130 59 700 290/03 RMK AO2 T02220139 $
94728KNYC NYC20250811053011008/11/25 05:30:31  5-MIN KNYC 111030Z AUTO 00000KT 10SM CLR 22/14 A3024 -130 61 700 000/00 RMK AO2 T02220144 $
94728KNYC NYC20250811053511008/11/25 05:35:31  5-MIN KNYC 111035Z AUTO 00000KT 10SM CLR 22/14 A3024 -130 61 700 000/00 RMK AO2 T02220144 $
94728KNYC NYC20250811054011008/11/25 05:40:31  5-MIN KNYC 111040Z AUTO 00000KT 10SM CLR 22/14 A3024 -130 61 700 000/00 RMK AO2 T02220144 $
94728KNYC NYC20250811054511708/11/25 05:45:31  5-MIN KNYC 111045Z AUTO 00000KT 10SM CLR 22/14 A3024 -130 61 700 000/00 RMK AO2 SLP230 T02220144 $
94728KNYC NYC20250811055011708/11/25 05:50:31  5-MIN KNYC 111050Z AUTO 00000KT 10SM CLR 22/14 A3024 -130 61 700 000/00 RMK AO2 SLP231 T02220144 $
94728KNYC NYC20250811055511008/11/25 05:55:31  5-MIN KNYC 111055Z AUTO 00000KT 10SM CLR 23/14 A3024 -140 59 800 000/00 RMK AO2 T02280144 $
94728KNYC NYC20250811060011008/11/25 06:00:31  5-MIN KNYC 111100Z AUTO 00000KT 10SM CLR 22/14 A3024 -140 61 700 000/00 RMK AO2 T02220144 $
94728KNYC NYC20250811060511008/11/25 06:05:31  5-MIN KNYC 111105Z AUTO 00000KT 10SM CLR 22/15 A3025 -140 63 700 000/00 RMK AO2 T02220150 $
94728KNYC NYC20250811061011008/11/25 06:10:31  5-MIN KNYC 111110Z AUTO 00000KT 10SM CLR 23/15 A3025 -140 61 800 000/00 RMK AO2 T02280150 $
94728KNYC NYC20250811061511008/11/25 06:15:31  5-MIN KNYC 111115Z AUTO 00000KT 10SM CLR 23/14 A3025 -140 59 800 000/00 RMK AO2 T02280144 $
94728KNYC NYC20250811062011008/11/25 06:20:31  5-MIN KNYC 111120Z AUTO 00000KT 10SM CLR 23/15 A3025 -140 61 800 000/00 RMK AO2 T02280150 $
94728KNYC NYC20250811062511008/11/25 06:25:31  5-MIN KNYC 111125Z AUTO 00000KT 10SM CLR 23/15 A3025 -140 61 800 000/00 RMK AO2 T02280150 $
94728KNYC NYC20250811063011008/11/25 06:30:31  5-MIN KNYC 111130Z AUTO 00000KT 10SM CLR 23/15 A3025 -140 59 800 000/00 RMK AO2 T02330150 $
94728KNYC NYC20250811063511008/11/25 06:35:31  5-MIN KNYC 111135Z AUTO 00000KT 10SM CLR 23/15 A3026 -150 59 800 000/00 RMK AO2 T02330150 $
94728KNYC NYC20250811064011008/11/25 06:40:31  5-MIN KNYC 111140Z AUTO 00000KT 10SM CLR 23/14 A3025 -140 57 800 000/00 RMK AO2 T02330144 $
94728KNYC NYC20250811064513508/11/25 06:45:31  5-MIN KNYC 111145Z AUTO 00000KT 10SM CLR 23/15 A3026 -150 59 800 000/00 RMK AO2 SLP236 T02330150 10239 20222 58002 $
94728KNYC NYC20250811065013508/11/25 06:50:31  5-MIN KNYC 111150Z AUTO 00000KT 10SM CLR 24/15 A3026 -150 57 900 000/00 RMK AO2 SLP236 T02390150 10239 20222 58002 $
94728KNYC NYC20250811065511008/11/25 06:55:31  5-MIN KNYC 111155Z AUTO 00000KT 10SM CLR 24/15 A3026 -150 57 900 000/00 RMK AO2 T02390150 $
94728KNYC NYC20250811070011008/11/25 07:00:31  5-MIN KNYC 111200Z AUTO 00000KT 10SM CLR 24/14 A3026 -150 55 900 000/00 RMK AO2 T02390144 $
94728KNYC NYC20250811070511008/11/25 07:05:31  5-MIN KNYC 111205Z AUTO 00000KT 10SM CLR 24/14 A3026 -150 53 900 000/00 RMK AO2 T02440144 $
94728KNYC NYC20250811071011008/11/25 07:10:31  5-MIN KNYC 111210Z AUTO VRB03KT 10SM CLR 24/14 A3026 -150 55 900 VRB/03 RMK AO2 T02390144 $
94728KNYC NYC20250811071511008/11/25 07:15:31  5-MIN KNYC 111215Z AUTO 00000KT 10SM CLR 24/14 A3026 -150 55 900 000/00 RMK AO2 T02390144 $
94728KNYC NYC20250811072011008/11/25 07:20:31  5-MIN KNYC 111220Z AUTO 00000KT 10SM CLR 24/14 A3026 -150 53 900 000/00 RMK AO2 T02440144 $
94728KNYC NYC20250811072511008/11/25 07:25:31  5-MIN KNYC 111225Z AUTO 00000KT 10SM CLR 24/14 A3026 -150 51 900 000/00 RMK AO2 T02440139 $
94728KNYC NYC20250811073011008/11/25 07:30:31  5-MIN KNYC 111230Z AUTO 00000KT 10SM CLR 24/14 A3026 -150 53 900 000/00 RMK AO2 T02440144 $
94728KNYC NYC20250811073511008/11/25 07:35:31  5-MIN KNYC 111235Z AUTO 00000KT 10SM CLR 24/14 A3026 -150 53 900 000/00 RMK AO2 T02440144 $
94728KNYC NYC20250811074011008/11/25 07:40:31  5-MIN KNYC 111240Z AUTO 00000KT 10SM CLR 24/14 A3026 -150 53 900 000/00 RMK AO2 T02440144 $
94728KNYC NYC20250811074511708/11/25 07:45:31  5-MIN KNYC 111245Z AUTO VRB03KT 10SM CLR 24/14 A3026 -150 53 900 VRB/03 RMK AO2 SLP237 T02440144 $
94728KNYC NYC20250811075011808/11/25 07:50:31  5-MIN KNYC 111250Z AUTO 00000KT 10SM CLR 25/13 A3026 -150 48 1000 000/00 RMK AO2 SLP238 T02500133 $
94728KNYC NYC20250811075511108/11/25 07:55:31  5-MIN KNYC 111255Z AUTO 26004KT 10SM CLR 25/12 A3026 -150 44 1000 270/04 RMK AO2 T02500122 $
94728KNYC NYC20250811080011108/11/25 08:00:31  5-MIN KNYC 111300Z AUTO 00000KT 10SM CLR 25/12 A3026 -150 44 1000 000/00 RMK AO2 T02500122 $
94728KNYC NYC20250811080511108/11/25 08:05:31  5-MIN KNYC 111305Z AUTO VRB03KT 10SM CLR 25/13 A3026 -150 48 1000 VRB/03 RMK AO2 T02500133 $
94728KNYC NYC20250811081010108/11/25 08:10:31  5-MIN KNYC 111310Z AUTO 10SM CLR 25/13 A3026 -150 46 1000 M /M RMK AO2 T02500128 $
94728KNYC NYC20250811081511108/11/25 08:15:31  5-MIN KNYC 111315Z AUTO 24007KT 10SM CLR 25/12 A3026 -150 44 1000 250/07 RMK AO2 T02500122 $
94728KNYC NYC20250811082011108/11/25 08:20:31  5-MIN KNYC 111320Z AUTO 23005KT 10SM CLR 26/11 A3026 -150 40 1100 250/05 RMK AO2 T02560111 $
94728KNYC NYC20250811082511108/11/25 08:25:31  5-MIN KNYC 111325Z AUTO VRB05KT 10SM CLR 26/11 A3026 -150 38 1100 VRB/05 RMK AO2 T02560106 $
94728KNYC NYC20250811083011108/11/25 08:30:31  5-MIN KNYC 111330Z AUTO 25004KT 10SM CLR 26/11 A3026 -150 37 1100 260/04 RMK AO2 T02610106 $
94728KNYC NYC20250811083511108/11/25 08:35:31  5-MIN KNYC 111335Z AUTO 00000KT 10SM CLR 26/11 A3026 -150 37 1100 000/00 RMK AO2 T02610106 $
94728KNYC NYC20250811084010108/11/25 08:40:31  5-MIN KNYC 111340Z AUTO 10SM CLR 26/11 A3027 -150 37 1100 M /M RMK AO2 T02610106 $
94728KNYC NYC20250811084510808/11/25 08:45:31  5-MIN KNYC 111345Z AUTO 10SM CLR 26/11 A3027 -160 40 1100 M /M RMK AO2 SLP239 T02560111 $
94728KNYC NYC20250811085011808/11/25 08:50:31  5-MIN KNYC 111350Z AUTO VRB04KT 10SM CLR 26/11 A3027 -160 37 1100 VRB/04 RMK AO2 SLP239 T02610106 $
94728KNYC NYC20250811085511108/11/25 08:55:31  5-MIN KNYC 111355Z AUTO 27004KT 10SM CLR 27/11 A3027 -160 36 1200 280/04 RMK AO2 T02670106 $
94728KNYC NYC20250811090011108/11/25 09:00:31  5-MIN KNYC 111400Z AUTO VRB03KT 10SM CLR 27/11 A3027 -160 36 1200 VRB/03 RMK AO2 T02670106 $
94728KNYC NYC20250811090511108/11/25 09:05:31  5-MIN KNYC 111405Z AUTO VRB04KT 10SM CLR 27/11 A3027 -160 37 1200 VRB/04 RMK AO2 T02670111 $
94728KNYC NYC20250811091011108/11/25 09:10:31  5-MIN KNYC 111410Z AUTO 00000KT 10SM CLR 27/12 A3027 -160 38 1200 000/00 RMK AO2 T02670117 $
94728KNYC NYC20250811091511108/11/25 09:15:31  5-MIN KNYC 111415Z AUTO 22005KT 10SM CLR 27/12 A3026 -150 40 1200 230/05 RMK AO2 T02670122 $
94728KNYC NYC20250811092011108/11/25 09:20:31  5-MIN KNYC 111420Z AUTO 21005KT 10SM CLR 27/11 A3026 -150 37 1200 220/05 RMK AO2 T02670111 $
94728KNYC NYC20250811092511108/11/25 09:25:31  5-MIN KNYC 111425Z AUTO VRB05KT 10SM CLR 27/11 A3026 -150 37 1200 VRB/05 RMK AO2 T02670111 $
94728KNYC NYC20250811093011108/11/25 09:30:31  5-MIN KNYC 111430Z AUTO 23006KT 10SM CLR 27/12 A3026 -150 38 1200 250/06 RMK AO2 T02670117 $
94728KNYC NYC20250811093511108/11/25 09:35:31  5-MIN KNYC 111435Z AUTO VRB05KT 10SM CLR 27/11 A3026 -150 36 1200 VRB/05 RMK AO2 T02670106 $
94728KNYC NYC20250811094011108/11/25 09:40:31  5-MIN KNYC 111440Z AUTO VRB03KT 10SM CLR 27/11 A3026 -150 36 1300 VRB/03 RMK AO2 T02720111 $
94728KNYC NYC20250811094511408/11/25 09:45:31  5-MIN KNYC 111445Z AUTO 10SM CLR 27/11 A3026 -150 34 1300 M /M RMK AO2 SLP238 T02720106 53013 $
94728KNYC NYC20250811095011408/11/25 09:50:31  5-MIN KNYC 111450Z AUTO 10SM CLR 27/11 A3026 -150 36 1300 M /M RMK AO2 SLP237 T02720111 53013 $
94728KNYC NYC20250811095511108/11/25 09:55:31  5-MIN KNYC 111455Z AUTO VRB03KT 10SM CLR 28/12 A3026 -150 36 1300 VRB/03 RMK AO2 T02780117 $
94728KNYC NYC20250811100011108/11/25 10:00:31  5-MIN KNYC 111500Z AUTO 00000KT 10SM CLR 28/12 A3026 -150 37 1300 000/00 RMK AO2 T02780122 $
94728KNYC NYC20250811100511108/11/25 10:05:31  5-MIN KNYC 111505Z AUTO VRB03KT 10SM CLR 28/11 A3026 -150 35 1300 VRB/03 RMK AO2 T02780111 $
94728KNYC NYC20250811101011008/11/25 10:10:31  5-MIN KNYC 111510Z AUTO 00000KT 9SM CLR 28/12 A3025 -140 35 1400 000/00 RMK AO2 T02830117 $
94728KNYC NYC20250811101511008/11/25 10:15:31  5-MIN KNYC 111515Z AUTO 00000KT 9SM CLR 28/12 A3025 -140 35 1400 000/00 RMK AO2 T02830117 $
94728KNYC NYC20250811102011008/11/25 10:20:31  5-MIN KNYC 111520Z AUTO VRB03KT 9SM CLR 29/12 A3025 -140 34 1500 VRB/03 RMK AO2 T02940122 $
94728KNYC NYC20250811102511008/11/25 10:25:31  5-MIN KNYC 111525Z AUTO 00000KT 9SM CLR 29/12 A3025 -140 34 1500 000/00 RMK AO2 T02890117 $
94728KNYC NYC20250811103011008/11/25 10:30:31  5-MIN KNYC 111530Z AUTO VRB04KT 9SM CLR 28/12 A3025 -140 36 1400 VRB/04 RMK AO2 T02830122 $
94728KNYC NYC20250811103511008/11/25 10:35:31  5-MIN KNYC 111535Z AUTO VRB03KT 9SM CLR 28/12 A3025 -140 36 1400 VRB/03 RMK AO2 T02830122 $
94728KNYC NYC20250811104011008/11/25 10:40:31  5-MIN KNYC 111540Z AUTO 00000KT 9SM CLR 28/12 A3024 -130 36 1400 000/00 RMK AO2 T02830122 $
94728KNYC NYC20250811104510808/11/25 10:45:31  5-MIN KNYC 111545Z AUTO 10SM CLR 29/12 A3024 -130 35 1500 M /M RMK AO2 SLP231 T02890122 $
94728KNYC NYC20250811105011708/11/25 10:50:31  5-MIN KNYC 111550Z AUTO 00000KT 9SM CLR 29/12 A3024 -130 33 1500 000/00 RMK AO2 SLP230 T02940117 $
94728KNYC NYC20250811105511008/11/25 10:55:31  5-MIN KNYC 111555Z AUTO 00000KT 9SM CLR 29/12 A3024 -130 33 1500 000/00 RMK AO2 T02940117 $
94728KNYC NYC20250811110011008/11/25 11:00:31  5-MIN KNYC 111600Z AUTO VRB04KT 9SM CLR 30/12 A3024 -130 33 1600 VRB/04 RMK AO2 T03000122 $
94728KNYC NYC20250811110511108/11/25 11:05:31  5-MIN KNYC 111605Z AUTO 00000KT 10SM CLR 30/12 A3024 -130 31 1600 000/00 RMK AO2 T03000117 $
94728KNYC NYC20250811111011108/11/25 11:10:31  5-MIN KNYC 111610Z AUTO 00000KT 10SM CLR 29/12 A3024 -130 33 1500 000/00 RMK AO2 T02940117 $
94728KNYC NYC20250811111510008/11/25 11:15:31  5-MIN KNYC 111615Z AUTO 9SM CLR 30/12 A3024 -130 31 1600 M /M RMK AO2 T03000117 $
94728KNYC NYC20250811112011008/11/25 11:20:31  5-MIN KNYC 111620Z AUTO VRB03KT 9SM CLR 30/12 A3024 -130 33 1600 VRB/03 RMK AO2 T03000122 $
94728KNYC NYC20250811112510008/11/25 11:25:31  5-MIN KNYC 111625Z AUTO 9SM CLR 31/13 A3023 -120 33 1700 M /M RMK AO2 T03060128 $
94728KNYC NYC20250811113011008/11/25 11:30:31  5-MIN KNYC 111630Z AUTO VRB06KT 9SM CLR 31/12 A3023 -130 32 1700 VRB/06 RMK AO2 T03060122 $
94728KNYC NYC20250811113511008/11/25 11:35:31  5-MIN KNYC 111635Z AUTO VRB04KT 9SM CLR 31/12 A3023 -120 32 1700 VRB/04 RMK AO2 T03060122 $
94728KNYC NYC20250811114010008/11/25 11:40:31  5-MIN KNYC 111640Z AUTO 9SM CLR 31/13 A3023 -120 32 1700 M /M RMK AO2 T03110128 $
94728KNYC NYC20250811114511708/11/25 11:45:31  5-MIN KNYC 111645Z AUTO VRB03KT 9SM CLR 31/13 A3023 -120 32 1700 VRB/03 RMK AO2 SLP227 T03110128 $
94728KNYC NYC20250811115010708/11/25 11:50:31  5-MIN KNYC 111650Z AUTO 9SM CLR 31/13 A3023 -120 32 1700 M /M RMK AO2 SLP227 T03110128 $
94728KNYC NYC20250811115511008/11/25 11:55:31  5-MIN KNYC 111655Z AUTO VRB03KT 9SM CLR 31/13 A3023 -120 33 1700 VRB/03 RMK AO2 T03060128 $
94728KNYC NYC20250811120011008/11/25 12:00:31  5-MIN KNYC 111700Z AUTO 18003KT 9SM CLR 31/13 A3023 -120 34 1700 190/03 RMK AO2 T03060133 $
94728KNYC NYC20250811120511008/11/25 12:05:31  5-MIN KNYC 111705Z AUTO VRB04KT 9SM CLR 30/13 A3022 -110 35 1600 VRB/04 RMK AO2 T03000133 $
94728KNYC NYC20250811121011008/11/25 12:10:31  5-MIN KNYC 111710Z AUTO VRB06KT 9SM CLR 30/13 A3022 -110 35 1600 VRB/06 RMK AO2 T03000133 $
94728KNYC NYC20250811121511008/11/25 12:15:31  5-MIN KNYC 111715Z AUTO VRB05KT 9SM CLR 31/13 A3022 -110 33 1700 VRB/05 RMK AO2 T03110133 $
94728KNYC NYC20250811122010008/11/25 12:20:31  5-MIN KNYC 111720Z AUTO 9SM CLR 31/14 A3022 -110 35 1700 M /M RMK AO2 T03060139 $
94728KNYC NYC20250811122511008/11/25 12:25:31  5-MIN KNYC 111725Z AUTO 21006KT 9SM CLR 31/13 A3021 -110 34 1700 220/06 RMK AO2 T03060133 $
94728KNYC NYC20250811123011008/11/25 12:30:31  5-MIN KNYC 111730Z AUTO 00000KT 9SM CLR 31/13 A3021 -110 34 1700 000/00 RMK AO2 T03060133 $
94728KNYC NYC20250811123510008/11/25 12:35:31  5-MIN KNYC 111735Z AUTO 9SM CLR 31/13 A3021 -100 33 1800 M /M RMK AO2 T03110133 $
94728KNYC NYC20250811124011008/11/25 12:40:31  5-MIN KNYC 111740Z AUTO VRB04KT 9SM CLR 31/14 A3021 -100 35 1700 VRB/04 RMK AO2 T03060139 $
94728KNYC NYC20250811124512508/11/25 12:45:31  5-MIN KNYC 111745Z AUTO 9SM CLR 31/13 A3021 -100 34 1700 M /M RMK AO2 SLP219 T03060133 10311 20239 50001 $
94728KNYC NYC20250811125012508/11/25 12:50:31  5-MIN KNYC 111750Z AUTO 9SM CLR 31/14 A3021 -100 34 1800 M /M RMK AO2 SLP218 T03110139 10311 20239 50001 $
94728KNYC NYC20250811125511008/11/25 12:55:31  5-MIN KNYC 111755Z AUTO 21006KT 9SM CLR 32/14 A3020 -100 33 1800 220/06 RMK AO2 T03170139 $
94728KNYC NYC20250811130011008/11/25 13:00:31  5-MIN KNYC 111800Z AUTO VRB06KT 9SM CLR 31/14 A3020 -100 34 1800 VRB/06 RMK AO2 T03110139 $
94728KNYC NYC20250811130511508/11/25 13:05:31  5-MIN KNYC 111805Z AUTO 23010G16KT 9SM CLR 31/14 A3020 -90 34 1800 250/10G16 RMK AO2 T03110139 $
94728KNYC NYC20250811131013108/11/25 13:10:31  5-MIN KNYC 111810Z AUTO 22007G16KT 180V260 9SM CLR 31/14 A3020 -90 34 1800 240/07G16 190V270 RMK AO2 T03110139 $
94728KNYC NYC20250811131510908/11/25 13:15:31  5-MIN KNYC 111815Z AUTO 22008KT 9SM CLR 31/13 A3019 -90 33 1800 240/08 RMK AO2 T03110133 $
94728KNYC NYC20250811132010908/11/25 13:20:31  5-MIN KNYC 111820Z AUTO 22005KT 9SM CLR 31/13 A3020 -90 32 1800 240/05 RMK AO2 T03110128 $
94728KNYC NYC20250811132510908/11/25 13:25:31  5-MIN KNYC 111825Z AUTO 21006KT 9SM CLR 31/13 A3019 -90 33 1700 230/06 RMK AO2 T03060128 $
94728KNYC NYC20250811133009908/11/25 13:30:31  5-MIN KNYC 111830Z AUTO 9SM CLR 31/13 A3019 -90 33 1800 M /M RMK AO2 T03110133 $
94728KNYC NYC20250811133510908/11/25 13:35:31  5-MIN KNYC 111835Z AUTO VRB05KT 9SM CLR 31/13 A3019 -90 32 1800 VRB/05 RMK AO2 T03110128 $
94728KNYC NYC20250811134009908/11/25 13:40:31  5-MIN KNYC 111840Z AUTO 9SM CLR 31/13 A3019 -90 33 1800 M /M RMK AO2 T03110133 $
94728KNYC NYC20250811134511608/11/25 13:45:31  5-MIN KNYC 111845Z AUTO VRB03KT 9SM CLR 31/13 A3019 -90 33 1800 VRB/03 RMK AO2 SLP213 T03110133 $
94728KNYC NYC20250811135010608/11/25 13:50:31  5-MIN KNYC 111850Z AUTO 9SM CLR 31/14 A3019 -90 34 1800 M /M RMK AO2 SLP213 T03110139 $
94728KNYC NYC20250811135510908/11/25 13:55:31  5-MIN KNYC 111855Z AUTO VRB04KT 9SM CLR 31/13 A3019 -80 34 1700 VRB/04 RMK AO2 T03060133 $
94728KNYC NYC20250811140009908/11/25 14:00:31  5-MIN KNYC 111900Z AUTO 9SM CLR 31/13 A3019 -80 34 1700 M /M RMK AO2 T03060133 $
94728KNYC NYC20250811140510908/11/25 14:05:31  5-MIN KNYC 111905Z AUTO 00000KT 9SM CLR 31/14 A3019 -80 34 1800 000/00 RMK AO2 T03110139 $
94728KNYC NYC20250811141010908/11/25 14:10:31  5-MIN KNYC 111910Z AUTO VRB03KT 9SM CLR 31/13 A3018 -80 33 1800 VRB/03 RMK AO2 T03110133 $
94728KNYC NYC20250811141510908/11/25 14:15:31  5-MIN KNYC 111915Z AUTO VRB03KT 9SM CLR 31/14 A3018 -80 34 1800 VRB/03 RMK AO2 T03110139 $
94728KNYC NYC20250811142009908/11/25 14:20:31  5-MIN KNYC 111920Z AUTO 9SM CLR 31/13 A3018 -80 33 1800 M /M RMK AO2 T03110133 $
94728KNYC NYC20250811142510908/11/25 14:25:31  5-MIN KNYC 111925Z AUTO 00000KT 9SM CLR 31/13 A3018 -80 33 1800 000/00 RMK AO2 T03110133 $
94728KNYC NYC20250811143009908/11/25 14:30:31  5-MIN KNYC 111930Z AUTO 9SM CLR 31/14 A3018 -80 35 1700 M /M RMK AO2 T03060139 $
94728KNYC NYC20250811143509908/11/25 14:35:31  5-MIN KNYC 111935Z AUTO 9SM CLR 31/14 A3018 -80 34 1800 M /M RMK AO2 T03110139 $
94728KNYC NYC20250811144009908/11/25 14:40:31  5-MIN KNYC 111940Z AUTO 9SM CLR 31/14 A3018 -80 35 1800 M /M RMK AO2 T03110144 $
94728KNYC NYC20250811144511608/11/25 14:45:31  5-MIN KNYC 111945Z AUTO 16003KT 9SM CLR 31/14 A3018 -80 37 1700 170/03 RMK AO2 SLP210 T03060144 $
94728KNYC NYC20250811145011608/11/25 14:50:31  5-MIN KNYC 111950Z AUTO VRB04KT 9SM CLR 31/14 A3018 -80 37 1700 VRB/04 RMK AO2 SLP210 T03060144 $
94728KNYC NYC20250811145510908/11/25 14:55:31  5-MIN KNYC 111955Z AUTO 00000KT 9SM CLR 30/14 A3018 -80 38 1700 000/00 RMK AO2 T03000144 $
94728KNYC NYC20250811150009908/11/25 15:00:31  5-MIN KNYC 112000Z AUTO 9SM CLR 31/14 A3018 -80 37 1700 M /M RMK AO2 T03060144 $
94728KNYC NYC20250811150510908/11/25 15:05:31  5-MIN KNYC 112005Z AUTO VRB04KT 9SM CLR 30/15 A3018 -80 39 1700 VRB/04 RMK AO2 T03000150 $
94728KNYC NYC20250811151009908/11/25 15:10:31  5-MIN KNYC 112010Z AUTO 9SM CLR 30/15 A3018 -80 39 1700 M /M RMK AO2 T03000150 $
94728KNYC NYC20250811151509908/11/25 15:15:31  5-MIN KNYC 112015Z AUTO 9SM CLR 30/16 A3018 -80 41 1700 M /M RMK AO2 T03000156 $
94728KNYC NYC20250811152010908/11/25 15:20:31  5-MIN KNYC 112020Z AUTO VRB04KT 9SM CLR 30/16 A3018 -80 41 1700 VRB/04 RMK AO2 T03000156 $
94728KNYC NYC20250811152511008/11/25 15:25:31  5-MIN KNYC 112025Z AUTO VRB04KT 10SM CLR 29/16 A3018 -80 42 1600 VRB/04 RMK AO2 T02940156 $
94728KNYC NYC20250811153011008/11/25 15:30:31  5-MIN KNYC 112030Z AUTO VRB05KT 10SM CLR 29/15 A3018 -70 41 1600 VRB/05 RMK AO2 T02940150 $
94728KNYC NYC20250811153510008/11/25 15:35:31  5-MIN KNYC 112035Z AUTO 10SM CLR 29/15 A3018 -70 41 1600 M /M RMK AO2 T02940150 $
94728KNYC NYC20250811154010008/11/25 15:40:31  5-MIN KNYC 112040Z AUTO 10SM CLR 29/15 A3017 -70 41 1600 M /M RMK AO2 T02940150 $
94728KNYC NYC20250811154512308/11/25 15:45:31  5-MIN KNYC 112045Z AUTO VRB04KT 10SM CLR 29/15 A3017 -70 41 1600 VRB/04 RMK AO2 SLP207 T02940150 58019 $
94728KNYC NYC20250811155011308/11/25 15:50:31  5-MIN KNYC 112050Z AUTO 10SM CLR 29/15 A3017 -70 41 1600 M /M RMK AO2 SLP207 T02940150 58019 $
94728KNYC NYC20250811155511008/11/25 15:55:31  5-MIN KNYC 112055Z AUTO VRB04KT 10SM CLR 29/14 A3017 -70 39 1600 VRB/04 RMK AO2 T02940144 $
94728KNYC NYC20250811160011008/11/25 16:00:31  5-MIN KNYC 112100Z AUTO 00000KT 10SM CLR 29/14 A3017 -70 40 1500 000/00 RMK AO2 T02890144 $
94728KNYC NYC20250811160510008/11/25 16:05:31  5-MIN KNYC 112105Z AUTO 10SM CLR 29/14 A3017 -70 40 1500 M /M RMK AO2 T02890144 $
94728KNYC NYC20250811161010908/11/25 16:10:31  5-MIN KNYC 112110Z AUTO 00000KT 9SM CLR 29/14 A3017 -70 39 1600 000/00 RMK AO2 T02940144 $
94728KNYC NYC20250811161509908/11/25 16:15:31  5-MIN KNYC 112115Z AUTO 9SM CLR 29/15 A3017 -70 42 1500 M /M RMK AO2 T02890150 $
94728KNYC NYC20250811162010908/11/25 16:20:31  5-MIN KNYC 112120Z AUTO VRB06KT 9SM CLR 29/14 A3017 -70 40 1500 VRB/06 RMK AO2 T02890144 $
94728KNYC NYC20250811162509908/11/25 16:25:31  5-MIN KNYC 112125Z AUTO 9SM CLR 29/14 A3017 -70 39 1500 M /M RMK AO2 T02890139 $
94728KNYC NYC20250811163010908/11/25 16:30:31  5-MIN KNYC 112130Z AUTO VRB04KT 9SM CLR 29/14 A3017 -70 39 1500 VRB/04 RMK AO2 T02890139 $
94728KNYC NYC20250811163510908/11/25 16:35:31  5-MIN KNYC 112135Z AUTO VRB03KT 9SM CLR 28/14 A3017 -70 42 1500 VRB/03 RMK AO2 T02830144 $
94728KNYC NYC20250811164010908/11/25 16:40:31  5-MIN KNYC 112140Z AUTO 17005KT 9SM CLR 28/14 A3017 -70 40 1500 180/05 RMK AO2 T02830139 $
94728KNYC NYC20250811164511608/11/25 16:45:31  5-MIN KNYC 112145Z AUTO VRB05KT 9SM CLR 28/14 A3017 -70 40 1500 VRB/05 RMK AO2 SLP206 T02830139 $
94728KNYC NYC20250811165011608/11/25 16:50:31  5-MIN KNYC 112150Z AUTO VRB04KT 9SM CLR 28/14 A3017 -70 40 1500 VRB/04 RMK AO2 SLP206 T02830139 $
94728KNYC NYC20250811165510908/11/25 16:55:31  5-MIN KNYC 112155Z AUTO VRB03KT 9SM CLR 28/14 A3017 -70 40 1500 VRB/03 RMK AO2 T02830139 $
94728KNYC NYC20250811170009908/11/25 17:00:31  5-MIN KNYC 112200Z AUTO 9SM CLR 28/14 A3017 -70 42 1500 M /M RMK AO2 T02830144 $
94728KNYC NYC20250811170510908/11/25 17:05:31  5-MIN KNYC 112205Z AUTO VRB03KT 9SM CLR 28/14 A3017 -70 42 1400 VRB/03 RMK AO2 T02780139 $
94728KNYC NYC20250811171011008/11/25 17:10:31  5-MIN KNYC 112210Z AUTO 00000KT 10SM CLR 28/14 A3017 -70 42 1500 000/00 RMK AO2 T02830144 $
94728KNYC NYC20250811171510008/11/25 17:15:31  5-MIN KNYC 112215Z AUTO 10SM CLR 28/14 A3017 -70 42 1500 M /M RMK AO2 T02830144 $
94728KNYC NYC20250811172010908/11/25 17:20:31  5-MIN KNYC 112220Z AUTO VRB04KT 9SM CLR 28/14 A3017 -60 42 1400 VRB/04 RMK AO2 T02780139 $
94728KNYC NYC20250811172511008/11/25 17:25:31  5-MIN KNYC 112225Z AUTO VRB04KT 10SM CLR 28/14 A3017 -60 42 1400 VRB/04 RMK AO2 T02780139 $
94728KNYC NYC20250811173011008/11/25 17:30:31  5-MIN KNYC 112230Z AUTO VRB03KT 10SM CLR 28/14 A3017 -60 42 1400 VRB/03 RMK AO2 T02780139 $
94728KNYC NYC20250811173510908/11/25 17:35:31  5-MIN KNYC 112235Z AUTO 15004KT 9SM CLR 28/14 A3017 -60 42 1400 160/04 RMK AO2 T02780139 $
94728KNYC NYC20250811174010908/11/25 17:40:31  5-MIN KNYC 112240Z AUTO VRB03KT 9SM CLR 27/14 A3017 -60 43 1400 VRB/03 RMK AO2 T02720139 $
94728KNYC NYC20250811174510608/11/25 17:45:31  5-MIN KNYC 112245Z AUTO 9SM CLR 27/14 A3017 -60 43 1400 M /M RMK AO2 SLP205 T02720139 $
94728KNYC NYC20250811175011608/11/25 17:50:31  5-MIN KNYC 112250Z AUTO 15003KT 9SM CLR 27/14 A3017 -60 43 1400 160/03 RMK AO2 SLP205 T02720139 $
94728KNYC NYC20250811175510908/11/25 17:55:31  5-MIN KNYC 112255Z AUTO 00000KT 9SM CLR 27/14 A3017 -60 43 1400 000/00 RMK AO2 T02720139 $
94728KNYC NYC20250811180010908/11/25 18:00:31  5-MIN KNYC 112300Z AUTO 00000KT 9SM CLR 27/14 A3017 -60 43 1400 000/00 RMK AO2 T02720139 $
94728KNYC NYC20250811180510908/11/25 18:05:31  5-MIN KNYC 112305Z AUTO 00000KT 9SM CLR 27/14 A3016 -60 43 1400 000/00 RMK AO2 T02720139 $
94728KNYC NYC20250811181011008/11/25 18:10:31  5-MIN KNYC 112310Z AUTO VRB03KT 10SM CLR 27/14 A3016 -60 46 1300 VRB/03 RMK AO2 T02670144 $
94728KNYC NYC20250811181509908/11/25 18:15:31  5-MIN KNYC 112315Z AUTO 9SM CLR 27/14 A3016 -60 46 1300 M /M RMK AO2 T02670144 $
94728KNYC NYC20250811182010908/11/25 18:20:31  5-MIN KNYC 112320Z AUTO VRB05KT 9SM CLR 27/14 A3016 -60 46 1300 VRB/05 RMK AO2 T02670144 $
94728KNYC NYC20250811182511008/11/25 18:25:31  5-MIN KNYC 112325Z AUTO VRB03KT 10SM CLR 27/13 A3016 -60 43 1300 VRB/03 RMK AO2 T02670133 $
94728KNYC NYC20250811183010008/11/25 18:30:31  5-MIN KNYC 112330Z AUTO 10SM CLR 26/13 A3016 -60 44 1200 M /M RMK AO2 T02610133 $
94728KNYC NYC20250811183511008/11/25 18:35:31  5-MIN KNYC 112335Z AUTO VRB04KT 10SM CLR 26/13 A3016 -60 44 1200 VRB/04 RMK AO2 T02610133 $
94728KNYC NYC20250811184011008/11/25 18:40:31  5-MIN KNYC 112340Z AUTO 00000KT 10SM CLR 26/13 A3016 -60 44 1300 000/00 RMK AO2 T02610133 $
94728KNYC NYC20250811184512508/11/25 18:45:31  5-MIN KNYC 112345Z AUTO 10SM CLR 26/13 A3016 -60 44 1200 M /M RMK AO2 SLP203 T02610133 10317 20261 56011 $
94728KNYC NYC20250811185013508/11/25 18:50:31  5-MIN KNYC 112350Z AUTO 00000KT 10SM CLR 26/13 A3016 -60 44 1200 000/00 RMK AO2 SLP203 T02610133 10317 20261 56011 $
94728KNYC NYC20250811185510008/11/25 18:55:31  5-MIN KNYC 112355Z AUTO 10SM CLR 26/13 A3016 -60 44 1200 M /M RMK AO2 T02560128 $
94728KNYC NYC20250811190011008/11/25 19:00:31  5-MIN KNYC 120000Z AUTO 00000KT 10SM CLR 26/13 A3016 -60 46 1200 000/00 RMK AO2 T02560133 $
94728KNYC NYC20250811190511008/11/25 19:05:31  5-MIN KNYC 120005Z AUTO 00000KT 10SM CLR 26/13 A3016 -60 44 1200 000/00 RMK AO2 T02560128 $
94728KNYC NYC20250811191011008/11/25 19:10:31  5-MIN KNYC 120010Z AUTO 00000KT 10SM CLR 26/13 A3016 -60 44 1200 000/00 RMK AO2 T02560128 $
94728KNYC NYC20250811191511008/11/25 19:15:31  5-MIN KNYC 120015Z AUTO 00000KT 10SM CLR 26/13 A3016 -60 46 1200 000/00 RMK AO2 T02560133 $
94728KNYC NYC20250811192010008/11/25 19:20:31  5-MIN KNYC 120020Z AUTO 10SM CLR 26/13 A3016 -60 46 1200 M /M RMK AO2 T02560133 $
94728KNYC NYC20250811192511008/11/25 19:25:31  5-MIN KNYC 120025Z AUTO 00000KT 10SM CLR 26/13 A3016 -60 46 1200 000/00 RMK AO2 T02560133 $
94728KNYC NYC20250811193011008/11/25 19:30:31  5-MIN KNYC 120030Z AUTO 00000KT 10SM CLR 26/13 A3016 -60 46 1200 000/00 RMK AO2 T02560133 $
94728KNYC NYC20250811193511008/11/25 19:35:31  5-MIN KNYC 120035Z AUTO VRB03KT 10SM CLR 26/13 A3016 -60 46 1200 VRB/03 RMK AO2 T02560133 $
94728KNYC NYC20250811194011008/11/25 19:40:31  5-MIN KNYC 120040Z AUTO 00000KT 10SM CLR 26/14 A3017 -60 48 1200 000/00 RMK AO2 T02560139 $
94728KNYC NYC20250811194511708/11/25 19:45:31  5-MIN KNYC 120045Z AUTO 00000KT 10SM CLR 26/14 A3017 -60 48 1200 000/00 RMK AO2 SLP205 T02560139 $
94728KNYC NYC20250811195011708/11/25 19:50:31  5-MIN KNYC 120050Z AUTO 00000KT 10SM CLR 26/14 A3017 -60 48 1200 000/00 RMK AO2 SLP205 T02560139 $
94728KNYC NYC20250811195511008/11/25 19:55:31  5-MIN KNYC 120055Z AUTO 00000KT 10SM CLR 26/14 A3017 -60 48 1200 000/00 RMK AO2 T02560139 $
94728KNYC NYC20250811200011008/11/25 20:00:31  5-MIN KNYC 120100Z AUTO VRB03KT 10SM CLR 26/14 A3017 -60 48 1200 VRB/03 RMK AO2 T02560139 $
94728KNYC NYC20250811200511008/11/25 20:05:31  5-MIN KNYC 120105Z AUTO 00000KT 10SM CLR 26/14 A3017 -60 48 1200 000/00 RMK AO2 T02560139 $
94728KNYC NYC20250811201011008/11/25 20:10:31  5-MIN KNYC 120110Z AUTO 00000KT 10SM CLR 26/14 A3017 -60 48 1200 000/00 RMK AO2 T02560139 $
94728KNYC NYC20250811201511008/11/25 20:15:31  5-MIN KNYC 120115Z AUTO 00000KT 10SM CLR 25/14 A3017 -70 49 1100 000/00 RMK AO2 T02500139 $
94728KNYC NYC20250811202011008/11/25 20:20:31  5-MIN KNYC 120120Z AUTO 00000KT 10SM CLR 25/14 A3017 -70 49 1100 000/00 RMK AO2 T02500139 $
94728KNYC NYC20250811202511008/11/25 20:25:31  5-MIN KNYC 120125Z AUTO 00000KT 10SM CLR 25/14 A3017 -70 51 1100 000/00 RMK AO2 T02500144 $
94728KNYC NYC20250811203011008/11/25 20:30:31  5-MIN KNYC 120130Z AUTO 00000KT 10SM CLR 25/14 A3017 -70 49 1100 000/00 RMK AO2 T02500139 $
94728KNYC NYC20250811203511008/11/25 20:35:31  5-MIN KNYC 120135Z AUTO 00000KT 10SM CLR 26/14 A3017 -70 48 1200 000/00 RMK AO2 T02560139 $
94728KNYC NYC20250811204011008/11/25 20:40:31  5-MIN KNYC 120140Z AUTO 00000KT 10SM CLR 25/14 A3017 -70 49 1100 000/00 RMK AO2 T02500139 $
94728KNYC NYC20250811204511708/11/25 20:45:31  5-MIN KNYC 120145Z AUTO VRB04KT 10SM CLR 24/14 A3017 -70 53 1000 VRB/04 RMK AO2 SLP207 T02440144 $
94728KNYC NYC20250811205011708/11/25 20:50:31  5-MIN KNYC 120150Z AUTO 19004KT 10SM CLR 24/14 A3017 -70 53 1000 210/04 RMK AO2 SLP207 T02440144 $
94728KNYC NYC20250811205511008/11/25 20:55:31  5-MIN KNYC 120155Z AUTO VRB04KT 10SM CLR 24/13 A3017 -70 49 1000 VRB/04 RMK AO2 T02440133 $
94728KNYC NYC20250811210011008/11/25 21:00:31  5-MIN KNYC 120200Z AUTO 18004KT 10SM CLR 24/13 A3017 -70 49 1000 200/04 RMK AO2 T02440133 $
94728KNYC NYC20250811210511008/11/25 21:05:31  5-MIN KNYC 120205Z AUTO VRB03KT 10SM CLR 24/12 A3017 -70 46 1000 VRB/03 RMK AO2 T02440122 $
94728KNYC NYC20250811211011008/11/25 21:10:31  5-MIN KNYC 120210Z AUTO 00000KT 10SM CLR 25/12 A3018 -70 43 1100 000/00 RMK AO2 T02500117 $
94728KNYC NYC20250811211511008/11/25 21:15:31  5-MIN KNYC 120215Z AUTO 00000KT 10SM CLR 25/11 A3018 -70 41 1100 000/00 RMK AO2 T02500111 $
94728KNYC NYC20250811212011008/11/25 21:20:31  5-MIN KNYC 120220Z AUTO 00000KT 10SM CLR 25/11 A3018 -70 41 1100 000/00 RMK AO2 T02500111 $
94728KNYC NYC20250811212511008/11/25 21:25:31  5-MIN KNYC 120225Z AUTO 00000KT 10SM CLR 24/12 A3017 -70 44 1000 000/00 RMK AO2 T02440117 $
94728KNYC NYC20250811213011008/11/25 21:30:31  5-MIN KNYC 120230Z AUTO 00000KT 10SM CLR 24/11 A3017 -70 42 1000 000/00 RMK AO2 T02440111 $
94728KNYC NYC20250811213511008/11/25 21:35:31  5-MIN KNYC 120235Z AUTO 00000KT 10SM CLR 24/11 A3017 -70 42 1000 000/00 RMK AO2 T02440111 $
94728KNYC NYC20250811214011008/11/25 21:40:31  5-MIN KNYC 120240Z AUTO 00000KT 10SM CLR 24/11 A3017 -70 42 1000 000/00 RMK AO2 T02440111 $
94728KNYC NYC20250811214512308/11/25 21:45:31  5-MIN KNYC 120245Z AUTO 00000KT 10SM CLR 24/11 A3017 -70 42 1000 000/00 RMK AO2 SLP207 T02440111 58004 $
94728KNYC NYC20250811215012308/11/25 21:50:31  5-MIN KNYC 120250Z AUTO VRB03KT 10SM CLR 24/11 A3017 -70 41 1000 VRB/03 RMK AO2 SLP207 T02440106 58004 $
94728KNYC NYC20250811215511008/11/25 21:55:31  5-MIN KNYC 120255Z AUTO VRB03KT 10SM CLR 24/11 A3017 -70 42 1000 VRB/03 RMK AO2 T02390106 $
94728KNYC NYC20250811220011008/11/25 22:00:31  5-MIN KNYC 120300Z AUTO 00000KT 10SM CLR 24/11 A3017 -60 42 1000 000/00 RMK AO2 T02390106 $
94728KNYC NYC20250811220511008/11/25 22:05:31  5-MIN KNYC 120305Z AUTO VRB03KT 10SM CLR 24/10 A3017 -70 41 1000 VRB/03 RMK AO2 T02390100 $
94728KNYC NYC20250811221011008/11/25 22:10:31  5-MIN KNYC 120310Z AUTO 00000KT 10SM CLR 24/10 A3017 -70 41 1000 000/00 RMK AO2 T02390100 $
94728KNYC NYC20250811221511008/11/25 22:15:31  5-MIN KNYC 120315Z AUTO 00000KT 10SM CLR 24/10 A3017 -70 41 1000 000/00 RMK AO2 T02390100 $
94728KNYC NYC20250811222011008/11/25 22:20:31  5-MIN KNYC 120320Z AUTO 00000KT 10SM CLR 24/11 A3017 -70 42 1000 000/00 RMK AO2 T02390106 $
94728KNYC NYC20250811222511008/11/25 22:25:31  5-MIN KNYC 120325Z AUTO VRB03KT 10SM CLR 24/11 A3017 -70 42 1000 VRB/03 RMK AO2 T02390106 $
94728KNYC NYC20250811223011008/11/25 22:30:31  5-MIN KNYC 120330Z AUTO 00000KT 10SM CLR 24/11 A3017 -70 42 1000 000/00 RMK AO2 T02390106 $
94728KNYC NYC20250811223511008/11/25 22:35:31  5-MIN KNYC 120335Z AUTO 00000KT 10SM CLR 24/11 A3017 -70 44 1000 000/00 RMK AO2 T02390111 $
94728KNYC NYC20250811224011008/11/25 22:40:31  5-MIN KNYC 120340Z AUTO 00000KT 10SM CLR 24/12 A3017 -70 46 1000 000/00 RMK AO2 T02390117 $
94728KNYC NYC20250811224511708/11/25 22:45:31  5-MIN KNYC 120345Z AUTO 23003KT 10SM CLR 24/12 A3017 -70 46 1000 240/03 RMK AO2 SLP206 T02390117 $
94728KNYC NYC20250811225011708/11/25 22:50:31  5-MIN KNYC 120350Z AUTO 00000KT 10SM CLR 24/12 A3017 -60 47 1000 000/00 RMK AO2 SLP205 T02390122 $
94728KNYC NYC20250811225510908/11/25 22:55:31  5-MIN KNYC 120355Z AUTO 00000KT 10SM CLR 23/13 A3017 -60 51 900 000/00 RMK AO2 T02330128 $
94728KNYC NYC20250811230010908/11/25 23:00:31  5-MIN KNYC 120400Z AUTO 00000KT 10SM CLR 23/13 A3017 -60 51 900 000/00 RMK AO2 T02330128 $
94728KNYC NYC20250811230510908/11/25 23:05:31  5-MIN KNYC 120405Z AUTO 00000KT 10SM CLR 23/13 A3017 -60 53 900 000/00 RMK AO2 T02330133 $
94728KNYC NYC20250811231009908/11/25 23:10:31  5-MIN KNYC 120410Z AUTO 10SM CLR 23/14 A3017 -60 55 900 M /M RMK AO2 T02330139 $
94728KNYC NYC20250811231510908/11/25 23:15:31  5-MIN KNYC 120415Z AUTO VRB04KT 10SM CLR 23/14 A3017 -60 55 900 VRB/04 RMK AO2 T02330139 $
94728KNYC NYC20250811232009908/11/25 23:20:31  5-MIN KNYC 120420Z AUTO 10SM CLR 23/14 A3017 -60 57 900 M /M RMK AO2 T02330144 $
94728KNYC NYC20250811232510908/11/25 23:25:31  5-MIN KNYC 120425Z AUTO 24004KT 10SM CLR 23/15 A3016 -60 59 900 250/04 RMK AO2 T02330150 $
94728KNYC NYC20250811233010908/11/25 23:30:31  5-MIN KNYC 120430Z AUTO VRB03KT 10SM CLR 23/15 A3016 -60 59 900 VRB/03 RMK AO2 T02330150 $
94728KNYC NYC20250811233510908/11/25 23:35:31  5-MIN KNYC 120435Z AUTO VRB03KT 10SM CLR 23/15 A3016 -60 59 900 VRB/03 RMK AO2 T02330150 $
94728KNYC NYC20250811234010908/11/25 23:40:31  5-MIN KNYC 120440Z AUTO 00000KT 10SM CLR 23/16 A3016 -60 61 900 000/00 RMK AO2 T02330156 $
94728KNYC NYC20250811234512608/11/25 23:45:31  5-MIN KNYC 120445Z AUTO 23003KT 10SM CLR 23/16 A3016 -50 61 900 250/03 RMK AO2 SLP201 T02330156 403170222 $
94728KNYC NYC20250811235012608/11/25 23:50:31  5-MIN KNYC 120450Z AUTO 00000KT 10SM CLR 23/16 A3015 -50 61 900 000/00 RMK AO2 SLP200 T02330156 403170222 $
94728KNYC NYC20250811235510908/11/25 23:55:31  5-MIN KNYC 120455Z AUTO 00000KT 10SM CLR 23/16 A3015 -50 61 900 000/00 RMK AO2 T02330156 $
94728KNYC NYC20250812000010908/12/25 00:00:31  5-MIN KNYC 120500Z AUTO 00000KT 10SM CLR 23/16 A3015 -50 65 900 000/00 RMK AO2 T02280161 $
94728KNYC NYC20250812000510908/12/25 00:05:31  5-MIN KNYC 120505Z AUTO 00000KT 10SM CLR 23/16 A3015 -50 65 900 000/00 RMK AO2 T02280161 $
94728KNYC NYC20250812001010908/12/25 00:10:31  5-MIN KNYC 120510Z AUTO 00000KT 10SM CLR 23/16 A3015 -50 65 900 000/00 RMK AO2 T02280161 $
94728KNYC NYC20250812001510908/12/25 00:15:31  5-MIN KNYC 120515Z AUTO VRB04KT 10SM CLR 23/16 A3015 -50 65 900 VRB/04 RMK AO2 T02280161 $
94728KNYC NYC20250812002010908/12/25 00:20:31  5-MIN KNYC 120520Z AUTO VRB03KT 10SM CLR 23/16 A3015 -50 65 900 VRB/03 RMK AO2 T02280161 $
94728KNYC NYC20250812002510908/12/25 00:25:31  5-MIN KNYC 120525Z AUTO VRB03KT 10SM CLR 23/17 A3015 -50 68 900 VRB/03 RMK AO2 T02280167 $
94728KNYC NYC20250812003010908/12/25 00:30:31  5-MIN KNYC 120530Z AUTO VRB03KT 10SM CLR 23/17 A3015 -50 68 900 VRB/03 RMK AO2 T02280167 $
94728KNYC NYC20250812003510908/12/25 00:35:31  5-MIN KNYC 120535Z AUTO 00000KT 10SM CLR 23/17 A3015 -50 68 900 000/00 RMK AO2 T02280167 $
94728KNYC NYC20250812004010908/12/25 00:40:31  5-MIN KNYC 120540Z AUTO VRB03KT 10SM CLR 23/17 A3014 -40 68 900 VRB/03 RMK AO2 T02280167 $
94728KNYC NYC20250812004513408/12/25 00:45:31  5-MIN KNYC 120545Z AUTO VRB03KT 10SM CLR 23/17 A3014 -40 68 900 VRB/03 RMK AO2 SLP197 T02280167 10261 20228 50004 $
94728KNYC NYC20250812005013408/12/25 00:50:31  5-MIN KNYC 120550Z AUTO VRB03KT 10SM CLR 23/17 A3014 -40 68 900 VRB/03 RMK AO2 SLP197 T02280167 10261 20228 50004 $
94728KNYC NYC20250812005510908/12/25 00:55:31  5-MIN KNYC 120555Z AUTO 22003KT 10SM CLR 23/17 A3014 -40 68 900 230/03 RMK AO2 T02280167 $
94728KNYC NYC20250812010010908/12/25 01:00:31  5-MIN KNYC 120600Z AUTO 24005KT 10SM CLR 23/17 A3014 -40 68 900 250/05 RMK AO2 T02280167 $
94728KNYC NYC20250812010510908/12/25 01:05:31  5-MIN KNYC 120605Z AUTO 23003KT 10SM CLR 23/17 A3014 -40 68 900 250/03 RMK AO2 T02280167 $
94728KNYC NYC20250812011010908/12/25 01:10:31  5-MIN KNYC 120610Z AUTO 23004KT 10SM CLR 22/17 A3014 -40 70 800 240/04 RMK AO2 T02220167 $
94728KNYC NYC20250812011510908/12/25 01:15:31  5-MIN KNYC 120615Z AUTO VRB03KT 10SM CLR 23/17 A3014 -40 68 900 VRB/03 RMK AO2 T02280167 $
94728KNYC NYC20250812012010908/12/25 01:20:31  5-MIN KNYC 120620Z AUTO 23003KT 10SM CLR 22/17 A3014 -40 73 800 240/03 RMK AO2 T02220172 $
94728KNYC NYC20250812012510908/12/25 01:25:31  5-MIN KNYC 120625Z AUTO 00000KT 10SM CLR 22/17 A3014 -40 73 800 000/00 RMK AO2 T02220172 $
94728KNYC NYC20250812013010908/12/25 01:30:31  5-MIN KNYC 120630Z AUTO 22003KT 10SM CLR 22/17 A3014 -40 73 800 230/03 RMK AO2 T02220172 $
94728KNYC NYC20250812013510908/12/25 01:35:31  5-MIN KNYC 120635Z AUTO 00000KT 10SM CLR 22/17 A3014 -40 73 800 000/00 RMK AO2 T02220172 $
94728KNYC NYC20250812014010908/12/25 01:40:31  5-MIN KNYC 120640Z AUTO 00000KT 10SM CLR 22/17 A3014 -40 73 800 000/00 RMK AO2 T02220172 $
94728KNYC NYC20250812014511608/12/25 01:45:31  5-MIN KNYC 120645Z AUTO VRB04KT 10SM CLR 23/17 A3013 -30 70 900 VRB/04 RMK AO2 SLP194 T02280172 $
94728KNYC NYC20250812015011608/12/25 01:50:31  5-MIN KNYC 120650Z AUTO 00000KT 10SM CLR 22/17 A3013 -30 73 800 000/00 RMK AO2 SLP193 T02220172 $
94728KNYC NYC20250812015510908/12/25 01:55:31  5-MIN KNYC 120655Z AUTO 00000KT 10SM CLR 22/17 A3013 -30 73 800 000/00 RMK AO2 T02220172 $
94728KNYC NYC20250812020010908/12/25 02:00:31  5-MIN KNYC 120700Z AUTO 00000KT 10SM CLR 22/17 A3013 -30 73 800 000/00 RMK AO2 T02220172 $
94728KNYC NYC20250812020510908/12/25 02:05:31  5-MIN KNYC 120705Z AUTO VRB03KT 10SM CLR 22/17 A3013 -30 73 800 VRB/03 RMK AO2 T02220172 $
94728KNYC NYC20250812021009908/12/25 02:10:31  5-MIN KNYC 120710Z AUTO 10SM CLR 22/17 A3013 -30 73 800 M /M RMK AO2 T02220172 $
94728KNYC NYC20250812021510908/12/25 02:15:31  5-MIN KNYC 120715Z AUTO 00000KT 10SM CLR 22/17 A3013 -30 73 800 000/00 RMK AO2 T02220172 $
94728KNYC NYC20250812022010908/12/25 02:20:31  5-MIN KNYC 120720Z AUTO VRB04KT 10SM CLR 22/17 A3013 -30 73 800 VRB/04 RMK AO2 T02220172 $
94728KNYC NYC20250812022510908/12/25 02:25:31  5-MIN KNYC 120725Z AUTO 00000KT 10SM CLR 22/17 A3013 -30 73 800 000/00 RMK AO2 T02220172 $
94728KNYC NYC20250812023010908/12/25 02:30:31  5-MIN KNYC 120730Z AUTO 00000KT 10SM CLR 22/17 A3013 -30 73 800 000/00 RMK AO2 T02220172 $
94728KNYC NYC20250812023510908/12/25 02:35:31  5-MIN KNYC 120735Z AUTO VRB03KT 10SM CLR 22/17 A3013 -30 73 800 VRB/03 RMK AO2 T02220172 $
94728KNYC NYC20250812024010908/12/25 02:40:31  5-MIN KNYC 120740Z AUTO 24004KT 10SM CLR 22/17 A3013 -30 73 800 260/04 RMK AO2 T02220172 $
94728KNYC NYC20250812024511608/12/25 02:45:31  5-MIN KNYC 120745Z AUTO 00000KT 10SM CLR 22/17 A3013 -30 73 800 000/00 RMK AO2 SLP193 T02220172 $
94728KNYC NYC20250812025010608/12/25 02:50:31  5-MIN KNYC 120750Z AUTO 10SM CLR 22/17 A3013 -30 73 800 M /M RMK AO2 SLP193 T02220172 $
94728KNYC NYC20250812025510908/12/25 02:55:31  5-MIN KNYC 120755Z AUTO 00000KT 10SM CLR 22/17 A3013 -30 73 800 000/00 RMK AO2 T02220172 $
94728KNYC NYC20250812030010908/12/25 03:00:31  5-MIN KNYC 120800Z AUTO 00000KT 10SM CLR 22/17 A3013 -30 73 800 000/00 RMK AO2 T02220172 $
94728KNYC NYC20250812030510908/12/25 03:05:31  5-MIN KNYC 120805Z AUTO VRB03KT 10SM CLR 22/17 A3013 -30 73 800 VRB/03 RMK AO2 T02220172 $
94728KNYC NYC20250812031010908/12/25 03:10:31  5-MIN KNYC 120810Z AUTO VRB03KT 10SM CLR 22/17 A3013 -30 73 800 VRB/03 RMK AO2 T02220172 $
94728KNYC NYC20250812031510908/12/25 03:15:31  5-MIN KNYC 120815Z AUTO 24003KT 10SM CLR 22/17 A3013 -30 73 800 250/03 RMK AO2 T02220172 $
94728KNYC NYC20250812032010908/12/25 03:20:31  5-MIN KNYC 120820Z AUTO 00000KT 10SM CLR 22/17 A3014 -30 73 800 000/00 RMK AO2 T02220172 $
94728KNYC NYC20250812032510908/12/25 03:25:31  5-MIN KNYC 120825Z AUTO 00000KT 10SM CLR 22/17 A3013 -30 73 800 000/00 RMK AO2 T02220172 $
94728KNYC NYC20250812033010908/12/25 03:30:31  5-MIN KNYC 120830Z AUTO VRB03KT 10SM CLR 22/17 A3013 -30 75 800 VRB/03 RMK AO2 T02170172 $
94728KNYC NYC20250812033510908/12/25 03:35:31  5-MIN KNYC 120835Z AUTO VRB03KT 10SM CLR 22/17 A3014 -30 75 800 VRB/03 RMK AO2 T02170172 $
94728KNYC NYC20250812034010908/12/25 03:40:31  5-MIN KNYC 120840Z AUTO 00000KT 10SM CLR 22/18 A3014 -30 75 800 000/00 RMK AO2 T02220178 $
94728KNYC NYC20250812034512208/12/25 03:45:31  5-MIN KNYC 120845Z AUTO 00000KT 10SM CLR 22/18 A3014 -40 75 800 000/00 RMK AO2 SLP195 T02220178 58010 $
94728KNYC NYC20250812035012208/12/25 03:50:31  5-MIN KNYC 120850Z AUTO 24003KT 10SM CLR 22/18 A3014 -40 78 800 250/03 RMK AO2 SLP194 T02170178 58010 $
94728KNYC NYC20250812035510908/12/25 03:55:31  5-MIN KNYC 120855Z AUTO 24003KT 10SM CLR 22/18 A3014 -40 75 800 250/03 RMK AO2 T02220178 $
94728KNYC NYC20250812040010908/12/25 04:00:31  5-MIN KNYC 120900Z AUTO 00000KT 10SM CLR 22/18 A3014 -40 75 800 000/00 RMK AO2 T02220178 $
94728KNYC NYC20250812040510908/12/25 04:05:31  5-MIN KNYC 120905Z AUTO 00000KT 10SM CLR 22/18 A3014 -40 75 800 000/00 RMK AO2 T02220178 $
94728KNYC NYC20250812041010908/12/25 04:10:31  5-MIN KNYC 120910Z AUTO 00000KT 10SM CLR 22/18 A3014 -40 75 800 000/00 RMK AO2 T02220178 $
94728KNYC NYC20250812041510908/12/25 04:15:31  5-MIN KNYC 120915Z AUTO 00000KT 10SM CLR 22/18 A3014 -40 78 800 000/00 RMK AO2 T02170178 $
94728KNYC NYC20250812042010908/12/25 04:20:31  5-MIN KNYC 120920Z AUTO 00000KT 10SM CLR 22/18 A3013 -30 78 800 000/00 RMK AO2 T02170178 $
94728KNYC NYC20250812042510908/12/25 04:25:31  5-MIN KNYC 120925Z AUTO 00000KT 10SM CLR 22/18 A3013 -30 75 800 000/00 RMK AO2 T02220178 $
94728KNYC NYC20250812043010908/12/25 04:30:31  5-MIN KNYC 120930Z AUTO 00000KT 10SM CLR 22/18 A3014 -40 78 800 000/00 RMK AO2 T02170178 $
94728KNYC NYC20250812043510908/12/25 04:35:31  5-MIN KNYC 120935Z AUTO 00000KT 10SM CLR 22/18 A3014 -40 78 800 000/00 RMK AO2 T02170178 $
94728KNYC NYC20250812044010908/12/25 04:40:31  5-MIN KNYC 120940Z AUTO 00000KT 10SM CLR 22/18 A3014 -40 78 800 000/00 RMK AO2 T02170178 $
94728KNYC NYC20250812044511608/12/25 04:45:31  5-MIN KNYC 120945Z AUTO 00000KT 10SM CLR 22/18 A3014 -40 75 800 000/00 RMK AO2 SLP196 T02220178 $
94728KNYC NYC20250812045011608/12/25 04:50:31  5-MIN KNYC 120950Z AUTO 00000KT 10SM CLR 22/18 A3014 -40 78 800 000/00 RMK AO2 SLP196 T02170178 $
94728KNYC NYC20250812045510908/12/25 04:55:31  5-MIN KNYC 120955Z AUTO 00000KT 10SM CLR 22/18 A3014 -40 78 800 000/00 RMK AO2 T02170178 $
94728KNYC NYC20250812050010908/12/25 05:00:31  5-MIN KNYC 121000Z AUTO VRB03KT 10SM CLR 22/18 A3014 -40 78 800 VRB/03 RMK AO2 T02170178 $
94728KNYC NYC20250812050510908/12/25 05:05:31  5-MIN KNYC 121005Z AUTO 00000KT 10SM CLR 22/18 A3014 -40 78 800 000/00 RMK AO2 T02170178 $
94728KNYC NYC20250812051010908/12/25 05:10:31  5-MIN KNYC 121010Z AUTO 27003KT 10SM CLR 22/18 A3014 -40 78 800 290/03 RMK AO2 T02170178 $
94728KNYC NYC20250812051510908/12/25 05:15:31  5-MIN KNYC 121015Z AUTO VRB03KT 10SM CLR 22/18 A3014 -40 78 800 VRB/03 RMK AO2 T02170178 $
94728KNYC NYC20250812052009908/12/25 05:20:31  5-MIN KNYC 121020Z AUTO 10SM CLR 22/18 A3014 -40 78 800 M /M RMK AO2 T02170178 $
94728KNYC NYC20250812052510908/12/25 05:25:31  5-MIN KNYC 121025Z AUTO VRB04KT 10SM CLR 22/18 A3014 -40 78 800 VRB/04 RMK AO2 T02170178 $
94728KNYC NYC20250812053010908/12/25 05:30:31  5-MIN KNYC 121030Z AUTO 29003KT 10SM CLR 22/18 A3014 -40 78 800 300/03 RMK AO2 T02170178 $
94728KNYC NYC20250812053510908/12/25 05:35:31  5-MIN KNYC 121035Z AUTO 26004KT 10SM CLR 22/18 A3014 -40 78 800 270/04 RMK AO2 T02170178 $
94728KNYC NYC20250812054010908/12/25 05:40:31  5-MIN KNYC 121040Z AUTO VRB03KT 10SM CLR 22/18 A3014 -40 78 800 VRB/03 RMK AO2 T02170178 $
94728KNYC NYC20250812054511608/12/25 05:45:31  5-MIN KNYC 121045Z AUTO VRB03KT 10SM CLR 22/18 A3014 -40 75 800 VRB/03 RMK AO2 SLP197 T02220178 $
94728KNYC NYC20250812055011608/12/25 05:50:31  5-MIN KNYC 121050Z AUTO 00000KT 10SM CLR 22/18 A3014 -40 78 800 000/00 RMK AO2 SLP197 T02220183 $
94728KNYC NYC20250812055510908/12/25 05:55:31  5-MIN KNYC 121055Z AUTO 00000KT 10SM CLR 22/18 A3014 -40 78 800 000/00 RMK AO2 T02220183 $
94728KNYC NYC20250812060010908/12/25 06:00:31  5-MIN KNYC 121100Z AUTO VRB03KT 10SM CLR 22/18 A3014 -40 78 800 VRB/03 RMK AO2 T02220183 $
94728KNYC NYC20250812060510908/12/25 06:05:31  5-MIN KNYC 121105Z AUTO 00000KT 10SM CLR 22/18 A3014 -40 78 800 000/00 RMK AO2 T02220183 $
94728KNYC NYC20250812061010908/12/25 06:10:31  5-MIN KNYC 121110Z AUTO VRB03KT 10SM CLR 22/18 A3015 -50 78 800 VRB/03 RMK AO2 T02220183 $
94728KNYC NYC20250812061510908/12/25 06:15:31  5-MIN KNYC 121115Z AUTO 26003KT 10SM CLR 23/18 A3015 -50 76 900 270/03 RMK AO2 T02280183 $
94728KNYC NYC20250812062010908/12/25 06:20:31  5-MIN KNYC 121120Z AUTO 00000KT 10SM CLR 23/18 A3015 -50 76 900 000/00 RMK AO2 T02280183 $
94728KNYC NYC20250812062510908/12/25 06:25:31  5-MIN KNYC 121125Z AUTO 00000KT 10SM CLR 23/18 A3015 -50 76 900 000/00 RMK AO2 T02280183 $
94728KNYC NYC20250812063010908/12/25 06:30:31  5-MIN KNYC 121130Z AUTO 00000KT 10SM CLR 23/18 A3015 -50 76 900 000/00 RMK AO2 T02280183 $
94728KNYC NYC20250812063510908/12/25 06:35:31  5-MIN KNYC 121135Z AUTO 29004KT 10SM CLR 23/18 A3015 -50 76 900 310/04 RMK AO2 T02280183 $
94728KNYC NYC20250812064010908/12/25 06:40:31  5-MIN KNYC 121140Z AUTO 28004KT 10SM CLR 23/18 A3015 -50 76 900 290/04 RMK AO2 T02280183 $
94728KNYC NYC20250812064513408/12/25 06:45:31  5-MIN KNYC 121145Z AUTO 26004KT 10SM CLR 23/18 A3015 -50 76 900 280/04 RMK AO2 SLP200 T02280183 10228 20217 55002 $
94728KNYC NYC20250812065013408/12/25 06:50:31  5-MIN KNYC 121150Z AUTO 27004KT 10SM CLR 23/18 A3015 -50 73 900 280/04 RMK AO2 SLP199 T02330183 10233 20217 55002 $
94728KNYC NYC20250812065510908/12/25 06:55:31  5-MIN KNYC 121155Z AUTO 27003KT 10SM CLR 23/18 A3015 -50 70 900 280/03 RMK AO2 T02330178 $
94728KNYC NYC20250812070010908/12/25 07:00:31  5-MIN KNYC 121200Z AUTO VRB03KT 10SM CLR 23/18 A3015 -50 73 900 VRB/03 RMK AO2 T02330183 $
94728KNYC NYC20250812070510908/12/25 07:05:31  5-MIN KNYC 121205Z AUTO 27005KT 10SM CLR 23/18 A3015 -40 70 900 280/05 RMK AO2 T02330178 $
94728KNYC NYC20250812071011008/12/25 07:10:31  5-MIN KNYC 121210Z AUTO 00000KT 10SM CLR 23/18 A3014 -40 70 1000 000/00 RMK AO2 T02330178 $
94728KNYC NYC20250812071511008/12/25 07:15:31  5-MIN KNYC 121215Z AUTO VRB03KT 10SM CLR 24/18 A3014 -40 68 1000 VRB/03 RMK AO2 T02390178 $
94728KNYC NYC20250812072011008/12/25 07:20:31  5-MIN KNYC 121220Z AUTO 25004KT 10SM CLR 24/18 A3014 -40 71 1000 260/04 RMK AO2 T02390183 $
94728KNYC NYC20250812072511008/12/25 07:25:31  5-MIN KNYC 121225Z AUTO VRB04KT 10SM CLR 24/18 A3014 -40 68 1000 VRB/04 RMK AO2 T02390178 $
94728KNYC NYC20250812073011008/12/25 07:30:31  5-MIN KNYC 121230Z AUTO VRB03KT 10SM CLR 24/18 A3014 -40 68 1000 VRB/03 RMK AO2 T02390178 $
94728KNYC NYC20250812073511008/12/25 07:35:31  5-MIN KNYC 121235Z AUTO VRB03KT 10SM CLR 24/18 A3014 -40 68 1000 VRB/03 RMK AO2 T02390178 $
94728KNYC NYC20250812074011008/12/25 07:40:31  5-MIN KNYC 121240Z AUTO 00000KT 10SM CLR 24/18 A3014 -30 66 1100 000/00 RMK AO2 T02440178 $
94728KNYC NYC20250812074511608/12/25 07:45:31  5-MIN KNYC 121245Z AUTO VRB03KT 9SM CLR 24/18 A3014 -40 66 1100 VRB/03 RMK AO2 SLP195 T02440178 $
94728KNYC NYC20250812075011608/12/25 07:50:31  5-MIN KNYC 121250Z AUTO 00000KT 8SM CLR 24/18 A3014 -40 66 1100 000/00 RMK AO2 SLP195 T02440178 $
94728KNYC NYC20250812075510908/12/25 07:55:31  5-MIN KNYC 121255Z AUTO VRB03KT 9SM CLR 24/18 A3013 -30 66 1100 VRB/03 RMK AO2 T02440178 $
94728KNYC NYC20250812080011008/12/25 08:00:31  5-MIN KNYC 121300Z AUTO 00000KT 10SM CLR 24/18 A3013 -30 66 1100 000/00 RMK AO2 T02440178 $
94728KNYC NYC20250812080511008/12/25 08:05:31  5-MIN KNYC 121305Z AUTO 00000KT 10SM CLR 25/18 A3013 -30 66 1200 000/00 RMK AO2 T02500183 $
94728KNYC NYC20250812081011008/12/25 08:10:31  5-MIN KNYC 121310Z AUTO 00000KT 10SM CLR 25/18 A3013 -30 66 1200 000/00 RMK AO2 T02500183 $
94728KNYC NYC20250812081511008/12/25 08:15:31  5-MIN KNYC 121315Z AUTO 00000KT 10SM CLR 25/18 A3013 -30 66 1200 000/00 RMK AO2 T02500183 $
94728KNYC NYC20250812082011008/12/25 08:20:31  5-MIN KNYC 121320Z AUTO 00000KT 10SM CLR 26/18 A3013 -30 59 1300 000/00 RMK AO2 T02610178 $
94728KNYC NYC20250812082511008/12/25 08:25:31  5-MIN KNYC 121325Z AUTO 00000KT 10SM CLR 26/18 A3013 -30 62 1300 000/00 RMK AO2 T02610183 $
94728KNYC NYC20250812083011008/12/25 08:30:31  5-MIN KNYC 121330Z AUTO VRB03KT 10SM CLR 26/18 A3013 -30 59 1300 VRB/03 RMK AO2 T02610178 $
94728KNYC NYC20250812083511008/12/25 08:35:31  5-MIN KNYC 121335Z AUTO 00000KT 10SM CLR 26/18 A3012 -20 62 1300 000/00 RMK AO2 T02610183 $
94728KNYC NYC20250812084011008/12/25 08:40:31  5-MIN KNYC 121340Z AUTO 00000KT 10SM CLR 27/18 A3012 -20 57 1400 000/00 RMK AO2 T02670178 $
94728KNYC NYC20250812084511708/12/25 08:45:31  5-MIN KNYC 121345Z AUTO VRB03KT 10SM CLR 27/18 A3012 -20 60 1400 VRB/03 RMK AO2 SLP189 T02670183 $
94728KNYC NYC20250812085011708/12/25 08:50:31  5-MIN KNYC 121350Z AUTO 00000KT 10SM CLR 27/18 A3012 -20 56 1400 000/00 RMK AO2 SLP189 T02720178 $
94728KNYC NYC20250812085511008/12/25 08:55:31  5-MIN KNYC 121355Z AUTO 00000KT 10SM CLR 27/18 A3012 -20 56 1400 000/00 RMK AO2 T02720178 $
94728KNYC NYC20250812090011008/12/25 09:00:31  5-MIN KNYC 121400Z AUTO 00000KT 10SM CLR 27/18 A3012 -20 58 1400 000/00 RMK AO2 T02720183 $
94728KNYC NYC20250812090511008/12/25 09:05:31  5-MIN KNYC 121405Z AUTO 27003KT 10SM CLR 27/18 A3012 -20 56 1400 280/03 RMK AO2 T02720178 $
94728KNYC NYC20250812091011008/12/25 09:10:31  5-MIN KNYC 121410Z AUTO 00000KT 10SM CLR 27/18 A3012 -20 56 1400 000/00 RMK AO2 T02720178 $
94728KNYC NYC20250812091511008/12/25 09:15:31  5-MIN KNYC 121415Z AUTO VRB03KT 10SM CLR 28/18 A3011 -20 54 1500 VRB/03 RMK AO2 T02780178 $
94728KNYC NYC20250812092011008/12/25 09:20:31  5-MIN KNYC 121420Z AUTO 00000KT 10SM CLR 28/18 A3011 -10 54 1500 000/00 RMK AO2 T02780178 $
94728KNYC NYC20250812092511008/12/25 09:25:31  5-MIN KNYC 121425Z AUTO 02004KT 10SM CLR 28/18 A3011 -20 52 1600 030/04 RMK AO2 T02830178 $
94728KNYC NYC20250812093011008/12/25 09:30:31  5-MIN KNYC 121430Z AUTO 00000KT 10SM CLR 28/18 A3011 -10 52 1600 000/00 RMK AO2 T02830178 $
94728KNYC NYC20250812093511008/12/25 09:35:31  5-MIN KNYC 121435Z AUTO 00000KT 10SM CLR 28/18 A3011 -10 56 1500 000/00 RMK AO2 T02780183 $
94728KNYC NYC20250812094011008/12/25 09:40:31  5-MIN KNYC 121440Z AUTO 00000KT 10SM CLR 28/18 A3011 -10 56 1500 000/00 RMK AO2 T02780183 $
94728KNYC NYC20250812094512308/12/25 09:45:31  5-MIN KNYC 121445Z AUTO 00000KT 10SM CLR 29/18 A3011 -10 50 1600 000/00 RMK AO2 SLP185 T02890178 53004 $
94728KNYC NYC20250812095012308/12/25 09:50:31  5-MIN KNYC 121450Z AUTO 00000KT 10SM CLR 28/17 A3010 -10 50 1600 000/00 RMK AO2 SLP184 T02830172 53004 $
94728KNYC NYC20250812095510808/12/25 09:55:31  5-MIN KNYC 121455Z AUTO 01004KT 10SM CLR 29/17 A3010 0 48 1600 020/04 RMK AO2 T02890172 $
94728KNYC NYC20250812100010808/12/25 10:00:31  5-MIN KNYC 121500Z AUTO 05005KT 10SM CLR 29/17 A3010 0 45 1700 060/05 RMK AO2 T02940167 $
94728KNYC NYC20250812100510808/12/25 10:05:31  5-MIN KNYC 121505Z AUTO 00000KT 10SM CLR 29/17 A3010 0 47 1700 000/00 RMK AO2 T02940172 $
94728KNYC NYC20250812101010808/12/25 10:10:31  5-MIN KNYC 121510Z AUTO 04004KT 10SM CLR 29/17 A3010 0 47 1700 060/04 RMK AO2 T02940172 $
94728KNYC NYC20250812101510708/12/25 10:15:31  5-MIN KNYC 121515Z AUTO VRB04KT 8SM CLR 30/17 A3009 0 45 1800 VRB/04 RMK AO2 T03000172 $
94728KNYC NYC20250812102010708/12/25 10:20:31  5-MIN KNYC 121520Z AUTO VRB05KT 7SM CLR 30/17 A3009 0 45 1800 VRB/05 RMK AO2 T03000172 $
94728KNYC NYC20250812102510708/12/25 10:25:31  5-MIN KNYC 121525Z AUTO 00000KT 9SM CLR 30/16 A3009 0 42 1800 000/00 RMK AO2 T03000161 $
94728KNYC NYC20250812103010708/12/25 10:30:31  5-MIN KNYC 121530Z AUTO 05005KT 9SM CLR 30/16 A3009 0 42 1800 070/05 RMK AO2 T03000161 $
94728KNYC NYC20250812103510708/12/25 10:35:31  5-MIN KNYC 121535Z AUTO 00000KT 9SM CLR 31/16 A3009 0 41 1800 000/00 RMK AO2 T03060161 $
94728KNYC NYC20250812104010808/12/25 10:40:31  5-MIN KNYC 121540Z AUTO 00000KT 10SM CLR 30/17 A3009 0 44 1800 000/00 RMK AO2 T03000167 $
94728KNYC NYC20250812104511608/12/25 10:45:31  5-MIN KNYC 121545Z AUTO 00000KT 10SM CLR 30/16 A3008 10 42 1800 000/00 RMK AO2 SLP177 T03000161 $
94728KNYC NYC20250812105011508/12/25 10:50:31  5-MIN KNYC 121550Z AUTO 00000KT 8SM CLR 30/16 A3008 10 42 1800 000/00 RMK AO2 SLP177 T03000161 $
94728KNYC NYC20250812105510808/12/25 10:55:31  5-MIN KNYC 121555Z AUTO VRB03KT 8SM CLR 30/17 A3008 10 45 1800 VRB/03 RMK AO2 T03000172 $
94728KNYC NYC20250812110010908/12/25 11:00:31  5-MIN KNYC 121600Z AUTO 27005KT 10SM CLR 31/16 A3008 10 39 1800 290/05 RMK AO2 T03060156 $
94728KNYC NYC20250812110510908/12/25 11:05:31  5-MIN KNYC 121605Z AUTO VRB03KT 10SM CLR 31/16 A3008 10 39 1800 VRB/03 RMK AO2 T03060156 $
94728KNYC NYC20250812111010908/12/25 11:10:31  5-MIN KNYC 121610Z AUTO 00000KT 10SM CLR 31/16 A3008 10 41 1800 000/00 RMK AO2 T03060161 $
94728KNYC NYC20250812111510908/12/25 11:15:31  5-MIN KNYC 121615Z AUTO 00000KT 10SM CLR 32/16 A3008 10 37 2000 000/00 RMK AO2 T03170156 $
94728KNYC NYC20250812112010908/12/25 11:20:31  5-MIN KNYC 121620Z AUTO 00000KT 10SM CLR 32/16 A3007 20 38 2000 000/00 RMK AO2 T03170161 $
94728KNYC NYC20250812112510908/12/25 11:25:31  5-MIN KNYC 121625Z AUTO VRB03KT 10SM CLR 32/16 A3007 20 38 2000 VRB/03 RMK AO2 T03170161 $
94728KNYC NYC20250812113010908/12/25 11:30:31  5-MIN KNYC 121630Z AUTO 00000KT 10SM CLR 32/16 A3007 20 36 2000 000/00 RMK AO2 T03220156 $
94728KNYC NYC20250812113510908/12/25 11:35:31  5-MIN KNYC 121635Z AUTO 00000KT 10SM CLR 32/16 A3007 20 36 2000 000/00 RMK AO2 T03220156 $
94728KNYC NYC20250812114010908/12/25 11:40:31  5-MIN KNYC 121640Z AUTO 05004KT 10SM CLR 32/16 A3007 20 36 2000 060/04 RMK AO2 T03220156 $
94728KNYC NYC20250812114511608/12/25 11:45:31  5-MIN KNYC 121645Z AUTO VRB03KT 10SM CLR 32/16 A3006 30 37 2000 VRB/03 RMK AO2 SLP170 T03220161 $
94728KNYC NYC20250812115011608/12/25 11:50:31  5-MIN KNYC 121650Z AUTO VRB03KT 10SM CLR 32/16 A3006 30 38 2000 VRB/03 RMK AO2 SLP169 T03170161 $
94728KNYC NYC20250812115510908/12/25 11:55:31  5-MIN KNYC 121655Z AUTO VRB05KT 10SM CLR 32/15 A3006 30 34 2000 VRB/05 RMK AO2 T03220150 $
94728KNYC NYC20250812120010908/12/25 12:00:31  5-MIN KNYC 121700Z AUTO VRB03KT 10SM CLR 32/15 A3006 30 34 2000 VRB/03 RMK AO2 T03220150 $
94728KNYC NYC20250812120510908/12/25 12:05:31  5-MIN KNYC 121705Z AUTO VRB03KT 10SM CLR 32/15 A3006 30 34 2000 VRB/03 RMK AO2 T03220150 $
94728KNYC NYC20250812121010908/12/25 12:10:31  5-MIN KNYC 121710Z AUTO 00000KT 10SM CLR 33/14 A3005 40 32 2100 000/00 RMK AO2 T03280144 $
94728KNYC NYC20250812121510908/12/25 12:15:31  5-MIN KNYC 121715Z AUTO VRB03KT 10SM CLR 32/15 A3005 40 34 2100 VRB/03 RMK AO2 T03220150 $
94728KNYC NYC20250812122010908/12/25 12:20:31  5-MIN KNYC 121720Z AUTO 00000KT 10SM CLR 32/15 A3005 40 34 2100 000/00 RMK AO2 T03220150 $
94728KNYC NYC20250812122510908/12/25 12:25:31  5-MIN KNYC 121725Z AUTO 31003KT 10SM CLR 32/15 A3005 40 36 2000 320/03 RMK AO2 T03170150 $
94728KNYC NYC20250812123010908/12/25 12:30:31  5-MIN KNYC 121730Z AUTO 00000KT 10SM CLR 32/14 A3005 40 34 2000 000/00 RMK AO2 T03170144 $
94728KNYC NYC20250812123510908/12/25 12:35:31  5-MIN KNYC 121735Z AUTO 00000KT 10SM CLR 31/15 A3005 40 38 1900 000/00 RMK AO2 T03060150 $
94728KNYC NYC20250812124010908/12/25 12:40:31  5-MIN KNYC 121740Z AUTO 00000KT 10SM CLR 31/16 A3005 40 39 1900 000/00 RMK AO2 T03060156 $
94728KNYC NYC20250812124513708/12/25 12:45:31  5-MIN KNYC 121745Z AUTO 00000KT 10SM FEW060 31/16 A3005 40 40 1900 000/00 RMK AO2 SLP166 T03110161 10328 20233 58015 $
94728KNYC NYC20250812125013708/12/25 12:50:31  5-MIN KNYC 121750Z AUTO VRB04KT 10SM FEW060 31/17 A3005 40 42 1900 VRB/04 RMK AO2 SLP165 T03110172 10328 20233 58015 $
94728KNYC NYC20250812125511208/12/25 12:55:31  5-MIN KNYC 121755Z AUTO VRB05KT 10SM FEW060 32/18 A3004 40 41 2100 VRB/05 RMK AO2 T03220178 $
94728KNYC NYC20250812130011208/12/25 13:00:31  5-MIN KNYC 121800Z AUTO VRB04KT 10SM FEW060 33/18 A3005 40 40 2100 VRB/04 RMK AO2 T03280178 $
94728KNYC NYC20250812130511208/12/25 13:05:31  5-MIN KNYC 121805Z AUTO VRB04KT 10SM FEW060 32/18 A3005 40 43 2000 VRB/04 RMK AO2 T03170178 $
94728KNYC NYC20250812131010208/12/25 13:10:31  5-MIN KNYC 121810Z AUTO 10SM SCT055 31/17 A3004 50 42 1900 M /M RMK AO2 T03110172 $
94728KNYC NYC20250812131511208/12/25 13:15:31  5-MIN KNYC 121815Z AUTO VRB05KT 10SM SCT055 31/18 A3004 50 44 1900 VRB/05 RMK AO2 T03110178 $
94728KNYC NYC20250812132011208/12/25 13:20:31  5-MIN KNYC 121820Z AUTO 00000KT 10SM FEW055 31/18 A3004 50 44 1900 000/00 RMK AO2 T03110178 $
94728KNYC NYC20250812132510208/12/25 13:25:31  5-MIN KNYC 121825Z AUTO 10SM FEW055 31/18 A3004 50 46 1900 M /M RMK AO2 T03110183 $
94728KNYC NYC20250812133011208/12/25 13:30:31  5-MIN KNYC 121830Z AUTO VRB04KT 10SM FEW055 31/19 A3003 50 47 2000 VRB/04 RMK AO2 T03110189 $
94728KNYC NYC20250812133511208/12/25 13:35:31  5-MIN KNYC 121835Z AUTO VRB06KT 10SM FEW055 30/19 A3004 50 51 1800 VRB/06 RMK AO2 T03000189 $
94728KNYC NYC20250812134010908/12/25 13:40:31  5-MIN KNYC 121840Z AUTO VRB05KT 10SM CLR 31/19 A3004 50 51 1900 VRB/05 RMK AO2 T03060194 $
94728KNYC NYC20250812134511608/12/25 13:45:31  5-MIN KNYC 121845Z AUTO VRB04KT 10SM CLR 31/19 A3004 50 51 1900 VRB/04 RMK AO2 SLP161 T03060194 $
94728KNYC NYC20250812135011608/12/25 13:50:31  5-MIN KNYC 121850Z AUTO VRB04KT 10SM CLR 31/19 A3004 50 51 1900 VRB/04 RMK AO2 SLP161 T03060194 $
94728KNYC NYC20250812135512508/12/25 13:55:31  5-MIN KNYC 121855Z AUTO 14007KT 110V170 10SM CLR 31/19 A3004 50 51 1900 150/07 120V180 RMK AO2 T03060194 $
94728KNYC NYC20250812140010908/12/25 14:00:31  5-MIN KNYC 121900Z AUTO VRB06KT 10SM CLR 31/19 A3003 50 49 1900 VRB/06 RMK AO2 T03060189 $
94728KNYC NYC20250812140510908/12/25 14:05:31  5-MIN KNYC 121905Z AUTO VRB05KT 10SM CLR 30/19 A3003 60 52 1800 VRB/05 RMK AO2 T03000194 $
94728KNYC NYC20250812141010908/12/25 14:10:31  5-MIN KNYC 121910Z AUTO VRB04KT 10SM CLR 30/19 A3003 50 52 1800 VRB/04 RMK AO2 T03000194 $
94728KNYC NYC20250812141510908/12/25 14:15:31  5-MIN KNYC 121915Z AUTO VRB04KT 10SM CLR 30/19 A3003 60 52 1800 VRB/04 RMK AO2 T03000194 $
94728KNYC NYC20250812142010908/12/25 14:20:31  5-MIN KNYC 121920Z AUTO 00000KT 10SM CLR 31/19 A3003 60 51 1900 000/00 RMK AO2 T03060194 $
94728KNYC NYC20250812142510908/12/25 14:25:31  5-MIN KNYC 121925Z AUTO VRB04KT 10SM CLR 31/19 A3003 60 49 1900 VRB/04 RMK AO2 T03060189 $
94728KNYC NYC20250812143010908/12/25 14:30:31  5-MIN KNYC 121930Z AUTO 15005KT 10SM CLR 30/19 A3003 60 51 1800 160/05 RMK AO2 T03000189 $
94728KNYC NYC20250812143509908/12/25 14:35:31  5-MIN KNYC 121935Z AUTO 10SM CLR 30/19 A3002 60 51 1800 M /M RMK AO2 T03000189 $
94728KNYC NYC20250812144009908/12/25 14:40:31  5-MIN KNYC 121940Z AUTO 10SM CLR 30/19 A3002 60 52 1800 M /M RMK AO2 T03000194 $
94728KNYC NYC20250812144513208/12/25 14:45:31  5-MIN KNYC 121945Z AUTO 14007KT 090V210 10SM CLR 30/19 A3002 60 52 1800 150/07 100V220 RMK AO2 SLP156 T03000194 $
94728KNYC NYC20250812145011608/12/25 14:50:31  5-MIN KNYC 121950Z AUTO VRB06KT 10SM CLR 30/20 A3002 60 54 1800 VRB/06 RMK AO2 SLP157 T03000200 $
94728KNYC NYC20250812145509908/12/25 14:55:31  5-MIN KNYC 121955Z AUTO 10SM CLR 29/20 A3003 60 56 1800 M /M RMK AO2 T02940200 $
94728KNYC NYC20250812150010908/12/25 15:00:31  5-MIN KNYC 122000Z AUTO VRB06KT 10SM CLR 29/19 A3003 60 54 1800 VRB/06 RMK AO2 T02940194 $
94728KNYC NYC20250812150510908/12/25 15:05:31  5-MIN KNYC 122005Z AUTO VRB04KT 10SM CLR 29/19 A3003 60 54 1800 VRB/04 RMK AO2 T02940194 $
94728KNYC NYC20250812151009908/12/25 15:10:31  5-MIN KNYC 122010Z AUTO 10SM CLR 30/19 A3002 60 52 1800 M /M RMK AO2 T03000194 $
94728KNYC NYC20250812151510908/12/25 15:15:31  5-MIN KNYC 122015Z AUTO VRB05KT 10SM CLR 29/19 A3002 60 52 1800 VRB/05 RMK AO2 T02940189 $
94728KNYC NYC20250812152010908/12/25 15:20:31  5-MIN KNYC 122020Z AUTO 00000KT 10SM CLR 30/19 A3002 60 52 1800 000/00 RMK AO2 T03000194 $
94728KNYC NYC20250812152509908/12/25 15:25:31  5-MIN KNYC 122025Z AUTO 10SM CLR 29/19 A3002 60 54 1800 M /M RMK AO2 T02940194 $
94728KNYC NYC20250812153010908/12/25 15:30:31  5-MIN KNYC 122030Z AUTO VRB05KT 10SM CLR 29/19 A3002 60 52 1800 VRB/05 RMK AO2 T02940189 $
94728KNYC NYC20250812153510908/12/25 15:35:31  5-MIN KNYC 122035Z AUTO 13007KT 10SM CLR 29/19 A3002 70 54 1800 140/07 RMK AO2 T02940194 $
94728KNYC NYC20250812154010908/12/25 15:40:31  5-MIN KNYC 122040Z AUTO 00000KT 10SM CLR 29/19 A3002 70 52 1800 000/00 RMK AO2 T02940189 $
94728KNYC NYC20250812154511208/12/25 15:45:31  5-MIN KNYC 122045Z AUTO 10SM CLR 29/19 A3002 70 54 1700 M /M RMK AO2 SLP155 T02890189 56019 $
94728KNYC NYC20250812155011208/12/25 15:50:31  5-MIN KNYC 122050Z AUTO 10SM CLR 29/19 A3002 70 56 1700 M /M RMK AO2 SLP154 T02890194 56019 $
94728KNYC NYC20250812155510908/12/25 15:55:31  5-MIN KNYC 122055Z AUTO VRB04KT 10SM CLR 29/19 A3002 70 52 1800 VRB/04 RMK AO2 T02940189 $
94728KNYC NYC20250812160009908/12/25 16:00:31  5-MIN KNYC 122100Z AUTO 10SM CLR 29/19 A3002 70 54 1800 M /M RMK AO2 T02940194 $
94728KNYC NYC20250812160512508/12/25 16:05:31  5-MIN KNYC 122105Z AUTO 13007KT 330V190 10SM CLR 29/19 A3002 70 52 1800 140/07 340V200 RMK AO2 T02940189 $
94728KNYC NYC20250812161010908/12/25 16:10:31  5-MIN KNYC 122110Z AUTO VRB03KT 10SM CLR 29/19 A3002 70 52 1800 VRB/03 RMK AO2 T02940189 $
94728KNYC NYC20250812161510908/12/25 16:15:31  5-MIN KNYC 122115Z AUTO VRB05KT 10SM CLR 29/19 A3002 70 56 1700 VRB/05 RMK AO2 T02890194 $
94728KNYC NYC20250812162009908/12/25 16:20:31  5-MIN KNYC 122120Z AUTO 10SM CLR 29/19 A3002 70 54 1700 M /M RMK AO2 T02890189 $
94728KNYC NYC20250812162510908/12/25 16:25:31  5-MIN KNYC 122125Z AUTO VRB03KT 10SM CLR 29/19 A3002 70 54 1700 VRB/03 RMK AO2 T02890189 $
94728KNYC NYC20250812163010908/12/25 16:30:31  5-MIN KNYC 122130Z AUTO VRB05KT 10SM CLR 29/19 A3002 70 54 1700 VRB/05 RMK AO2 T02890189 $
94728KNYC NYC20250812163510908/12/25 16:35:31  5-MIN KNYC 122135Z AUTO VRB04KT 10SM CLR 29/19 A3001 70 54 1700 VRB/04 RMK AO2 T02890189 $
94728KNYC NYC20250812164009908/12/25 16:40:31  5-MIN KNYC 122140Z AUTO 10SM CLR 29/19 A3001 80 54 1700 M /M RMK AO2 T02890189 $
94728KNYC NYC20250812164511608/12/25 16:45:31  5-MIN KNYC 122145Z AUTO VRB03KT 10SM CLR 29/19 A3001 80 54 1700 VRB/03 RMK AO2 SLP151 T02890189 $
94728KNYC NYC20250812165011608/12/25 16:50:31  5-MIN KNYC 122150Z AUTO 00000KT 10SM CLR 29/19 A3001 80 54 1700 000/00 RMK AO2 SLP151 T02890189 $
94728KNYC NYC20250812165510908/12/25 16:55:31  5-MIN KNYC 122155Z AUTO 18006KT 10SM CLR 29/19 A3001 80 54 1700 190/06 RMK AO2 T02890189 $
94728KNYC NYC20250812170010908/12/25 17:00:31  5-MIN KNYC 122200Z AUTO 00000KT 10SM CLR 29/19 A3001 80 54 1700 000/00 RMK AO2 T02890189 $
94728KNYC NYC20250812170509908/12/25 17:05:31  5-MIN KNYC 122205Z AUTO 10SM CLR 28/19 A3001 80 56 1700 M /M RMK AO2 T02830189 $
94728KNYC NYC20250812171009908/12/25 17:10:31  5-MIN KNYC 122210Z AUTO 10SM CLR 28/19 A3001 80 56 1700 M /M RMK AO2 T02830189 $
94728KNYC NYC20250812171510908/12/25 17:15:31  5-MIN KNYC 122215Z AUTO VRB04KT 10SM CLR 28/19 A3001 80 56 1700 VRB/04 RMK AO2 T02830189 $
94728KNYC NYC20250812172010908/12/25 17:20:31  5-MIN KNYC 122220Z AUTO 00000KT 10SM CLR 28/19 A3001 80 56 1700 000/00 RMK AO2 T02830189 $
94728KNYC NYC20250812172510908/12/25 17:25:31  5-MIN KNYC 122225Z AUTO 00000KT 10SM CLR 28/19 A3001 80 56 1700 000/00 RMK AO2 T02830189 $
94728KNYC NYC20250812173009908/12/25 17:30:31  5-MIN KNYC 122230Z AUTO 10SM CLR 28/19 A3000 80 56 1700 M /M RMK AO2 T02830189 $
94728KNYC NYC20250812173510908/12/25 17:35:31  5-MIN KNYC 122235Z AUTO VRB04KT 10SM CLR 28/19 A3000 80 56 1700 VRB/04 RMK AO2 T02830189 $
94728KNYC NYC20250812174009908/12/25 17:40:31  5-MIN KNYC 122240Z AUTO 10SM CLR 28/19 A3000 80 56 1700 M /M RMK AO2 T02830189 $
94728KNYC NYC20250812174510608/12/25 17:45:31  5-MIN KNYC 122245Z AUTO 10SM CLR 28/19 A3000 80 56 1700 M /M RMK AO2 SLP149 T02830189 $
94728KNYC NYC20250812175011608/12/25 17:50:31  5-MIN KNYC 122250Z AUTO 00000KT 10SM CLR 28/19 A3000 80 56 1700 000/00 RMK AO2 SLP149 T02830189 $
94728KNYC NYC20250812175510908/12/25 17:55:31  5-MIN KNYC 122255Z AUTO 00000KT 10SM CLR 28/19 A3000 80 56 1700 000/00 RMK AO2 T02830189 $
94728KNYC NYC20250812180009908/12/25 18:00:31  5-MIN KNYC 122300Z AUTO 10SM CLR 28/19 A3000 90 58 1600 M /M RMK AO2 T02780189 $
94728KNYC NYC20250812180509908/12/25 18:05:31  5-MIN KNYC 122305Z AUTO 10SM CLR 28/19 A3000 90 58 1600 M /M RMK AO2 T02780189 $
94728KNYC NYC20250812181010908/12/25 18:10:31  5-MIN KNYC 122310Z AUTO VRB06KT 10SM CLR 28/19 A3000 80 58 1600 VRB/06 RMK AO2 T02780189 $
94728KNYC NYC20250812181510908/12/25 18:15:31  5-MIN KNYC 122315Z AUTO VRB06KT 10SM CLR 28/18 A3000 80 56 1600 VRB/06 RMK AO2 T02780183 $
94728KNYC NYC20250812182010908/12/25 18:20:31  5-MIN KNYC 122320Z AUTO 00000KT 10SM CLR 27/18 A3000 80 58 1600 000/00 RMK AO2 T02720183 $
94728KNYC NYC20250812182509908/12/25 18:25:31  5-MIN KNYC 122325Z AUTO 10SM CLR 27/18 A3000 80 58 1600 M /M RMK AO2 T02720183 $
94728KNYC NYC20250812183010908/12/25 18:30:31  5-MIN KNYC 122330Z AUTO 00000KT 10SM CLR 27/19 A3000 80 60 1600 000/00 RMK AO2 T02720189 $
94728KNYC NYC20250812183509908/12/25 18:35:31  5-MIN KNYC 122335Z AUTO 10SM CLR 27/19 A3000 80 60 1600 M /M RMK AO2 T02720189 $
94728KNYC NYC20250812184010908/12/25 18:40:31  5-MIN KNYC 122340Z AUTO VRB03KT 10SM CLR 27/19 A3000 80 62 1500 VRB/03 RMK AO2 T02670189 $
94728KNYC NYC20250812184513408/12/25 18:45:31  5-MIN KNYC 122345Z AUTO VRB04KT 10SM CLR 27/19 A3000 80 62 1500 VRB/04 RMK AO2 SLP149 T02670189 10328 20267 56010 $
94728KNYC NYC20250812185013408/12/25 18:50:31  5-MIN KNYC 122350Z AUTO VRB03KT 10SM CLR 27/19 A3000 90 62 1500 VRB/03 RMK AO2 SLP148 T02670189 10328 20267 56010 $
94728KNYC NYC20250812185510908/12/25 18:55:31  5-MIN KNYC 122355Z AUTO 00000KT 10SM CLR 27/19 A3000 90 62 1500 000/00 RMK AO2 T02670189 $
94728KNYC NYC20250812190010908/12/25 19:00:31  5-MIN KNYC 130000Z AUTO VRB04KT 10SM CLR 27/19 A3000 80 62 1500 VRB/04 RMK AO2 T02670189 $
94728KNYC NYC20250812190510908/12/25 19:05:31  5-MIN KNYC 130005Z AUTO 18005KT 10SM CLR 27/19 A3000 80 62 1500 190/05 RMK AO2 T02670189 $
94728KNYC NYC20250812191009908/12/25 19:10:31  5-MIN KNYC 130010Z AUTO 10SM CLR 27/19 A3000 80 62 1500 M /M RMK AO2 T02670189 $
94728KNYC NYC20250812191510908/12/25 19:15:31  5-MIN KNYC 130015Z AUTO 00000KT 10SM CLR 27/19 A3000 80 62 1500 000/00 RMK AO2 T02670189 $
94728KNYC NYC20250812192010908/12/25 19:20:31  5-MIN KNYC 130020Z AUTO 00000KT 10SM CLR 27/19 A3000 80 62 1500 000/00 RMK AO2 T02670189 $
94728KNYC NYC20250812192510908/12/25 19:25:31  5-MIN KNYC 130025Z AUTO VRB03KT 10SM CLR 27/19 A3000 90 62 1500 VRB/03 RMK AO2 T02670189 $
94728KNYC NYC20250812193010908/12/25 19:30:31  5-MIN KNYC 130030Z AUTO VRB03KT 10SM CLR 27/19 A3000 90 62 1500 VRB/03 RMK AO2 T02670189 $
94728KNYC NYC20250812193510908/12/25 19:35:31  5-MIN KNYC 130035Z AUTO 00000KT 10SM CLR 27/19 A3000 90 62 1500 000/00 RMK AO2 T02670189 $
94728KNYC NYC20250812194009908/12/25 19:40:31  5-MIN KNYC 130040Z AUTO 10SM CLR 26/19 A2999 90 64 1400 M /M RMK AO2 T02610189 $
94728KNYC NYC20250812194511608/12/25 19:45:31  5-MIN KNYC 130045Z AUTO VRB03KT 10SM CLR 26/19 A2999 90 66 1400 VRB/03 RMK AO2 SLP147 T02610194 $
94728KNYC NYC20250812195011608/12/25 19:50:31  5-MIN KNYC 130050Z AUTO VRB03KT 10SM CLR 26/19 A2999 90 66 1400 VRB/03 RMK AO2 SLP147 T02610194 $
94728KNYC NYC20250812195510908/12/25 19:55:31  5-MIN KNYC 130055Z AUTO VRB03KT 10SM CLR 26/19 A3000 90 66 1400 VRB/03 RMK AO2 T02610194 $
94728KNYC NYC20250812200010908/12/25 20:00:31  5-MIN KNYC 130100Z AUTO 00000KT 10SM CLR 26/19 A2999 90 66 1400 000/00 RMK AO2 T02610194 $
94728KNYC NYC20250812200510908/12/25 20:05:31  5-MIN KNYC 130105Z AUTO 00000KT 10SM CLR 26/19 A3000 90 66 1400 000/00 RMK AO2 T02610194 $
94728KNYC NYC20250812201010908/12/25 20:10:31  5-MIN KNYC 130110Z AUTO 00000KT 10SM CLR 27/19 A3000 90 64 1500 000/00 RMK AO2 T02670194 $
94728KNYC NYC20250812201510908/12/25 20:15:31  5-MIN KNYC 130115Z AUTO 00000KT 10SM CLR 26/20 A3000 90 68 1400 000/00 RMK AO2 T02610200 $
94728KNYC NYC20250812202010908/12/25 20:20:31  5-MIN KNYC 130120Z AUTO 00000KT 10SM CLR 26/20 A3000 90 68 1400 000/00 RMK AO2 T02610200 $
94728KNYC NYC20250812202510908/12/25 20:25:31  5-MIN KNYC 130125Z AUTO VRB03KT 10SM CLR 26/20 A3000 90 68 1400 VRB/03 RMK AO2 T02610200 $
94728KNYC NYC20250812203010908/12/25 20:30:31  5-MIN KNYC 130130Z AUTO VRB03KT 10SM CLR 26/20 A2999 90 68 1400 VRB/03 RMK AO2 T02610200 $
94728KNYC NYC20250812203510908/12/25 20:35:31  5-MIN KNYC 130135Z AUTO 00000KT 10SM CLR 26/20 A3000 90 68 1400 000/00 RMK AO2 T02610200 $
94728KNYC NYC20250812204010908/12/25 20:40:31  5-MIN KNYC 130140Z AUTO 00000KT 10SM CLR 26/20 A3000 90 68 1400 000/00 RMK AO2 T02610200 $
94728KNYC NYC20250812204511608/12/25 20:45:31  5-MIN KNYC 130145Z AUTO VRB03KT 10SM CLR 26/20 A3000 90 68 1400 VRB/03 RMK AO2 SLP148 T02610200 $
94728KNYC NYC20250812205011608/12/25 20:50:31  5-MIN KNYC 130150Z AUTO VRB04KT 10SM CLR 26/20 A3000 90 68 1400 VRB/04 RMK AO2 SLP148 T02610200 $
94728KNYC NYC20250812205510908/12/25 20:55:31  5-MIN KNYC 130155Z AUTO VRB03KT 10SM CLR 26/20 A3000 90 68 1400 VRB/03 RMK AO2 T02610200 $
94728KNYC NYC20250812210010908/12/25 21:00:31  5-MIN KNYC 130200Z AUTO VRB04KT 10SM CLR 26/20 A3000 90 68 1400 VRB/04 RMK AO2 T02610200 $
94728KNYC NYC20250812210510908/12/25 21:05:31  5-MIN KNYC 130205Z AUTO 00000KT 10SM CLR 26/20 A3000 90 68 1400 000/00 RMK AO2 T02610200 $
94728KNYC NYC20250812211010908/12/25 21:10:31  5-MIN KNYC 130210Z AUTO 00000KT 10SM CLR 26/20 A3000 90 68 1400 000/00 RMK AO2 T02610200 $
94728KNYC NYC20250812211510908/12/25 21:15:31  5-MIN KNYC 130215Z AUTO 00000KT 10SM CLR 26/20 A3000 80 68 1400 000/00 RMK AO2 T02610200 $
94728KNYC NYC20250812212009908/12/25 21:20:31  5-MIN KNYC 130220Z AUTO 10SM CLR 26/20 A3000 80 68 1400 M /M RMK AO2 T02610200 $
94728KNYC NYC20250812212510908/12/25 21:25:31  5-MIN KNYC 130225Z AUTO VRB03KT 10SM CLR 26/20 A3000 80 68 1400 VRB/03 RMK AO2 T02610200 $
94728KNYC NYC20250812213010908/12/25 21:30:31  5-MIN KNYC 130230Z AUTO VRB03KT 10SM CLR 26/20 A3000 90 68 1400 VRB/03 RMK AO2 T02610200 $
94728KNYC NYC20250812213510908/12/25 21:35:31  5-MIN KNYC 130235Z AUTO 00000KT 10SM CLR 26/20 A3000 90 68 1400 000/00 RMK AO2 T02610200 $
94728KNYC NYC20250812214010908/12/25 21:40:31  5-MIN KNYC 130240Z AUTO VRB03KT 10SM CLR 26/20 A3000 90 68 1400 VRB/03 RMK AO2 T02610200 $
94728KNYC NYC20250812214511208/12/25 21:45:31  5-MIN KNYC 130245Z AUTO 10SM CLR 26/20 A3000 90 71 1400 M /M RMK AO2 SLP148 T02560200 56006 $
94728KNYC NYC20250812215012208/12/25 21:50:31  5-MIN KNYC 130250Z AUTO VRB05KT 10SM CLR 26/20 A3000 90 71 1400 VRB/05 RMK AO2 SLP147 T02560200 56006 $
94728KNYC NYC20250812215510908/12/25 21:55:31  5-MIN KNYC 130255Z AUTO VRB04KT 10SM CLR 26/20 A3000 90 68 1400 VRB/04 RMK AO2 T02610200 $
94728KNYC NYC20250812220009908/12/25 22:00:31  5-MIN KNYC 130300Z AUTO 10SM CLR 26/20 A2999 90 71 1400 M /M RMK AO2 T02560200 $
94728KNYC NYC20250812220510908/12/25 22:05:31  5-MIN KNYC 130305Z AUTO VRB03KT 10SM CLR 26/20 A2999 90 71 1400 VRB/03 RMK AO2 T02560200 $
94728KNYC NYC20250812221010908/12/25 22:10:31  5-MIN KNYC 130310Z AUTO 00000KT 10SM CLR 26/20 A2999 90 71 1400 000/00 RMK AO2 T02560200 $
94728KNYC NYC20250812221509908/12/25 22:15:31  5-MIN KNYC 130315Z AUTO 10SM CLR 26/20 A2999 90 71 1400 M /M RMK AO2 T02560200 $
94728KNYC NYC20250812222009908/12/25 22:20:31  5-MIN KNYC 130320Z AUTO 10SM CLR 26/20 A2999 90 68 1400 M /M RMK AO2 T02610200 $
94728KNYC NYC20250812222510908/12/25 22:25:31  5-MIN KNYC 130325Z AUTO 22005KT 10SM CLR 26/20 A2999 90 71 1400 230/05 RMK AO2 T02560200 $
94728KNYC NYC20250812223011008/12/25 22:30:31  5-MIN KNYC 130330Z AUTO VRB04KT 10SM CLR 26/20 A2999 100 71 1400 VRB/04 RMK AO2 T02560200 $
94728KNYC NYC20250812223510908/12/25 22:35:31  5-MIN KNYC 130335Z AUTO VRB03KT 10SM CLR 26/20 A2999 90 71 1400 VRB/03 RMK AO2 T02560200 $
94728KNYC NYC20250812224011008/12/25 22:40:31  5-MIN KNYC 130340Z AUTO VRB05KT 10SM CLR 26/20 A2999 100 71 1400 VRB/05 RMK AO2 T02560200 $
94728KNYC NYC20250812224511708/12/25 22:45:31  5-MIN KNYC 130345Z AUTO 00000KT 10SM CLR 26/20 A2999 100 71 1400 000/00 RMK AO2 SLP145 T02560200 $
94728KNYC NYC20250812225011708/12/25 22:50:31  5-MIN KNYC 130350Z AUTO 20004KT 10SM CLR 26/20 A2999 100 71 1400 210/04 RMK AO2 SLP144 T02560200 $
94728KNYC NYC20250812225510008/12/25 22:55:31  5-MIN KNYC 130355Z AUTO 10SM CLR 26/20 A2999 100 71 1400 M /M RMK AO2 T02560200 $
94728KNYC NYC20250812230011008/12/25 23:00:31  5-MIN KNYC 130400Z AUTO 00000KT 10SM CLR 26/20 A2999 100 71 1400 000/00 RMK AO2 T02560200 $
94728KNYC NYC20250812230510008/12/25 23:05:31  5-MIN KNYC 130405Z AUTO 10SM CLR 26/20 A2999 100 71 1400 M /M RMK AO2 T02560200 $
94728KNYC NYC20250812231011008/12/25 23:10:31  5-MIN KNYC 130410Z AUTO 22005KT 10SM CLR 26/20 A2999 100 71 1400 230/05 RMK AO2 T02560200 $
94728KNYC NYC20250812231511008/12/25 23:15:31  5-MIN KNYC 130415Z AUTO 21004KT 10SM CLR 26/20 A2998 100 71 1400 220/04 RMK AO2 T02560200 $
94728KNYC NYC20250812232011008/12/25 23:20:31  5-MIN KNYC 130420Z AUTO VRB03KT 10SM CLR 26/20 A2998 100 71 1400 VRB/03 RMK AO2 T02560200 $
94728KNYC NYC20250812232511008/12/25 23:25:31  5-MIN KNYC 130425Z AUTO 20003KT 10SM CLR 25/20 A2998 100 73 1300 220/03 RMK AO2 T02500200 $
94728KNYC NYC20250812233011008/12/25 23:30:31  5-MIN KNYC 130430Z AUTO VRB03KT 10SM CLR 25/20 A2998 100 73 1300 VRB/03 RMK AO2 T02500200 $
94728KNYC NYC20250812233511008/12/25 23:35:31  5-MIN KNYC 130435Z AUTO VRB03KT 10SM CLR 25/20 A2998 100 73 1300 VRB/03 RMK AO2 T02500200 $
94728KNYC NYC20250812234011008/12/25 23:40:31  5-MIN KNYC 130440Z AUTO 00000KT 10SM CLR 25/20 A2998 100 73 1300 000/00 RMK AO2 T02500200 $
94728KNYC NYC20250812234512708/12/25 23:45:31  5-MIN KNYC 130445Z AUTO VRB03KT 10SM CLR 25/20 A2998 100 73 1300 VRB/03 RMK AO2 SLP143 T02500200 403280217 $
94728KNYC NYC20250812235012708/12/25 23:50:31  5-MIN KNYC 130450Z AUTO VRB04KT 10SM CLR 25/20 A2998 100 73 1300 VRB/04 RMK AO2 SLP143 T02500200 403280217 $
94728KNYC NYC20250812235511008/12/25 23:55:31  5-MIN KNYC 130455Z AUTO VRB03KT 10SM CLR 25/20 A2998 100 73 1300 VRB/03 RMK AO2 T02500200 $
94728KNYC NYC20250813000010008/13/25 00:00:31  5-MIN KNYC 130500Z AUTO 10SM CLR 25/20 A2998 100 73 1300 M /M RMK AO2 T02500200 $
94728KNYC NYC20250813000511008/13/25 00:05:31  5-MIN KNYC 130505Z AUTO 23005KT 10SM CLR 25/20 A2998 100 73 1300 240/05 RMK AO2 T02500200 $
94728KNYC NYC20250813001011008/13/25 00:10:31  5-MIN KNYC 130510Z AUTO 00000KT 10SM CLR 25/20 A2998 100 73 1300 000/00 RMK AO2 T02500200 $
94728KNYC NYC20250813001511008/13/25 00:15:31  5-MIN KNYC 130515Z AUTO 00000KT 10SM CLR 25/20 A2998 100 73 1300 000/00 RMK AO2 T02500200 $
94728KNYC NYC20250813002011008/13/25 00:20:31  5-MIN KNYC 130520Z AUTO 00000KT 10SM CLR 25/20 A2998 100 73 1300 000/00 RMK AO2 T02500200 $
94728KNYC NYC20250813002510008/13/25 00:25:31  5-MIN KNYC 130525Z AUTO 10SM CLR 25/20 A2998 110 73 1300 M /M RMK AO2 T02500200 $
94728KNYC NYC20250813003011008/13/25 00:30:31  5-MIN KNYC 130530Z AUTO 25005KT 10SM CLR 25/20 A2998 110 73 1300 260/05 RMK AO2 T02500200 $
94728KNYC NYC20250813003511008/13/25 00:35:31  5-MIN KNYC 130535Z AUTO 25004KT 10SM CLR 25/20 A2998 110 73 1300 260/04 RMK AO2 T02500200 $
94728KNYC NYC20250813004011008/13/25 00:40:31  5-MIN KNYC 130540Z AUTO 24006KT 10SM CLR 25/20 A2998 110 73 1300 250/06 RMK AO2 T02500200 $
94728KNYC NYC20250813004513508/13/25 00:45:31  5-MIN KNYC 130545Z AUTO 23005KT 10SM CLR 25/20 A2997 110 73 1300 250/05 RMK AO2 SLP140 T02500200 10267 20250 58001 $
94728KNYC NYC20250813005013508/13/25 00:50:31  5-MIN KNYC 130550Z AUTO 23003KT 10SM CLR 26/20 A2997 110 71 1400 250/03 RMK AO2 SLP140 T02560200 10267 20250 58001 $
94728KNYC NYC20250813005511008/13/25 00:55:31  5-MIN KNYC 130555Z AUTO 25005KT 10SM CLR 25/20 A2997 110 73 1300 260/05 RMK AO2 T02500200 $
94728KNYC NYC20250813010011008/13/25 01:00:31  5-MIN KNYC 130600Z AUTO VRB04KT 10SM CLR 25/20 A2997 110 73 1300 VRB/04 RMK AO2 T02500200 $
94728KNYC NYC20250813010511008/13/25 01:05:31  5-MIN KNYC 130605Z AUTO VRB03KT 10SM CLR 25/20 A2998 110 73 1300 VRB/03 RMK AO2 T02500200 $
94728KNYC NYC20250813011011008/13/25 01:10:31  5-MIN KNYC 130610Z AUTO 24005KT 10SM CLR 25/20 A2998 110 73 1300 260/05 RMK AO2 T02500200 $
94728KNYC NYC20250813011511008/13/25 01:15:31  5-MIN KNYC 130615Z AUTO VRB05KT 10SM CLR 25/20 A2997 110 73 1300 VRB/05 RMK AO2 T02500200 $
94728KNYC NYC20250813012011008/13/25 01:20:31  5-MIN KNYC 130620Z AUTO VRB04KT 10SM CLR 25/20 A2997 110 73 1300 VRB/04 RMK AO2 T02500200 $
94728KNYC NYC20250813012511008/13/25 01:25:31  5-MIN KNYC 130625Z AUTO 25004KT 10SM CLR 25/20 A2997 110 73 1300 260/04 RMK AO2 T02500200 $
94728KNYC NYC20250813013011008/13/25 01:30:31  5-MIN KNYC 130630Z AUTO VRB04KT 10SM CLR 25/20 A2997 110 73 1300 VRB/04 RMK AO2 T02500200 $
94728KNYC NYC20250813013511008/13/25 01:35:31  5-MIN KNYC 130635Z AUTO 24006KT 10SM CLR 25/20 A2997 110 73 1300 250/06 RMK AO2 T02500200 $
94728KNYC NYC20250813014011008/13/25 01:40:31  5-MIN KNYC 130640Z AUTO 25004KT 10SM CLR 25/20 A2997 110 73 1300 270/04 RMK AO2 T02500200 $
94728KNYC NYC20250813014510708/13/25 01:45:31  5-MIN KNYC 130645Z AUTO 10SM CLR 25/20 A2997 110 73 1300 M /M RMK AO2 SLP138 T02500200 $
94728KNYC NYC20250813015011708/13/25 01:50:31  5-MIN KNYC 130650Z AUTO VRB03KT 10SM CLR 25/20 A2997 110 73 1300 VRB/03 RMK AO2 SLP138 T02500200 $
94728KNYC NYC20250813015510008/13/25 01:55:31  5-MIN KNYC 130655Z AUTO 10SM CLR 25/20 A2997 110 73 1300 M /M RMK AO2 T02500200 $
94728KNYC NYC20250813020011008/13/25 02:00:31  5-MIN KNYC 130700Z AUTO 25003KT 10SM CLR 25/20 A2997 110 73 1300 270/03 RMK AO2 T02500200 $
94728KNYC NYC20250813020511008/13/25 02:05:31  5-MIN KNYC 130705Z AUTO VRB04KT 10SM CLR 25/20 A2997 110 73 1300 VRB/04 RMK AO2 T02500200 $
94728KNYC NYC20250813021010008/13/25 02:10:31  5-MIN KNYC 130710Z AUTO 10SM CLR 25/20 A2997 110 73 1300 M /M RMK AO2 T02500200 $
94728KNYC NYC20250813021511008/13/25 02:15:31  5-MIN KNYC 130715Z AUTO VRB04KT 10SM CLR 25/20 A2997 120 73 1300 VRB/04 RMK AO2 T02500200 $
94728KNYC NYC20250813022011008/13/25 02:20:31  5-MIN KNYC 130720Z AUTO VRB03KT 10SM CLR 25/20 A2996 120 73 1300 VRB/03 RMK AO2 T02500200 $
94728KNYC NYC20250813022510008/13/25 02:25:31  5-MIN KNYC 130725Z AUTO 10SM CLR 25/20 A2996 120 73 1300 M /M RMK AO2 T02500200 $
94728KNYC NYC20250813023011008/13/25 02:30:31  5-MIN KNYC 130730Z AUTO VRB04KT 10SM CLR 25/20 A2996 120 73 1300 VRB/04 RMK AO2 T02500200 $
94728KNYC NYC20250813023511008/13/25 02:35:31  5-MIN KNYC 130735Z AUTO VRB03KT 10SM CLR 25/20 A2996 120 73 1400 VRB/03 RMK AO2 T02500200 $
94728KNYC NYC20250813024011008/13/25 02:40:31  5-MIN KNYC 130740Z AUTO 25006KT 10SM CLR 25/20 A2996 130 73 1400 260/06 RMK AO2 T02500200 $
94728KNYC NYC20250813024511708/13/25 02:45:31  5-MIN KNYC 130745Z AUTO VRB04KT 10SM CLR 25/20 A2995 130 73 1400 VRB/04 RMK AO2 SLP133 T02500200 $
94728KNYC NYC20250813025011708/13/25 02:50:31  5-MIN KNYC 130750Z AUTO 28003KT 10SM CLR 25/20 A2995 130 73 1400 290/03 RMK AO2 SLP133 T02500200 $
94728KNYC NYC20250813025511008/13/25 02:55:31  5-MIN KNYC 130755Z AUTO 00000KT 10SM CLR 25/20 A2996 130 73 1400 000/00 RMK AO2 T02500200 $
94728KNYC NYC20250813030011008/13/25 03:00:31  5-MIN KNYC 130800Z AUTO VRB05KT 10SM CLR 25/20 A2995 130 73 1400 VRB/05 RMK AO2 T02500200 $
94728KNYC NYC20250813030511008/13/25 03:05:31  5-MIN KNYC 130805Z AUTO 00000KT 10SM CLR 25/20 A2995 130 73 1400 000/00 RMK AO2 T02500200 $
94728KNYC NYC20250813031010008/13/25 03:10:31  5-MIN KNYC 130810Z AUTO 10SM CLR 25/20 A2995 130 73 1400 M /M RMK AO2 T02500200 $
94728KNYC NYC20250813031511008/13/25 03:15:31  5-MIN KNYC 130815Z AUTO 00000KT 10SM CLR 25/20 A2995 130 73 1400 000/00 RMK AO2 T02500200 $
94728KNYC NYC20250813032011008/13/25 03:20:31  5-MIN KNYC 130820Z AUTO 00000KT 10SM CLR 25/20 A2995 130 73 1400 000/00 RMK AO2 T02500200 $
94728KNYC NYC20250813032511008/13/25 03:25:31  5-MIN KNYC 130825Z AUTO VRB03KT 10SM CLR 24/20 A2995 130 76 1300 VRB/03 RMK AO2 T02440200 $
94728KNYC NYC20250813033011008/13/25 03:30:31  5-MIN KNYC 130830Z AUTO VRB03KT 10SM CLR 24/20 A2995 130 76 1300 VRB/03 RMK AO2 T02440200 $
94728KNYC NYC20250813033511008/13/25 03:35:31  5-MIN KNYC 130835Z AUTO 00000KT 10SM CLR 24/20 A2995 130 76 1300 000/00 RMK AO2 T02440200 $
94728KNYC NYC20250813034011008/13/25 03:40:31  5-MIN KNYC 130840Z AUTO 23003KT 10SM CLR 24/20 A2995 130 76 1300 250/03 RMK AO2 T02440200 $
94728KNYC NYC20250813034512308/13/25 03:45:31  5-MIN KNYC 130845Z AUTO VRB03KT 10SM CLR 24/20 A2995 130 76 1300 VRB/03 RMK AO2 SLP132 T02440200 56007 $
94728KNYC NYC20250813035012308/13/25 03:50:31  5-MIN KNYC 130850Z AUTO VRB03KT 10SM CLR 24/20 A2995 130 76 1300 VRB/03 RMK AO2 SLP132 T02440200 56007 $
94728KNYC NYC20250813035511008/13/25 03:55:31  5-MIN KNYC 130855Z AUTO VRB03KT 10SM CLR 24/20 A2995 130 76 1300 VRB/03 RMK AO2 T02440200 $
94728KNYC NYC20250813040011008/13/25 04:00:31  5-MIN KNYC 130900Z AUTO 00000KT 10SM CLR 24/20 A2995 130 76 1300 000/00 RMK AO2 T02440200 $
94728KNYC NYC20250813040511008/13/25 04:05:31  5-MIN KNYC 130905Z AUTO VRB03KT 10SM CLR 24/20 A2995 130 76 1300 VRB/03 RMK AO2 T02440200 $
94728KNYC NYC20250813041010008/13/25 04:10:31  5-MIN KNYC 130910Z AUTO 10SM CLR 24/20 A2995 130 76 1300 M /M RMK AO2 T02440200 $
94728KNYC NYC20250813041511008/13/25 04:15:31  5-MIN KNYC 130915Z AUTO 00000KT 10SM CLR 24/21 A2996 130 78 1300 000/00 RMK AO2 T02440206 $
94728KNYC NYC20250813042011008/13/25 04:20:31  5-MIN KNYC 130920Z AUTO 00000KT 10SM CLR 24/21 A2996 130 78 1300 000/00 RMK AO2 T02440206 $
94728KNYC NYC20250813042511008/13/25 04:25:31  5-MIN KNYC 130925Z AUTO 00000KT 10SM CLR 24/21 A2996 130 78 1300 000/00 RMK AO2 T02440206 $
94728KNYC NYC20250813043011008/13/25 04:30:31  5-MIN KNYC 130930Z AUTO 00000KT 10SM CLR 24/21 A2996 130 78 1300 000/00 RMK AO2 T02440206 $
94728KNYC NYC20250813043511008/13/25 04:35:31  5-MIN KNYC 130935Z AUTO 00000KT 10SM CLR 24/21 A2995 130 78 1300 000/00 RMK AO2 T02440206 $
94728KNYC NYC20250813044011008/13/25 04:40:31  5-MIN KNYC 130940Z AUTO 00000KT 10SM CLR 24/21 A2995 130 78 1300 000/00 RMK AO2 T02440206 $
94728KNYC NYC20250813044511708/13/25 04:45:31  5-MIN KNYC 130945Z AUTO VRB04KT 10SM CLR 24/21 A2996 120 78 1300 VRB/04 RMK AO2 SLP134 T02440206 $
94728KNYC NYC20250813045011708/13/25 04:50:31  5-MIN KNYC 130950Z AUTO VRB04KT 10SM CLR 24/21 A2996 130 78 1300 VRB/04 RMK AO2 SLP134 T02440206 $
94728KNYC NYC20250813045511008/13/25 04:55:31  5-MIN KNYC 130955Z AUTO 00000KT 10SM CLR 24/21 A2996 120 78 1300 000/00 RMK AO2 T02440206 $
94728KNYC NYC20250813050010008/13/25 05:00:31  5-MIN KNYC 131000Z AUTO 10SM CLR 24/21 A2996 120 78 1300 M /M RMK AO2 T02440206 $
94728KNYC NYC20250813050511008/13/25 05:05:31  5-MIN KNYC 131005Z AUTO VRB04KT 10SM CLR 24/21 A2996 120 78 1300 VRB/04 RMK AO2 T02440206 $
94728KNYC NYC20250813051011008/13/25 05:10:31  5-MIN KNYC 131010Z AUTO 00000KT 10SM CLR 24/21 A2996 120 78 1300 000/00 RMK AO2 T02440206 $
94728KNYC NYC20250813051511008/13/25 05:15:31  5-MIN KNYC 131015Z AUTO 23003KT 10SM CLR 24/21 A2996 120 78 1300 240/03 RMK AO2 T02440206 $
94728KNYC NYC20250813052011008/13/25 05:20:31  5-MIN KNYC 131020Z AUTO 00000KT 10SM CLR 24/21 A2996 120 78 1300 000/00 RMK AO2 T02440206 $
94728KNYC NYC20250813052511008/13/25 05:25:31  5-MIN KNYC 131025Z AUTO 00000KT 10SM CLR 24/21 A2996 120 78 1300 000/00 RMK AO2 T02440206 $
94728KNYC NYC20250813053011008/13/25 05:30:31  5-MIN KNYC 131030Z AUTO 00000KT 10SM CLR 24/21 A2996 120 78 1300 000/00 RMK AO2 T02440206 $
94728KNYC NYC20250813053511008/13/25 05:35:31  5-MIN KNYC 131035Z AUTO 00000KT 10SM CLR 24/21 A2996 120 78 1300 000/00 RMK AO2 T02440206 $
94728KNYC NYC20250813054011008/13/25 05:40:31  5-MIN KNYC 131040Z AUTO 00000KT 10SM CLR 24/21 A2996 120 78 1300 000/00 RMK AO2 T02440206 $
94728KNYC NYC20250813054511708/13/25 05:45:31  5-MIN KNYC 131045Z AUTO 00000KT 10SM CLR 24/21 A2996 120 78 1300 000/00 RMK AO2 SLP134 T02440206 $
94728KNYC NYC20250813055011708/13/25 05:50:31  5-MIN KNYC 131050Z AUTO 00000KT 10SM CLR 25/21 A2996 120 76 1400 000/00 RMK AO2 SLP134 T02500206 $
94728KNYC NYC20250813055511008/13/25 05:55:31  5-MIN KNYC 131055Z AUTO 00000KT 10SM CLR 25/21 A2996 120 79 1300 000/00 RMK AO2 T02500211 $
94728KNYC NYC20250813060011008/13/25 06:00:31  5-MIN KNYC 131100Z AUTO 22003KT 10SM CLR 25/21 A2996 120 79 1300 230/03 RMK AO2 T02500211 $
94728KNYC NYC20250813060511008/13/25 06:05:31  5-MIN KNYC 131105Z AUTO VRB04KT 10SM CLR 25/21 A2996 120 79 1300 VRB/04 RMK AO2 T02500211 $
94728KNYC NYC20250813061011008/13/25 06:10:31  5-MIN KNYC 131110Z AUTO 00000KT 10SM CLR 25/21 A2996 120 79 1300 000/00 RMK AO2 T02500211 $
94728KNYC NYC20250813061510008/13/25 06:15:31  5-MIN KNYC 131115Z AUTO 10SM CLR 25/21 A2996 120 79 1300 M /M RMK AO2 T02500211 $
94728KNYC NYC20250813062011008/13/25 06:20:31  5-MIN KNYC 131120Z AUTO 00000KT 10SM CLR 25/21 A2996 120 79 1300 000/00 RMK AO2 T02500211 $
94728KNYC NYC20250813062511008/13/25 06:25:31  5-MIN KNYC 131125Z AUTO VRB04KT 10SM CLR 26/21 A2996 120 76 1400 VRB/04 RMK AO2 T02560211 $
94728KNYC NYC20250813063010008/13/25 06:30:31  5-MIN KNYC 131130Z AUTO 10SM CLR 26/21 A2996 120 76 1400 M /M RMK AO2 T02560211 $
94728KNYC NYC20250813063511008/13/25 06:35:31  5-MIN KNYC 131135Z AUTO VRB03KT 10SM CLR 26/21 A2996 120 76 1400 VRB/03 RMK AO2 T02560211 $
94728KNYC NYC20250813064011008/13/25 06:40:31  5-MIN KNYC 131140Z AUTO VRB04KT 10SM CLR 26/21 A2996 120 76 1400 VRB/04 RMK AO2 T02560211 $
94728KNYC NYC20250813064513508/13/25 06:45:31  5-MIN KNYC 131145Z AUTO VRB03KT 10SM CLR 26/21 A2996 120 76 1400 VRB/03 RMK AO2 SLP135 T02560211 10256 20244 56008 $
94728KNYC NYC20250813065012508/13/25 06:50:31  5-MIN KNYC 131150Z AUTO 10SM CLR 26/22 A2996 120 79 1400 M /M RMK AO2 SLP135 T02560217 10256 20244 56008 $
94728KNYC NYC20250813065511008/13/25 06:55:31  5-MIN KNYC 131155Z AUTO 00000KT 10SM CLR 26/21 A2996 120 76 1400 000/00 RMK AO2 T02560211 $
94728KNYC NYC20250813070010008/13/25 07:00:31  5-MIN KNYC 131200Z AUTO 10SM CLR 26/21 A2996 120 73 1500 M /M RMK AO2 T02610211 $
94728KNYC NYC20250813070511008/13/25 07:05:31  5-MIN KNYC 131205Z AUTO VRB04KT 10SM CLR 26/21 A2996 120 76 1400 VRB/04 RMK AO2 T02560211 $
94728KNYC NYC20250813071011008/13/25 07:10:31  5-MIN KNYC 131210Z AUTO VRB03KT 10SM CLR 26/21 A2996 120 73 1500 VRB/03 RMK AO2 T02610211 $
94728KNYC NYC20250813071510008/13/25 07:15:31  5-MIN KNYC 131215Z AUTO 10SM CLR 26/21 A2996 130 73 1500 M /M RMK AO2 T02610211 $
94728KNYC NYC20250813072011008/13/25 07:20:31  5-MIN KNYC 131220Z AUTO VRB03KT 10SM CLR 26/21 A2996 130 73 1500 VRB/03 RMK AO2 T02610211 $
94728KNYC NYC20250813072511008/13/25 07:25:31  5-MIN KNYC 131225Z AUTO VRB03KT 10SM CLR 26/21 A2996 130 73 1500 VRB/03 RMK AO2 T02610211 $
94728KNYC NYC20250813073011008/13/25 07:30:31  5-MIN KNYC 131230Z AUTO 26003KT 10SM CLR 26/21 A2996 130 73 1500 270/03 RMK AO2 T02610211 $
94728KNYC NYC20250813073511008/13/25 07:35:31  5-MIN KNYC 131235Z AUTO 00000KT 10SM CLR 27/21 A2995 130 71 1500 000/00 RMK AO2 T02670211 $
94728KNYC NYC20250813074011008/13/25 07:40:31  5-MIN KNYC 131240Z AUTO VRB03KT 10SM CLR 27/21 A2995 130 71 1500 VRB/03 RMK AO2 T02670211 $
94728KNYC NYC20250813074511708/13/25 07:45:31  5-MIN KNYC 131245Z AUTO 23003KT 10SM CLR 27/21 A2995 130 71 1500 240/03 RMK AO2 SLP133 T02670211 $
94728KNYC NYC20250813075011708/13/25 07:50:31  5-MIN KNYC 131250Z AUTO 00000KT 10SM CLR 27/21 A2995 130 71 1500 000/00 RMK AO2 SLP133 T02670211 $
94728KNYC NYC20250813075511008/13/25 07:55:31  5-MIN KNYC 131255Z AUTO 00000KT 10SM CLR 27/21 A2995 130 71 1500 000/00 RMK AO2 T02670211 $
94728KNYC NYC20250813080011008/13/25 08:00:31  5-MIN KNYC 131300Z AUTO VRB03KT 10SM CLR 27/21 A2995 130 71 1500 VRB/03 RMK AO2 T02670211 $
94728KNYC NYC20250813080511008/13/25 08:05:31  5-MIN KNYC 131305Z AUTO 00000KT 10SM CLR 27/22 A2995 130 73 1500 000/00 RMK AO2 T02670217 $
94728KNYC NYC20250813081011008/13/25 08:10:31  5-MIN KNYC 131310Z AUTO VRB04KT 10SM CLR 27/22 A2995 130 73 1500 VRB/04 RMK AO2 T02670217 $
94728KNYC NYC20250813081511008/13/25 08:15:31  5-MIN KNYC 131315Z AUTO 23005KT 10SM CLR 27/22 A2995 130 73 1500 240/05 RMK AO2 T02670217 $
94728KNYC NYC20250813082011008/13/25 08:20:31  5-MIN KNYC 131320Z AUTO VRB03KT 10SM CLR 28/22 A2995 130 69 1700 VRB/03 RMK AO2 T02780217 $
94728KNYC NYC20250813082511008/13/25 08:25:31  5-MIN KNYC 131325Z AUTO 00000KT 10SM CLR 28/22 A2995 130 69 1700 000/00 RMK AO2 T02780217 $
94728KNYC NYC20250813083010008/13/25 08:30:31  5-MIN KNYC 131330Z AUTO 10SM CLR 28/22 A2995 130 69 1700 M /M RMK AO2 T02780217 $
94728KNYC NYC20250813083511008/13/25 08:35:31  5-MIN KNYC 131335Z AUTO 00000KT 10SM CLR 28/22 A2995 130 69 1700 000/00 RMK AO2 T02780217 $
94728KNYC NYC20250813084011008/13/25 08:40:31  5-MIN KNYC 131340Z AUTO VRB04KT 10SM CLR 28/22 A2995 130 66 1700 VRB/04 RMK AO2 T02830217 $
94728KNYC NYC20250813084511708/13/25 08:45:31  5-MIN KNYC 131345Z AUTO 22005KT 10SM CLR 28/21 A2995 130 64 1700 240/05 RMK AO2 SLP132 T02830211 $
94728KNYC NYC20250813085011708/13/25 08:50:31  5-MIN KNYC 131350Z AUTO VRB03KT 10SM CLR 28/22 A2995 130 66 1700 VRB/03 RMK AO2 SLP132 T02830217 $
94728KNYC NYC20250813085511008/13/25 08:55:31  5-MIN KNYC 131355Z AUTO VRB04KT 10SM CLR 29/21 A2995 130 62 1800 VRB/04 RMK AO2 T02890211 $
94728KNYC NYC20250813090011008/13/25 09:00:31  5-MIN KNYC 131400Z AUTO 23004KT 10SM CLR 28/21 A2995 130 64 1700 250/04 RMK AO2 T02830211 $
94728KNYC NYC20250813090511008/13/25 09:05:31  5-MIN KNYC 131405Z AUTO 23004KT 10SM CLR 29/21 A2995 130 62 1800 250/04 RMK AO2 T02890211 $
94728KNYC NYC20250813091010008/13/25 09:10:31  5-MIN KNYC 131410Z AUTO 10SM CLR 29/21 A2995 130 60 1900 M /M RMK AO2 T02940211 $
94728KNYC NYC20250813091511008/13/25 09:15:31  5-MIN KNYC 131415Z AUTO VRB03KT 10SM CLR 29/21 A2995 130 62 1800 VRB/03 RMK AO2 T02890211 $
94728KNYC NYC20250813092011008/13/25 09:20:31  5-MIN KNYC 131420Z AUTO VRB05KT 10SM CLR 29/21 A2995 130 62 1800 VRB/05 RMK AO2 T02890211 $
94728KNYC NYC20250813092511008/13/25 09:25:31  5-MIN KNYC 131425Z AUTO VRB04KT 10SM CLR 29/21 A2995 130 60 1900 VRB/04 RMK AO2 T02940211 $
94728KNYC NYC20250813093011008/13/25 09:30:31  5-MIN KNYC 131430Z AUTO VRB06KT 10SM CLR 29/22 A2995 130 64 1800 VRB/06 RMK AO2 T02890217 $
94728KNYC NYC20250813093511008/13/25 09:35:31  5-MIN KNYC 131435Z AUTO VRB03KT 10SM CLR 29/21 A2995 130 60 1900 VRB/03 RMK AO2 T02940211 $
94728KNYC NYC20250813094010008/13/25 09:40:31  5-MIN KNYC 131440Z AUTO 10SM CLR 29/21 A2995 130 62 1800 M /M RMK AO2 T02890211 $
94728KNYC NYC20250813094512308/13/25 09:45:31  5-MIN KNYC 131445Z AUTO VRB04KT 10SM CLR 29/21 A2995 130 60 1900 VRB/04 RMK AO2 SLP131 T02940211 51003 $
94728KNYC NYC20250813095012308/13/25 09:50:31  5-MIN KNYC 131450Z AUTO VRB03KT 10SM CLR 29/21 A2995 130 60 1900 VRB/03 RMK AO2 SLP131 T02940211 51003 $
94728KNYC NYC20250813095511008/13/25 09:55:31  5-MIN KNYC 131455Z AUTO VRB04KT 10SM CLR 29/21 A2995 130 60 1900 VRB/04 RMK AO2 T02940211 $
94728KNYC NYC20250813100011008/13/25 10:00:31  5-MIN KNYC 131500Z AUTO VRB04KT 10SM CLR 29/21 A2995 130 62 1800 VRB/04 RMK AO2 T02890211 $
94728KNYC NYC20250813100511008/13/25 10:05:31  5-MIN KNYC 131505Z AUTO VRB04KT 10SM CLR 29/21 A2994 140 60 1900 VRB/04 RMK AO2 T02940211 $
94728KNYC NYC20250813101011008/13/25 10:10:31  5-MIN KNYC 131510Z AUTO VRB05KT 10SM CLR 29/21 A2995 140 60 1900 VRB/05 RMK AO2 T02940211 $
94728KNYC NYC20250813101511008/13/25 10:15:31  5-MIN KNYC 131515Z AUTO VRB06KT 10SM CLR 29/21 A2995 130 60 1900 VRB/06 RMK AO2 T02940211 $
94728KNYC NYC20250813102011008/13/25 10:20:31  5-MIN KNYC 131520Z AUTO VRB04KT 10SM CLR 29/21 A2995 130 60 1900 VRB/04 RMK AO2 T02940211 $
94728KNYC NYC20250813102511008/13/25 10:25:31  5-MIN KNYC 131525Z AUTO VRB04KT 10SM CLR 30/22 A2995 140 60 1900 VRB/04 RMK AO2 T03000217 $
94728KNYC NYC20250813103011008/13/25 10:30:31  5-MIN KNYC 131530Z AUTO 22007KT 10SM CLR 30/21 A2994 140 58 1900 230/07 RMK AO2 T03000211 $
94728KNYC NYC20250813103511008/13/25 10:35:31  5-MIN KNYC 131535Z AUTO VRB05KT 10SM CLR 30/21 A2994 140 58 1900 VRB/05 RMK AO2 T03000211 $
94728KNYC NYC20250813104011008/13/25 10:40:31  5-MIN KNYC 131540Z AUTO VRB04KT 10SM CLR 31/21 A2994 140 54 2000 VRB/04 RMK AO2 T03060206 $
94728KNYC NYC20250813104511708/13/25 10:45:31  5-MIN KNYC 131545Z AUTO 00000KT 10SM CLR 30/21 A2994 140 56 1900 000/00 RMK AO2 SLP127 T03000206 $
94728KNYC NYC20250813105011708/13/25 10:50:31  5-MIN KNYC 131550Z AUTO VRB03KT 10SM CLR 31/21 A2993 150 53 2100 VRB/03 RMK AO2 SLP126 T03110206 $
94728KNYC NYC20250813105511008/13/25 10:55:31  5-MIN KNYC 131555Z AUTO 00000KT 10SM CLR 31/21 A2993 150 54 2000 000/00 RMK AO2 T03060206 $
94728KNYC NYC20250813110012008/13/25 11:00:31  5-MIN KNYC 131600Z AUTO VRB03KT 10SM FEW036 FEW110 31/21 A2993 150 54 2000 VRB/03 RMK AO2 T03060206 $
94728KNYC NYC20250813110512008/13/25 11:05:31  5-MIN KNYC 131605Z AUTO VRB03KT 10SM FEW036 SCT110 31/21 A2992 150 56 2000 VRB/03 RMK AO2 T03060211 $
94728KNYC NYC20250813111011008/13/25 11:10:31  5-MIN KNYC 131610Z AUTO 10SM FEW036 FEW110 31/21 A2992 160 54 2000 M /M RMK AO2 T03060206 $
94728KNYC NYC20250813111512008/13/25 11:15:31  5-MIN KNYC 131615Z AUTO 22005KT 10SM FEW036 FEW110 31/20 A2992 160 51 2100 230/05 RMK AO2 T03110200 $
94728KNYC NYC20250813112012008/13/25 11:20:31  5-MIN KNYC 131620Z AUTO VRB03KT 10SM FEW036 SCT110 31/20 A2992 160 52 2000 VRB/03 RMK AO2 T03060200 $
94728KNYC NYC20250813112512008/13/25 11:25:31  5-MIN KNYC 131625Z AUTO VRB04KT 10SM SCT038 BKN110 31/21 A2991 160 53 2100 VRB/04 RMK AO2 T03110206 $
94728KNYC NYC20250813113011308/13/25 11:30:31  5-MIN KNYC 131630Z AUTO 00000KT 10SM SCT038 32/21 A2991 170 51 2100 000/00 RMK AO2 T03170206 $
94728KNYC NYC20250813113511308/13/25 11:35:31  5-MIN KNYC 131635Z AUTO 17005KT 10SM SCT038 32/21 A2991 170 53 2100 180/05 RMK AO2 T03170211 $
94728KNYC NYC20250813114010308/13/25 11:40:31  5-MIN KNYC 131640Z AUTO 10SM SCT038 32/21 A2991 170 51 2200 M /M RMK AO2 T03170206 $
94728KNYC NYC20250813114512008/13/25 11:45:31  5-MIN KNYC 131645Z AUTO 14003KT 10SM SCT038 31/21 A2991 170 53 2100 150/03 RMK AO2 SLP117 T03110206 $
94728KNYC NYC20250813115011008/13/25 11:50:31  5-MIN KNYC 131650Z AUTO 10SM SCT040 31/21 A2991 170 53 2100 M /M RMK AO2 SLP117 T03110206 $
94728KNYC NYC20250813115511308/13/25 11:55:31  5-MIN KNYC 131655Z AUTO VRB03KT 10SM FEW040 31/21 A2990 170 53 2100 VRB/03 RMK AO2 T03110206 $
94728KNYC NYC20250813120010308/13/25 12:00:31  5-MIN KNYC 131700Z AUTO 10SM FEW040 31/21 A2990 180 53 2100 M /M RMK AO2 T03110206 $
94728KNYC NYC20250813120511308/13/25 12:05:31  5-MIN KNYC 131705Z AUTO VRB04KT 10SM FEW041 31/21 A2990 180 53 2100 VRB/04 RMK AO2 T03110206 $
94728KNYC NYC20250813121011308/13/25 12:10:31  5-MIN KNYC 131710Z AUTO VRB05KT 10SM SCT041 31/21 A2990 180 53 2100 VRB/05 RMK AO2 T03110206 $
94728KNYC NYC20250813121510308/13/25 12:15:31  5-MIN KNYC 131715Z AUTO 10SM SCT041 31/21 A2989 180 53 2100 M /M RMK AO2 T03110206 $
94728KNYC NYC20250813122011308/13/25 12:20:31  5-MIN KNYC 131720Z AUTO VRB05KT 10SM SCT041 32/21 A2989 180 51 2200 VRB/05 RMK AO2 T03170206 $
94728KNYC NYC20250813122511308/13/25 12:25:31  5-MIN KNYC 131725Z AUTO 15006KT 10SM SCT040 31/21 A2989 190 53 2100 160/06 RMK AO2 T03110206 $
94728KNYC NYC20250813123011308/13/25 12:30:31  5-MIN KNYC 131730Z AUTO VRB06KT 10SM BKN040 31/21 A2989 190 54 2000 VRB/06 RMK AO2 T03060206 $
94728KNYC NYC20250813123511308/13/25 12:35:31  5-MIN KNYC 131735Z AUTO VRB04KT 10SM BKN038 31/21 A2989 190 54 2100 VRB/04 RMK AO2 T03060206 $
94728KNYC NYC20250813124011308/13/25 12:40:31  5-MIN KNYC 131740Z AUTO VRB05KT 10SM SCT038 31/20 A2989 190 52 2100 VRB/05 RMK AO2 T03060200 $
94728KNYC NYC20250813124512808/13/25 12:45:31  5-MIN KNYC 131745Z AUTO 10SM BKN040 30/21 A2989 190 56 2000 M /M RMK AO2 SLP110 T03000206 10317 20256 56004 $
94728KNYC NYC20250813125013808/13/25 12:50:31  5-MIN KNYC 131750Z AUTO VRB06KT 10SM BKN040 31/20 A2989 190 52 2100 VRB/06 RMK AO2 SLP110 T03060200 10317 20256 56004 $
94728KNYC NYC20250813125511308/13/25 12:55:31  5-MIN KNYC 131755Z AUTO VRB03KT 10SM SCT040 32/20 A2989 190 49 2200 VRB/03 RMK AO2 T03170200 $
94728KNYC NYC20250813130010308/13/25 13:00:31  5-MIN KNYC 131800Z AUTO 10SM FEW042 32/20 A2988 190 49 2200 M /M RMK AO2 T03170200 $
94728KNYC NYC20250813130511308/13/25 13:05:31  5-MIN KNYC 131805Z AUTO VRB03KT 10SM FEW042 32/21 A2988 190 51 2200 VRB/03 RMK AO2 T03170206 $
94728KNYC NYC20250813131011308/13/25 13:10:31  5-MIN KNYC 131810Z AUTO 15006KT 10SM FEW042 32/21 A2988 200 51 2200 170/06 RMK AO2 T03170206 $
94728KNYC NYC20250813131512608/13/25 13:15:31  5-MIN KNYC 131815Z AUTO 16007KT 120V210 10SM CLR 32/21 A2988 200 51 2200 180/07 130V220 RMK AO2 T03170206 $
94728KNYC NYC20250813132011008/13/25 13:20:31  5-MIN KNYC 131820Z AUTO VRB04KT 10SM CLR 32/21 A2988 200 51 2200 VRB/04 RMK AO2 T03170206 $
94728KNYC NYC20250813132511008/13/25 13:25:31  5-MIN KNYC 131825Z AUTO VRB05KT 10SM CLR 32/21 A2988 200 53 2200 VRB/05 RMK AO2 T03170211 $
94728KNYC NYC20250813133011008/13/25 13:30:31  5-MIN KNYC 131830Z AUTO VRB03KT 10SM CLR 31/21 A2988 200 53 2100 VRB/03 RMK AO2 T03110206 $
94728KNYC NYC20250813133510008/13/25 13:35:31  5-MIN KNYC 131835Z AUTO 10SM CLR 32/21 A2987 200 53 2200 M /M RMK AO2 T03170211 $
94728KNYC NYC20250813134011008/13/25 13:40:31  5-MIN KNYC 131840Z AUTO VRB05KT 10SM CLR 32/21 A2987 210 53 2200 VRB/05 RMK AO2 T03170211 $
94728KNYC NYC20250813134511708/13/25 13:45:31  5-MIN KNYC 131845Z AUTO VRB03KT 10SM CLR 31/21 A2986 210 53 2100 VRB/03 RMK AO2 SLP102 T03110206 $
94728KNYC NYC20250813135011708/13/25 13:50:31  5-MIN KNYC 131850Z AUTO 18005KT 10SM CLR 31/21 A2986 210 54 2100 200/05 RMK AO2 SLP102 T03110211 $
94728KNYC NYC20250813135510008/13/25 13:55:31  5-MIN KNYC 131855Z AUTO 10SM CLR 31/21 A2986 210 53 2100 M /M RMK AO2 T03110206 $
94728KNYC NYC20250813140011008/13/25 14:00:31  5-MIN KNYC 131900Z AUTO VRB03KT 10SM CLR 31/21 A2986 210 54 2100 VRB/03 RMK AO2 T03060206 $
94728KNYC NYC20250813140511008/13/25 14:05:31  5-MIN KNYC 131905Z AUTO VRB03KT 10SM CLR 31/21 A2986 210 54 2100 VRB/03 RMK AO2 T03060206 $
94728KNYC NYC20250813141010008/13/25 14:10:31  5-MIN KNYC 131910Z AUTO 10SM CLR 31/21 A2986 210 54 2100 M /M RMK AO2 T03060206 $
94728KNYC NYC20250813141510008/13/25 14:15:31  5-MIN KNYC 131915Z AUTO 10SM CLR 30/21 A2986 210 58 2000 M /M RMK AO2 T03000211 $
94728KNYC NYC20250813142011008/13/25 14:20:31  5-MIN KNYC 131920Z AUTO VRB04KT 10SM CLR 30/21 A2986 210 58 2000 VRB/04 RMK AO2 T03000211 $
94728KNYC NYC20250813142511008/13/25 14:25:31  5-MIN KNYC 131925Z AUTO VRB03KT 10SM CLR 30/21 A2986 220 58 2000 VRB/03 RMK AO2 T03000211 $
94728KNYC NYC20250813143010008/13/25 14:30:31  5-MIN KNYC 131930Z AUTO 10SM CLR 30/21 A2986 220 58 2000 M /M RMK AO2 T03000211 $
94728KNYC NYC20250813143511008/13/25 14:35:31  5-MIN KNYC 131935Z AUTO VRB04KT 10SM CLR 30/21 A2986 220 58 2000 VRB/04 RMK AO2 T03000211 $
94728KNYC NYC20250813144011008/13/25 14:40:31  5-MIN KNYC 131940Z AUTO VRB05KT 10SM CLR 30/21 A2985 220 58 2000 VRB/05 RMK AO2 T03000211 $
94728KNYC NYC20250813144510708/13/25 14:45:31  5-MIN KNYC 131945Z AUTO 10SM CLR 30/21 A2986 220 58 2000 M /M RMK AO2 SLP100 T03000211 $
94728KNYC NYC20250813145011708/13/25 14:50:31  5-MIN KNYC 131950Z AUTO VRB06KT 10SM CLR 30/21 A2986 220 58 2000 VRB/06 RMK AO2 SLP101 T03000211 $
94728KNYC NYC20250813145511008/13/25 14:55:31  5-MIN KNYC 131955Z AUTO VRB05KT 10SM CLR 30/21 A2986 220 56 2000 VRB/05 RMK AO2 T03000206 $
94728KNYC NYC20250813150011008/13/25 15:00:31  5-MIN KNYC 132000Z AUTO VRB05KT 10SM CLR 30/21 A2985 220 56 2000 VRB/05 RMK AO2 T03000206 $
94728KNYC NYC20250813150510008/13/25 15:05:31  5-MIN KNYC 132005Z AUTO 10SM CLR 29/21 A2985 220 58 2000 M /M RMK AO2 T02940206 $
94728KNYC NYC20250813151011008/13/25 15:10:31  5-MIN KNYC 132010Z AUTO 14006KT 10SM CLR 29/21 A2985 220 58 2000 150/06 RMK AO2 T02940206 $
94728KNYC NYC20250813151511008/13/25 15:15:31  5-MIN KNYC 132015Z AUTO VRB03KT 10SM CLR 29/21 A2985 220 58 2000 VRB/03 RMK AO2 T02940206 $
94728KNYC NYC20250813152011008/13/25 15:20:31  5-MIN KNYC 132020Z AUTO 13004KT 10SM CLR 29/21 A2984 230 62 1900 150/04 RMK AO2 T02890211 $
94728KNYC NYC20250813152511008/13/25 15:25:31  5-MIN KNYC 132025Z AUTO VRB03KT 10SM CLR 29/21 A2984 230 62 1900 VRB/03 RMK AO2 T02890211 $
94728KNYC NYC20250813153010008/13/25 15:30:31  5-MIN KNYC 132030Z AUTO 10SM CLR 29/21 A2984 230 62 1900 M /M RMK AO2 T02890211 $
94728KNYC NYC20250813153511008/13/25 15:35:31  5-MIN KNYC 132035Z AUTO VRB04KT 10SM CLR 29/21 A2984 230 62 1900 VRB/04 RMK AO2 T02890211 $
94728KNYC NYC20250813154011008/13/25 15:40:31  5-MIN KNYC 132040Z AUTO VRB04KT 10SM CLR 29/21 A2984 230 62 1900 VRB/04 RMK AO2 T02890211 $
94728KNYC NYC20250813154511608/13/25 15:45:31  5-MIN KNYC 132045Z AUTO 10SM FEW050 29/21 A2985 230 62 1900 M /M RMK AO2 SLP096 T02890211 58021 $
94728KNYC NYC20250813155011608/13/25 15:50:31  5-MIN KNYC 132050Z AUTO 10SM SCT050 29/21 A2985 230 60 1900 M /M RMK AO2 SLP097 T02890206 58021 $
94728KNYC NYC20250813155511308/13/25 15:55:31  5-MIN KNYC 132055Z AUTO VRB03KT 10SM SCT050 29/21 A2984 230 62 1900 VRB/03 RMK AO2 T02890211 $
94728KNYC NYC20250813160012108/13/25 16:00:31  5-MIN KNYC 132100Z AUTO 10SM -RA BKN055 28/21 A2984 230 64 1900 M /M RMK AO2 RAB2057 P0000 T02830211 $
94728KNYC NYC20250813160513808/13/25 16:05:31  5-MIN KNYC 132105Z AUTO 14004KT 10SM -RA BKN055 BKN070 28/21 A2984 230 64 1900 150/04 RMK AO2 RAB2057 P0000 T02830211 $
94728KNYC NYC20250813161013508/13/25 16:10:31  5-MIN KNYC 132110Z AUTO 10SM -RA BKN055 BKN070 OVC100 28/21 A2984 230 64 1900 M /M RMK AO2 RAB2057 P0000 T02830211 $
94728KNYC NYC20250813161514508/13/25 16:15:31  5-MIN KNYC 132115Z AUTO 00000KT 10SM -RA BKN055 BKN070 OVC100 28/22 A2984 230 69 1800 000/00 RMK AO2 RAB2057 P0000 T02780217 $
94728KNYC NYC20250813162013408/13/25 16:20:31  5-MIN KNYC 132120Z AUTO 9SM -RA SCT060 BKN070 OVC095 27/22 A2984 230 74 1700 M /M RMK AO2 RAB2057 P0000 T02720222 $
94728KNYC NYC20250813162514408/13/25 16:25:31  5-MIN KNYC 132125Z AUTO 16004KT 7SM -RA FEW060 SCT070 OVC095 27/22 A2985 230 76 1700 180/04 RMK AO2 RAB2057 P0000 T02670222 $
94728KNYC NYC20250813163013708/13/25 16:30:31  5-MIN KNYC 132130Z AUTO 00000KT 7SM -RA FEW065 OVC095 27/22 A2985 220 76 1700 000/00 RMK AO2 RAB2057 P0000 T02670222 $
94728KNYC NYC20250813163513708/13/25 16:35:31  5-MIN KNYC 132135Z AUTO 00000KT 7SM -RA FEW065 OVC090 26/22 A2985 220 79 1600 000/00 RMK AO2 RAB2057 P0000 T02610222 $
94728KNYC NYC20250813164014408/13/25 16:40:31  5-MIN KNYC 132140Z AUTO 00000KT 6SM -RA FEW055 FEW070 OVC090 26/23 A2986 210 81 1600 000/00 RMK AO2 RAB2057 P0000 T02610228 $
94728KNYC NYC20250813164515808/13/25 16:45:31  5-MIN KNYC 132145Z AUTO 00000KT 5SM -RA FEW055 SCT070 OVC090 26/23 A2987 210 84 1500 000/00 RMK AO2 RAB2057 PRESRR SLP103 P0000 T02560228 $
94728KNYC NYC20250813165015808/13/25 16:50:31  5-MIN KNYC 132150Z AUTO 00000KT 6SM -RA FEW050 SCT070 OVC090 26/23 A2987 200 84 1500 000/00 RMK AO2 RAB2057 PRESRR SLP105 P0001 T02560228 $
94728KNYC NYC20250813165513608/13/25 16:55:31  5-MIN KNYC 132155Z AUTO 00000KT 6SM -RA SCT049 SCT075 OVC090 26/23 A2988 200 84 1500 000/00 RMK AO2 P0000 T02560228 $
94728KNYC NYC20250813170013608/13/25 17:00:31  5-MIN KNYC 132200Z AUTO 00000KT 6SM -RA FEW049 BKN080 OVC110 26/23 A2988 200 84 1500 000/00 RMK AO2 P0000 T02560228 $
94728KNYC NYC20250813170513908/13/25 17:05:31  5-MIN KNYC 132205Z AUTO 00000KT 5SM -RA BR FEW049 SCT075 OVC110 26/23 A2987 200 87 1500 000/00 RMK AO2 P0000 T02560233 $
94728KNYC NYC20250813171013908/13/25 17:10:31  5-MIN KNYC 132210Z AUTO 00000KT 5SM -RA BR FEW049 SCT080 OVC110 26/23 A2987 210 87 1500 000/00 RMK AO2 P0001 T02560233 $
94728KNYC NYC20250813171513908/13/25 17:15:31  5-MIN KNYC 132215Z AUTO VRB03KT 4SM -RA BR FEW049 FEW080 BKN110 26/23 A2986 210 87 1500 VRB/03 RMK AO2 P0001 T02560233 $
94728KNYC NYC20250813172013208/13/25 17:20:31  5-MIN KNYC 132220Z AUTO 00000KT 4SM -RA BR FEW046 BKN110 26/23 A2986 210 87 1500 000/00 RMK AO2 P0001 T02560233 $
94728KNYC NYC20250813172512508/13/25 17:25:31  5-MIN KNYC 132225Z AUTO VRB04KT 4SM -RA BR BKN110 26/23 A2986 210 87 1500 VRB/04 RMK AO2 P0002 T02560233 $
94728KNYC NYC20250813173012508/13/25 17:30:31  5-MIN KNYC 132230Z AUTO VRB03KT 3SM -RA BR BKN110 25/23 A2986 210 90 1500 VRB/03 RMK AO2 P0002 T02500233 $
94728KNYC NYC20250813173512508/13/25 17:35:31  5-MIN KNYC 132235Z AUTO 14004KT 4SM -RA BR BKN110 25/23 A2987 210 90 1500 150/04 RMK AO2 P0002 T02500233 $
94728KNYC NYC20250813174012508/13/25 17:40:31  5-MIN KNYC 132240Z AUTO 00000KT 5SM -RA BR BKN110 25/23 A2986 210 90 1500 000/00 RMK AO2 P0003 T02500233 $
94728KNYC NYC20250813174513208/13/25 17:45:31  5-MIN KNYC 132245Z AUTO VRB03KT 5SM -RA BR OVC110 25/23 A2987 210 90 1500 VRB/03 RMK AO2 SLP103 P0003 T02500233 $
94728KNYC NYC20250813175013208/13/25 17:50:31  5-MIN KNYC 132250Z AUTO 14003KT 5SM -RA BR OVC100 25/23 A2987 210 90 1500 160/03 RMK AO2 SLP103 P0003 T02500233 $
94728KNYC NYC20250813175513908/13/25 17:55:31  5-MIN KNYC 132255Z AUTO 19003KT 5SM -RA BR FEW047 FEW070 OVC100 25/23 A2988 190 90 1400 200/03 RMK AO2 P0001 T02500233 $
94728KNYC NYC20250813180014008/13/25 18:00:31  5-MIN KNYC 132300Z AUTO 1 1/2SM -RA BR FEW029 SCT048 OVC100 24/23 A2989 180 93 1400 M /M RMK AO2 PRESRR P0001 T02440233 $
94728KNYC NYC20250813180517008/13/25 18:05:31  5-MIN KNYC 132305Z AUTO 26007G18KT 210V350 1/2SM +RA FG SCT029 BKN048 OVC100 23/21 A2990 170 90 1200 270/07G18 220V360 RMK AO2 PRESRR P0011 T02280211 $
94728KNYC NYC20250813181013108/13/25 18:10:31  5-MIN KNYC 132310Z AUTO 1/2SM +RA FG BKN029 BKN048 OVC100 22/20 A2989 180 90 1000 M /M RMK AO2 P0025 T02170200 $
94728KNYC NYC20250813181514108/13/25 18:15:31  5-MIN KNYC 132315Z AUTO VRB03KT 3/4SM +RA BR BKN033 BKN048 OVC100 22/20 A2988 190 90 1100 VRB/03 RMK AO2 P0034 T02170200 $
94728KNYC NYC20250813182013908/13/25 18:20:31  5-MIN KNYC 132320Z AUTO 00000KT 1SM +RA BR BKN035 OVC048 22/20 A2987 200 90 1100 000/00 RMK AO2 PRESFR P0040 T02170200 $
94728KNYC NYC20250813182512508/13/25 18:25:31  5-MIN KNYC 132325Z AUTO 00000KT 1SM +RA BR OVC037 22/20 A2989 190 90 1000 000/00 RMK AO2 P0044 T02170200 $
94728KNYC NYC20250813183013408/13/25 18:30:31  5-MIN KNYC 132330Z AUTO 00000KT 3/4SM +RA BR FEW017 OVC035 22/20 A2988 200 90 1100 000/00 RMK AO2 P0053 T02170200 $
94728KNYC NYC20250813183513408/13/25 18:35:31  5-MIN KNYC 132335Z AUTO 00000KT 1/2SM +RA FG SCT015 OVC033 22/20 A2988 200 90 1100 000/00 RMK AO2 P0059 T02170200 $
94728KNYC NYC20250813184013408/13/25 18:40:31  5-MIN KNYC 132340Z AUTO VRB03KT 3/4SM +RA BR SCT015 OVC035 22/21 A2987 200 93 1100 VRB/03 RMK AO2 P0064 T02170206 $
94728KNYC NYC20250813184512608/13/25 18:45:31  5-MIN KNYC 132345Z AUTO 02004KT 1 1/2SM -RA BR BKN013 OVC035 22/21 A2987 210 90 1100 030/04 RMK AO2 P0067 $
94728KNYC NYC20250813185016308/13/25 18:50:31  5-MIN KNYC 132350Z AUTO 02004KT 4SM -RA BR BKN013 OVC033 22/21 A2987 200 93 1100 030/04 RMK AO2 SLP105 P0067 60071 T02220211 10317 20217 51007 $
94728KNYC NYC20250813185512508/13/25 18:55:31  5-MIN KNYC 132355Z AUTO 05007KT 6SM -RA BR OVC013 22/21 A2987 200 93 1100 070/07 RMK AO2 P0000 T02220211 $
94728KNYC NYC20250813190012208/13/25 19:00:31  5-MIN KNYC 140000Z AUTO 05004KT 7SM -RA OVC013 22/21 A2987 200 93 1100 060/04 RMK AO2 P0000 T02220211 $
94728KNYC NYC20250813190512208/13/25 19:05:31  5-MIN KNYC 140005Z AUTO 04006KT 8SM -RA BKN013 22/21 A2987 210 93 1100 060/06 RMK AO2 P0000 T02220211 $
94728KNYC NYC20250813191012408/13/25 19:10:31  5-MIN KNYC 140010Z AUTO 06004KT 9SM BKN013 22/21 A2988 200 93 1100 070/04 RMK AO2 RAE08 P0000 T02220211 $
94728KNYC NYC20250813191513108/13/25 19:15:31  5-MIN KNYC 140015Z AUTO 05003KT 7SM BKN011 BKN016 22/21 A2988 190 93 1100 070/03 RMK AO2 RAE08 P0000 T02220211 $
94728KNYC NYC20250813192012908/13/25 19:20:31  5-MIN KNYC 140020Z AUTO 05003KT 7SM -RA BKN011 BKN016 22/21 A2988 190 93 1100 060/03 RMK AO2 P0000 T02220211 $
94728KNYC NYC20250813192513208/13/25 19:25:31  5-MIN KNYC 140025Z AUTO 04004KT 6SM -RA BR BKN011 BKN016 22/21 A2988 190 93 1100 060/04 RMK AO2 P0000 T02220211 $
94728KNYC NYC20250813193012508/13/25 19:30:31  5-MIN KNYC 140030Z AUTO 00000KT 6SM -RA BR OVC010 22/21 A2989 190 93 1100 000/00 RMK AO2 P0000 T02220211 $
94728KNYC NYC20250813193512708/13/25 19:35:31  5-MIN KNYC 140035Z AUTO 00000KT 4SM BR OVC010 22/21 A2988 190 93 1100 000/00 RMK AO2 RAE32 P0000 T02220211 $
94728KNYC NYC20250813194012708/13/25 19:40:31  5-MIN KNYC 140040Z AUTO 00000KT 4SM BR BKN010 23/21 A2988 190 90 1200 000/00 RMK AO2 RAE32 P0000 T02280211 $
94728KNYC NYC20250813194513408/13/25 19:45:31  5-MIN KNYC 140045Z AUTO 00000KT 4SM BR BKN010 23/21 A2988 190 90 1200 000/00 RMK AO2 RAE32 SLP109 P0000 T02280211 $
94728KNYC NYC20250813195013408/13/25 19:50:31  5-MIN KNYC 140050Z AUTO 00000KT 4SM BR SCT010 23/21 A2988 190 90 1200 000/00 RMK AO2 RAE32 SLP109 P0000 T02280211 $
94728KNYC NYC20250813195511508/13/25 19:55:31  5-MIN KNYC 140055Z AUTO 00000KT 4SM BR SCT010 23/21 A2989 190 90 1200 000/00 RMK AO2 T02280211 $
94728KNYC NYC20250813200011508/13/25 20:00:31  5-MIN KNYC 140100Z AUTO 00000KT 3SM BR SCT010 23/21 A2989 190 90 1200 000/00 RMK AO2 T02280211 $
94728KNYC NYC20250813200511908/13/25 20:05:31  5-MIN KNYC 140105Z AUTO 00000KT 2 1/2SM BR SCT010 23/21 A2989 190 90 1200 000/00 RMK AO2 T02280211 $
94728KNYC NYC20250813201011908/13/25 20:10:31  5-MIN KNYC 140110Z AUTO 00000KT 2 1/2SM BR SCT010 23/21 A2989 190 90 1200 000/00 RMK AO2 T02280211 $
94728KNYC NYC20250813201512208/13/25 20:15:31  5-MIN KNYC 140115Z AUTO 00000KT 3SM BR FEW011 SCT110 23/21 A2988 190 90 1200 000/00 RMK AO2 T02280211 $
94728KNYC NYC20250813202012208/13/25 20:20:31  5-MIN KNYC 140120Z AUTO 00000KT 5SM BR FEW011 BKN110 23/21 A2989 190 90 1200 000/00 RMK AO2 T02280211 $
94728KNYC NYC20250813202512208/13/25 20:25:31  5-MIN KNYC 140125Z AUTO 00000KT 5SM BR FEW011 SCT110 23/21 A2989 190 90 1200 000/00 RMK AO2 T02280211 $
94728KNYC NYC20250813203012208/13/25 20:30:31  5-MIN KNYC 140130Z AUTO 00000KT 4SM BR FEW011 SCT110 23/21 A2989 190 90 1200 000/00 RMK AO2 T02280211 $
94728KNYC NYC20250813203511508/13/25 20:35:31  5-MIN KNYC 140135Z AUTO VRB03KT 5SM BR SCT110 23/22 A2989 190 93 1200 VRB/03 RMK AO2 T02280217 $
94728KNYC NYC20250813204011508/13/25 20:40:31  5-MIN KNYC 140140Z AUTO 00000KT 5SM BR SCT110 23/22 A2989 190 90 1200 000/00 RMK AO2 T02330217 $
94728KNYC NYC20250813204512908/13/25 20:45:31  5-MIN KNYC 140145Z AUTO 00000KT 4SM BR FEW010 SCT100 23/22 A2989 190 90 1200 000/00 RMK AO2 SLP111 T02330217 $
94728KNYC NYC20250813205012908/13/25 20:50:31  5-MIN KNYC 140150Z AUTO 00000KT 4SM BR FEW010 SCT100 23/22 A2989 190 90 1200 000/00 RMK AO2 SLP111 T02330217 $
94728KNYC NYC20250813205512208/13/25 20:55:31  5-MIN KNYC 140155Z AUTO VRB03KT 5SM BR SCT010 BKN100 23/22 A2989 190 90 1200 VRB/03 RMK AO2 T02330217 $
94728KNYC NYC20250813210012208/13/25 21:00:31  5-MIN KNYC 140200Z AUTO 29003KT 5SM BR BKN010 BKN100 23/22 A2989 190 93 1200 300/03 RMK AO2 T02330222 $
94728KNYC NYC20250813210512208/13/25 21:05:31  5-MIN KNYC 140205Z AUTO 28004KT 6SM BR BKN010 BKN100 23/22 A2989 190 93 1200 300/04 RMK AO2 T02330222 $
94728KNYC NYC20250813211011508/13/25 21:10:31  5-MIN KNYC 140210Z AUTO VRB03KT 6SM BR BKN010 24/22 A2989 190 90 1300 VRB/03 RMK AO2 T02390222 $
94728KNYC NYC20250813211511508/13/25 21:15:31  5-MIN KNYC 140215Z AUTO 00000KT 6SM BR BKN010 24/22 A2989 190 90 1300 000/00 RMK AO2 T02390222 $
94728KNYC NYC20250813212011208/13/25 21:20:31  5-MIN KNYC 140220Z AUTO 00000KT 7SM BKN009 23/22 A2989 190 93 1200 000/00 RMK AO2 T02330222 $
94728KNYC NYC20250813212511208/13/25 21:25:31  5-MIN KNYC 140225Z AUTO 00000KT 8SM BKN009 23/22 A2989 190 93 1200 000/00 RMK AO2 T02330222 $
94728KNYC NYC20250813213011208/13/25 21:30:31  5-MIN KNYC 140230Z AUTO 00000KT 7SM BKN009 23/22 A2989 190 93 1200 000/00 RMK AO2 T02330222 $
94728KNYC NYC20250813213511508/13/25 21:35:31  5-MIN KNYC 140235Z AUTO 00000KT 6SM BR SCT009 23/22 A2989 190 93 1200 000/00 RMK AO2 T02330222 $
94728KNYC NYC20250813214011508/13/25 21:40:31  5-MIN KNYC 140240Z AUTO 00000KT 5SM BR FEW009 23/22 A2989 190 93 1200 000/00 RMK AO2 T02330222 $
94728KNYC NYC20250813214513408/13/25 21:45:31  5-MIN KNYC 140245Z AUTO 00000KT 5SM BR FEW009 23/22 A2989 190 90 1200 000/00 RMK AO2 SLP110 60000 T02330217 55000 $
94728KNYC NYC20250813215013108/13/25 21:50:31  5-MIN KNYC 140250Z AUTO 00000KT 6SM BR CLR 23/22 A2989 190 90 1200 000/00 RMK AO2 SLP110 60000 T02330217 55000 $
94728KNYC NYC20250813215510908/13/25 21:55:31  5-MIN KNYC 140255Z AUTO 00000KT 7SM CLR 23/22 A2989 190 90 1200 000/00 RMK AO2 T02330217 $
94728KNYC NYC20250813220010908/13/25 22:00:31  5-MIN KNYC 140300Z AUTO 00000KT 8SM CLR 23/22 A2989 190 90 1200 000/00 RMK AO2 T02330217 $
94728KNYC NYC20250813220511208/13/25 22:05:31  5-MIN KNYC 140305Z AUTO 00000KT 6SM BR CLR 23/22 A2989 190 90 1200 000/00 RMK AO2 T02330217 $
94728KNYC NYC20250813221011208/13/25 22:10:31  5-MIN KNYC 140310Z AUTO 00000KT 5SM BR CLR 23/22 A2989 190 90 1200 000/00 RMK AO2 T02330217 $
94728KNYC NYC20250813221511208/13/25 22:15:31  5-MIN KNYC 140315Z AUTO 00000KT 5SM BR CLR 23/22 A2989 190 90 1200 000/00 RMK AO2 T02330217 $
94728KNYC NYC20250813222011208/13/25 22:20:31  5-MIN KNYC 140320Z AUTO 00000KT 5SM BR CLR 23/22 A2989 190 90 1200 000/00 RMK AO2 T02330217 $
94728KNYC NYC20250813222511208/13/25 22:25:31  5-MIN KNYC 140325Z AUTO 00000KT 5SM BR CLR 23/22 A2989 190 90 1200 000/00 RMK AO2 T02330217 $
94728KNYC NYC20250813223011208/13/25 22:30:31  5-MIN KNYC 140330Z AUTO 00000KT 4SM BR CLR 23/22 A2989 190 90 1200 000/00 RMK AO2 T02330217 $
94728KNYC NYC20250813223511208/13/25 22:35:31  5-MIN KNYC 140335Z AUTO 00000KT 4SM BR CLR 23/22 A2989 190 90 1200 000/00 RMK AO2 T02330217 $
94728KNYC NYC20250813224011208/13/25 22:40:31  5-MIN KNYC 140340Z AUTO 00000KT 5SM BR CLR 23/22 A2989 190 90 1200 000/00 RMK AO2 T02330217 $
94728KNYC NYC20250813224511908/13/25 22:45:31  5-MIN KNYC 140345Z AUTO 00000KT 5SM BR CLR 23/22 A2989 190 90 1200 000/00 RMK AO2 SLP110 T02330217 $
94728KNYC NYC20250813225011908/13/25 22:50:31  5-MIN KNYC 140350Z AUTO 00000KT 4SM BR CLR 23/22 A2988 190 90 1200 000/00 RMK AO2 SLP110 T02330217 $
94728KNYC NYC20250813225511208/13/25 22:55:31  5-MIN KNYC 140355Z AUTO 00000KT 3SM BR CLR 23/22 A2988 190 90 1200 000/00 RMK AO2 T02330217 $
94728KNYC NYC20250813230011208/13/25 23:00:31  5-MIN KNYC 140400Z AUTO 00000KT 4SM BR CLR 23/22 A2988 190 90 1200 000/00 RMK AO2 T02330217 $
94728KNYC NYC20250813230511208/13/25 23:05:31  5-MIN KNYC 140405Z AUTO 00000KT 4SM BR CLR 23/22 A2988 190 90 1200 000/00 RMK AO2 T02330217 $
94728KNYC NYC20250813231011608/13/25 23:10:31  5-MIN KNYC 140410Z AUTO 00000KT 2 1/2SM BR CLR 23/22 A2988 190 90 1200 000/00 RMK AO2 T02330217 $
94728KNYC NYC20250813231511608/13/25 23:15:31  5-MIN KNYC 140415Z AUTO 00000KT 2 1/2SM BR CLR 23/22 A2989 190 90 1200 000/00 RMK AO2 T02330217 $
94728KNYC NYC20250813232011208/13/25 23:20:31  5-MIN KNYC 140420Z AUTO 00000KT 5SM BR CLR 23/22 A2989 190 90 1200 000/00 RMK AO2 T02330217 $
94728KNYC NYC20250813232511208/13/25 23:25:31  5-MIN KNYC 140425Z AUTO 00000KT 7SM FEW013 23/22 A2989 180 90 1200 000/00 RMK AO2 T02330217 $
94728KNYC NYC20250813233011508/13/25 23:30:31  5-MIN KNYC 140430Z AUTO 00000KT 6SM BR FEW013 23/22 A2989 180 90 1200 000/00 RMK AO2 T02330217 $
94728KNYC NYC20250813233511508/13/25 23:35:31  5-MIN KNYC 140435Z AUTO 00000KT 4SM BR FEW015 23/22 A2989 190 90 1200 000/00 RMK AO2 T02330217 $
94728KNYC NYC20250813234011508/13/25 23:40:31  5-MIN KNYC 140440Z AUTO 00000KT 4SM BR SCT013 23/22 A2989 180 90 1200 000/00 RMK AO2 T02330217 $
94728KNYC NYC20250813234510508/13/25 23:45:31  5-MIN KNYC 140445Z AUTO 30003KT 5SM BR BKN013 23/22 A2989 180 90 1200 320/03 RMK AO2 $
94728KNYC NYC20250813235013208/13/25 23:50:31  5-MIN KNYC 140450Z AUTO 00000KT 5SM BR BKN012 23/22 A2989 180 93 1200 000/00 RMK AO2 SLP113 T02330222 403170217 $
94728KNYC NYC20250813235511508/13/25 23:55:31  5-MIN KNYC 140455Z AUTO 00000KT 5SM BR BKN012 23/22 A2989 180 93 1200 000/00 RMK AO2 T02330222 $
94728KNYC NYC20250814000011508/14/25 00:00:31  5-MIN KNYC 140500Z AUTO 00000KT 3SM BR OVC012 23/22 A2989 190 93 1200 000/00 RMK AO2 T02330222 $
94728KNYC NYC20250814000511508/14/25 00:05:31  5-MIN KNYC 140505Z AUTO 00000KT 3SM BR OVC012 23/22 A2989 190 93 1200 000/00 RMK AO2 T02330222 $
94728KNYC NYC20250814001011508/14/25 00:10:31  5-MIN KNYC 140510Z AUTO 25003KT 4SM BR OVC012 23/22 A2989 190 93 1200 260/03 RMK AO2 T02330222 $
94728KNYC NYC20250814001511508/14/25 00:15:31  5-MIN KNYC 140515Z AUTO 00000KT 4SM BR OVC012 23/22 A2989 190 93 1200 000/00 RMK AO2 T02330222 $
94728KNYC NYC20250814002011508/14/25 00:20:31  5-MIN KNYC 140520Z AUTO VRB03KT 4SM BR BKN014 23/22 A2989 190 93 1200 VRB/03 RMK AO2 T02330222 $
94728KNYC NYC20250814002511508/14/25 00:25:31  5-MIN KNYC 140525Z AUTO 24003KT 4SM BR BKN014 23/22 A2989 190 93 1200 250/03 RMK AO2 T02330222 $
94728KNYC NYC20250814003011508/14/25 00:30:31  5-MIN KNYC 140530Z AUTO 23003KT 3SM BR BKN014 23/22 A2989 190 90 1200 250/03 RMK AO2 T02330217 $
94728KNYC NYC20250814003511508/14/25 00:35:31  5-MIN KNYC 140535Z AUTO 00000KT 3SM BR SCT013 23/22 A2989 190 90 1200 000/00 RMK AO2 T02330217 $
94728KNYC NYC20250814004011508/14/25 00:40:31  5-MIN KNYC 140540Z AUTO 00000KT 5SM BR SCT015 23/22 A2989 190 90 1200 000/00 RMK AO2 T02330217 $
94728KNYC NYC20250814004514608/14/25 00:45:31  5-MIN KNYC 140545Z AUTO 25003KT 5SM BR FEW013 23/22 A2988 190 90 1200 260/03 RMK AO2 SLP109 60000 T02330217 10239 20222 50005 $
94728KNYC NYC20250814005014608/14/25 00:50:31  5-MIN KNYC 140550Z AUTO VRB03KT 5SM BR FEW013 23/22 A2988 190 93 1200 VRB/03 RMK AO2 SLP109 60000 T02280217 10239 20222 50005 $
94728KNYC NYC20250814005511208/14/25 00:55:31  5-MIN KNYC 140555Z AUTO 00000KT 5SM BR CLR 23/22 A2988 200 93 1200 000/00 RMK AO2 T02280217 $
94728KNYC NYC20250814010010908/14/25 01:00:31  5-MIN KNYC 140600Z AUTO 00000KT 7SM CLR 23/21 A2988 200 90 1200 000/00 RMK AO2 T02280211 $
94728KNYC NYC20250814010510908/14/25 01:05:31  5-MIN KNYC 140605Z AUTO 00000KT 7SM CLR 23/21 A2988 200 90 1200 000/00 RMK AO2 T02280211 $
94728KNYC NYC20250814011010908/14/25 01:10:31  5-MIN KNYC 140610Z AUTO 00000KT 8SM CLR 23/21 A2988 200 90 1200 000/00 RMK AO2 T02280211 $
94728KNYC NYC20250814011510908/14/25 01:15:31  5-MIN KNYC 140615Z AUTO 00000KT 8SM CLR 23/21 A2988 200 90 1200 000/00 RMK AO2 T02280211 $
94728KNYC NYC20250814012010908/14/25 01:20:31  5-MIN KNYC 140620Z AUTO 23004KT 8SM CLR 23/21 A2988 200 90 1200 250/04 RMK AO2 T02280211 $
94728KNYC NYC20250814012510908/14/25 01:25:31  5-MIN KNYC 140625Z AUTO 27003KT 7SM CLR 23/21 A2988 200 90 1200 290/03 RMK AO2 T02280211 $
94728KNYC NYC20250814013010908/14/25 01:30:31  5-MIN KNYC 140630Z AUTO VRB04KT 8SM CLR 23/21 A2988 200 90 1200 VRB/04 RMK AO2 T02280211 $
94728KNYC NYC20250814013510908/14/25 01:35:31  5-MIN KNYC 140635Z AUTO 00000KT 9SM CLR 23/21 A2988 200 90 1200 000/00 RMK AO2 T02280211 $
94728KNYC NYC20250814014011008/14/25 01:40:31  5-MIN KNYC 140640Z AUTO 00000KT 10SM CLR 23/21 A2988 200 90 1200 000/00 RMK AO2 T02280211 $
94728KNYC NYC20250814014511608/14/25 01:45:31  5-MIN KNYC 140645Z AUTO 28004KT 9SM CLR 23/21 A2988 200 90 1200 300/04 RMK AO2 SLP106 T02280211 $
94728KNYC NYC20250814015011608/14/25 01:50:31  5-MIN KNYC 140650Z AUTO 25004KT 8SM CLR 23/21 A2988 200 90 1200 270/04 RMK AO2 SLP107 T02280211 $
94728KNYC NYC20250814015510908/14/25 01:55:31  5-MIN KNYC 140655Z AUTO 24003KT 8SM CLR 23/21 A2987 200 90 1200 250/03 RMK AO2 T02280211 $
94728KNYC NYC20250814020010908/14/25 02:00:31  5-MIN KNYC 140700Z AUTO 25004KT 8SM CLR 23/21 A2987 200 90 1200 270/04 RMK AO2 T02280211 $
94728KNYC NYC20250814020511008/14/25 02:05:31  5-MIN KNYC 140705Z AUTO 00000KT 10SM CLR 23/21 A2987 200 90 1200 000/00 RMK AO2 T02280211 $
94728KNYC NYC20250814021011008/14/25 02:10:31  5-MIN KNYC 140710Z AUTO 00000KT 10SM CLR 23/21 A2987 200 90 1200 000/00 RMK AO2 T02280211 $
94728KNYC NYC20250814021511008/14/25 02:15:31  5-MIN KNYC 140715Z AUTO 27003KT 10SM CLR 23/21 A2987 200 90 1200 280/03 RMK AO2 T02280211 $
94728KNYC NYC20250814022011008/14/25 02:20:31  5-MIN KNYC 140720Z AUTO 29003KT 10SM CLR 23/21 A2987 200 90 1200 300/03 RMK AO2 T02280211 $
94728KNYC NYC20250814022510908/14/25 02:25:31  5-MIN KNYC 140725Z AUTO VRB03KT 9SM CLR 23/21 A2987 200 90 1200 VRB/03 RMK AO2 T02280211 $
94728KNYC NYC20250814023010908/14/25 02:30:31  5-MIN KNYC 140730Z AUTO VRB04KT 9SM CLR 23/21 A2987 200 90 1200 VRB/04 RMK AO2 T02280211 $
94728KNYC NYC20250814023510908/14/25 02:35:31  5-MIN KNYC 140735Z AUTO VRB04KT 9SM CLR 23/21 A2987 200 90 1200 VRB/04 RMK AO2 T02280211 $
94728KNYC NYC20250814024010908/14/25 02:40:31  5-MIN KNYC 140740Z AUTO VRB04KT 9SM CLR 23/21 A2987 200 90 1200 VRB/04 RMK AO2 T02280211 $
94728KNYC NYC20250814024511608/14/25 02:45:31  5-MIN KNYC 140745Z AUTO VRB03KT 8SM CLR 23/21 A2987 200 90 1200 VRB/03 RMK AO2 SLP106 T02280211 $
94728KNYC NYC20250814025011608/14/25 02:50:31  5-MIN KNYC 140750Z AUTO 00000KT 9SM CLR 23/21 A2987 200 90 1200 000/00 RMK AO2 SLP106 T02280211 $
94728KNYC NYC20250814025511008/14/25 02:55:31  5-MIN KNYC 140755Z AUTO 00000KT 10SM CLR 23/21 A2987 200 90 1200 000/00 RMK AO2 T02280211 $
94728KNYC NYC20250814030011008/14/25 03:00:31  5-MIN KNYC 140800Z AUTO 00000KT 10SM CLR 23/21 A2987 200 90 1200 000/00 RMK AO2 T02280211 $
94728KNYC NYC20250814030511008/14/25 03:05:31  5-MIN KNYC 140805Z AUTO VRB03KT 10SM CLR 23/21 A2987 200 90 1200 VRB/03 RMK AO2 T02280211 $
94728KNYC NYC20250814031011008/14/25 03:10:31  5-MIN KNYC 140810Z AUTO 00000KT 10SM CLR 23/21 A2987 210 90 1200 000/00 RMK AO2 T02280211 $
94728KNYC NYC20250814031510908/14/25 03:15:31  5-MIN KNYC 140815Z AUTO 00000KT 9SM CLR 23/21 A2987 210 90 1200 000/00 RMK AO2 T02280211 $
94728KNYC NYC20250814032010908/14/25 03:20:31  5-MIN KNYC 140820Z AUTO 26003KT 8SM CLR 23/21 A2987 210 90 1200 270/03 RMK AO2 T02280211 $
94728KNYC NYC20250814032510908/14/25 03:25:31  5-MIN KNYC 140825Z AUTO 00000KT 8SM CLR 23/21 A2987 210 90 1200 000/00 RMK AO2 T02280211 $
94728KNYC NYC20250814033010908/14/25 03:30:31  5-MIN KNYC 140830Z AUTO 00000KT 9SM CLR 23/21 A2987 210 90 1200 000/00 RMK AO2 T02280211 $
94728KNYC NYC20250814033511008/14/25 03:35:31  5-MIN KNYC 140835Z AUTO 00000KT 10SM CLR 23/21 A2987 210 90 1200 000/00 RMK AO2 T02280211 $
94728KNYC NYC20250814034010908/14/25 03:40:31  5-MIN KNYC 140840Z AUTO 00000KT 9SM CLR 23/21 A2987 200 90 1200 000/00 RMK AO2 T02280211 $
94728KNYC NYC20250814034512208/14/25 03:45:31  5-MIN KNYC 140845Z AUTO 00000KT 8SM CLR 23/21 A2987 200 90 1200 000/00 RMK AO2 SLP106 T02280211 58001 $
94728KNYC NYC20250814035012208/14/25 03:50:31  5-MIN KNYC 140850Z AUTO 00000KT 8SM CLR 23/21 A2987 200 90 1200 000/00 RMK AO2 SLP106 T02280211 58001 $
94728KNYC NYC20250814035510908/14/25 03:55:31  5-MIN KNYC 140855Z AUTO 22003KT 9SM CLR 23/21 A2987 200 90 1200 240/03 RMK AO2 T02280211 $
94728KNYC NYC20250814040010908/14/25 04:00:31  5-MIN KNYC 140900Z AUTO 00000KT 8SM CLR 23/21 A2988 200 90 1200 000/00 RMK AO2 T02280211 $
94728KNYC NYC20250814040510908/14/25 04:05:31  5-MIN KNYC 140905Z AUTO 00000KT 8SM CLR 23/21 A2988 200 90 1200 000/00 RMK AO2 T02280211 $
94728KNYC NYC20250814041011308/14/25 04:10:31  5-MIN KNYC 140910Z AUTO VRB03KT 10SM SCT110 23/21 A2988 200 90 1200 VRB/03 RMK AO2 T02280211 $
94728KNYC NYC20250814041512008/14/25 04:15:31  5-MIN KNYC 140915Z AUTO 00000KT 10SM FEW060 BKN110 23/21 A2988 190 90 1200 000/00 RMK AO2 T02280211 $
94728KNYC NYC20250814042011908/14/25 04:20:31  5-MIN KNYC 140920Z AUTO 00000KT 9SM SCT060 SCT110 23/21 A2988 190 90 1200 000/00 RMK AO2 T02280211 $
94728KNYC NYC20250814042511908/14/25 04:25:31  5-MIN KNYC 140925Z AUTO 00000KT 9SM SCT060 SCT110 23/21 A2988 190 90 1200 000/00 RMK AO2 T02280211 $
94728KNYC NYC20250814043011908/14/25 04:30:31  5-MIN KNYC 140930Z AUTO 00000KT 9SM SCT060 SCT110 23/21 A2988 190 90 1200 000/00 RMK AO2 T02280211 $
94728KNYC NYC20250814043511908/14/25 04:35:31  5-MIN KNYC 140935Z AUTO 00000KT 9SM SCT060 SCT110 23/21 A2988 190 90 1200 000/00 RMK AO2 T02280211 $
94728KNYC NYC20250814044011208/14/25 04:40:31  5-MIN KNYC 140940Z AUTO 00000KT 9SM SCT060 23/21 A2988 190 90 1200 000/00 RMK AO2 T02280211 $
94728KNYC NYC20250814044511908/14/25 04:45:31  5-MIN KNYC 140945Z AUTO 00000KT 9SM BKN060 23/21 A2989 190 90 1200 000/00 RMK AO2 SLP111 T02280211 $
94728KNYC NYC20250814045011908/14/25 04:50:31  5-MIN KNYC 140950Z AUTO 00000KT 9SM SCT060 23/21 A2989 190 90 1200 000/00 RMK AO2 SLP111 T02280211 $
94728KNYC NYC20250814045511208/14/25 04:55:31  5-MIN KNYC 140955Z AUTO 28003KT 9SM SCT060 23/21 A2989 190 87 1200 300/03 RMK AO2 T02280206 $
94728KNYC NYC20250814050011208/14/25 05:00:31  5-MIN KNYC 141000Z AUTO 00000KT 9SM SCT060 23/21 A2989 180 87 1200 000/00 RMK AO2 T02280206 $
94728KNYC NYC20250814050511208/14/25 05:05:31  5-MIN KNYC 141005Z AUTO 00000KT 9SM SCT060 23/21 A2989 180 90 1200 000/00 RMK AO2 T02280211 $
94728KNYC NYC20250814051011208/14/25 05:10:31  5-MIN KNYC 141010Z AUTO 00000KT 9SM FEW060 23/21 A2989 180 90 1200 000/00 RMK AO2 T02280211 $
94728KNYC NYC20250814051511308/14/25 05:15:31  5-MIN KNYC 141015Z AUTO 00000KT 10SM FEW060 23/21 A2990 180 90 1200 000/00 RMK AO2 T02280211 $
94728KNYC NYC20250814052011308/14/25 05:20:31  5-MIN KNYC 141020Z AUTO 00000KT 10SM FEW060 23/21 A2990 180 90 1200 000/00 RMK AO2 T02280211 $
94728KNYC NYC20250814052511208/14/25 05:25:31  5-MIN KNYC 141025Z AUTO 26003KT 9SM FEW060 23/21 A2990 180 90 1200 270/03 RMK AO2 T02280211 $
94728KNYC NYC20250814053010908/14/25 05:30:31  5-MIN KNYC 141030Z AUTO 26003KT 8SM CLR 23/21 A2990 180 90 1200 270/03 RMK AO2 T02280211 $
94728KNYC NYC20250814053510908/14/25 05:35:31  5-MIN KNYC 141035Z AUTO 00000KT 8SM CLR 23/21 A2990 180 90 1200 000/00 RMK AO2 T02280211 $
94728KNYC NYC20250814054010908/14/25 05:40:31  5-MIN KNYC 141040Z AUTO 00000KT 8SM CLR 23/21 A2990 180 90 1200 000/00 RMK AO2 T02280211 $
94728KNYC NYC20250814054511608/14/25 05:45:31  5-MIN KNYC 141045Z AUTO 00000KT 9SM CLR 23/21 A2990 180 90 1200 000/00 RMK AO2 SLP114 T02280211 $
94728KNYC NYC20250814055011608/14/25 05:50:31  5-MIN KNYC 141050Z AUTO 00000KT 8SM CLR 23/21 A2990 180 90 1200 000/00 RMK AO2 SLP115 T02280211 $
94728KNYC NYC20250814055510908/14/25 05:55:31  5-MIN KNYC 141055Z AUTO 00000KT 7SM CLR 23/21 A2990 170 87 1200 000/00 RMK AO2 T02330211 $
94728KNYC NYC20250814060010908/14/25 06:00:31  5-MIN KNYC 141100Z AUTO 00000KT 7SM CLR 23/21 A2991 170 87 1200 000/00 RMK AO2 T02330211 $
94728KNYC NYC20250814060510908/14/25 06:05:31  5-MIN KNYC 141105Z AUTO 00000KT 8SM CLR 23/21 A2991 170 87 1200 000/00 RMK AO2 T02330211 $
94728KNYC NYC20250814061010908/14/25 06:10:31  5-MIN KNYC 141110Z AUTO 26003KT 9SM CLR 23/22 A2991 170 90 1200 280/03 RMK AO2 T02330217 $
94728KNYC NYC20250814061510908/14/25 06:15:31  5-MIN KNYC 141115Z AUTO 29003KT 8SM CLR 23/22 A2991 170 90 1200 310/03 RMK AO2 T02330217 $
94728KNYC NYC20250814062010908/14/25 06:20:31  5-MIN KNYC 141120Z AUTO 00000KT 8SM CLR 23/22 A2991 170 90 1200 000/00 RMK AO2 T02330217 $
94728KNYC NYC20250814062511308/14/25 06:25:31  5-MIN KNYC 141125Z AUTO 00000KT 10SM FEW011 23/21 A2991 160 87 1200 000/00 RMK AO2 T02330211 $
94728KNYC NYC20250814063012008/14/25 06:30:31  5-MIN KNYC 141130Z AUTO 00000KT 10SM FEW011 FEW060 24/22 A2992 160 87 1300 000/00 RMK AO2 T02390217 $
94728KNYC NYC20250814063511308/14/25 06:35:31  5-MIN KNYC 141135Z AUTO 00000KT 10SM FEW060 24/22 A2992 160 87 1300 000/00 RMK AO2 T02390217 $
94728KNYC NYC20250814064012008/14/25 06:40:31  5-MIN KNYC 141140Z AUTO 00000KT 10SM FEW011 FEW060 24/21 A2992 160 84 1300 000/00 RMK AO2 T02390211 $
94728KNYC NYC20250814064515008/14/25 06:45:31  5-MIN KNYC 141145Z AUTO 00000KT 9SM FEW011 FEW060 24/22 A2992 160 87 1300 000/00 RMK AO2 SLP121 70071 T02390217 10239 20228 55002 $
94728KNYC NYC20250814065015008/14/25 06:50:31  5-MIN KNYC 141150Z AUTO 00000KT 8SM FEW011 FEW060 24/22 A2992 160 87 1300 000/00 RMK AO2 SLP120 70071 T02390217 10239 20228 55002 $
94728KNYC NYC20250814065511208/14/25 06:55:31  5-MIN KNYC 141155Z AUTO 00000KT 8SM FEW011 24/22 A2992 160 87 1300 000/00 RMK AO2 T02390217 $
94728KNYC NYC20250814070011208/14/25 07:00:31  5-MIN KNYC 141200Z AUTO 00000KT 8SM FEW011 24/22 A2992 160 87 1300 000/00 RMK AO2 T02390217 $
94728KNYC NYC20250814070510908/14/25 07:05:31  5-MIN KNYC 141205Z AUTO 00000KT 9SM CLR 24/22 A2992 160 87 1300 000/00 RMK AO2 T02390217 $
94728KNYC NYC20250814071010908/14/25 07:10:31  5-MIN KNYC 141210Z AUTO 00000KT 9SM CLR 24/22 A2992 160 87 1300 000/00 RMK AO2 T02390217 $
94728KNYC NYC20250814071510908/14/25 07:15:31  5-MIN KNYC 141215Z AUTO 00000KT 9SM CLR 24/22 A2992 160 87 1300 000/00 RMK AO2 T02390217 $
94728KNYC NYC20250814072011008/14/25 07:20:31  5-MIN KNYC 141220Z AUTO 00000KT 10SM CLR 24/22 A2992 150 87 1300 000/00 RMK AO2 T02390217 $
94728KNYC NYC20250814072511008/14/25 07:25:31  5-MIN KNYC 141225Z AUTO 00000KT 10SM CLR 24/21 A2992 160 81 1300 000/00 RMK AO2 T02440211 $
94728KNYC NYC20250814073011008/14/25 07:30:31  5-MIN KNYC 141230Z AUTO 00000KT 10SM CLR 24/21 A2993 150 81 1300 000/00 RMK AO2 T02440211 $
94728KNYC NYC20250814073511008/14/25 07:35:31  5-MIN KNYC 141235Z AUTO 00000KT 10SM CLR 24/21 A2993 150 81 1300 000/00 RMK AO2 T02440211 $
94728KNYC NYC20250814074011308/14/25 07:40:31  5-MIN KNYC 141240Z AUTO 00000KT 10SM FEW013 24/22 A2993 150 84 1300 000/00 RMK AO2 T02440217 $
94728KNYC NYC20250814074512008/14/25 07:45:31  5-MIN KNYC 141245Z AUTO 00000KT 10SM FEW013 24/22 A2993 150 84 1300 000/00 RMK AO2 SLP124 T02440217 $
94728KNYC NYC20250814075011708/14/25 07:50:31  5-MIN KNYC 141250Z AUTO 00000KT 10SM CLR 24/22 A2993 150 84 1300 000/00 RMK AO2 SLP124 T02440217 $
94728KNYC NYC20250814075511008/14/25 07:55:31  5-MIN KNYC 141255Z AUTO 00000KT 10SM CLR 24/22 A2993 150 84 1300 000/00 RMK AO2 T02440217 $
94728KNYC NYC20250814080011008/14/25 08:00:31  5-MIN KNYC 141300Z AUTO 00000KT 10SM CLR 25/21 A2993 150 79 1400 000/00 RMK AO2 T02500211 $
94728KNYC NYC20250814080511308/14/25 08:05:31  5-MIN KNYC 141305Z AUTO 06003KT 10SM FEW013 25/22 A2993 150 81 1400 070/03 RMK AO2 T02500217 $
94728KNYC NYC20250814081011308/14/25 08:10:31  5-MIN KNYC 141310Z AUTO 02003KT 10SM FEW013 25/22 A2993 150 81 1400 030/03 RMK AO2 T02500217 $
94728KNYC NYC20250814081511008/14/25 08:15:31  5-MIN KNYC 141315Z AUTO 04003KT 10SM CLR 26/21 A2993 150 76 1400 060/03 RMK AO2 T02560211 $
94728KNYC NYC20250814082011308/14/25 08:20:31  5-MIN KNYC 141320Z AUTO 00000KT 10SM FEW013 26/21 A2993 150 76 1400 000/00 RMK AO2 T02560211 $
94728KNYC NYC20250814082511308/14/25 08:25:31  5-MIN KNYC 141325Z AUTO 00000KT 10SM FEW013 25/21 A2993 150 79 1400 000/00 RMK AO2 T02500211 $
94728KNYC NYC20250814083011308/14/25 08:30:31  5-MIN KNYC 141330Z AUTO 00000KT 10SM FEW013 25/21 A2993 150 79 1400 000/00 RMK AO2 T02500211 $
94728KNYC NYC20250814083511008/14/25 08:35:31  5-MIN KNYC 141335Z AUTO 01003KT 10SM CLR 25/22 A2993 150 81 1400 030/03 RMK AO2 T02500217 $
94728KNYC NYC20250814084010808/14/25 08:40:31  5-MIN KNYC 141340Z AUTO 36004KT 10SM CLR 25/22 A2993 150 81 1400 010/04 RMK AO2 T02500217
94728KNYC NYC20250814084511508/14/25 08:45:31  5-MIN KNYC 141345Z AUTO VRB03KT 10SM CLR 26/21 A2993 140 76 1400 VRB/03 RMK AO2 SLP127 T02560211
94728KNYC NYC20250814085011508/14/25 08:50:31  5-MIN KNYC 141350Z AUTO VRB03KT 10SM CLR 26/21 A2994 140 76 1400 VRB/03 RMK AO2 SLP127 T02560211
94728KNYC NYC20250814085510808/14/25 08:55:31  5-MIN KNYC 141355Z AUTO 00000KT 10SM CLR 26/21 A2994 140 76 1400 000/00 RMK AO2 T02560211
94728KNYC NYC20250814090010808/14/25 09:00:31  5-MIN KNYC 141400Z AUTO 00000KT 10SM CLR 26/22 A2994 140 79 1400 000/00 RMK AO2 T02560217
94728KNYC NYC20250814090510808/14/25 09:05:31  5-MIN KNYC 141405Z AUTO 00000KT 10SM CLR 25/22 A2994 140 81 1400 000/00 RMK AO2 T02500217
94728KNYC NYC20250814091010808/14/25 09:10:31  5-MIN KNYC 141410Z AUTO 05003KT 10SM CLR 26/22 A2994 140 79 1400 060/03 RMK AO2 T02560217
94728KNYC NYC20250814091510808/14/25 09:15:31  5-MIN KNYC 141415Z AUTO VRB04KT 10SM CLR 26/22 A2994 140 79 1400 VRB/04 RMK AO2 T02560217
94728KNYC NYC20250814092010808/14/25 09:20:31  5-MIN KNYC 141420Z AUTO VRB03KT 10SM CLR 26/22 A2994 140 76 1500 VRB/03 RMK AO2 T02610217
94728KNYC NYC20250814092510808/14/25 09:25:31  5-MIN KNYC 141425Z AUTO VRB04KT 10SM CLR 26/22 A2994 140 76 1500 VRB/04 RMK AO2 T02610217
94728KNYC NYC20250814093010808/14/25 09:30:31  5-MIN KNYC 141430Z AUTO VRB03KT 10SM CLR 26/22 A2994 140 76 1500 VRB/03 RMK AO2 T02610217
94728KNYC NYC20250814093510808/14/25 09:35:31  5-MIN KNYC 141435Z AUTO 06003KT 10SM CLR 26/22 A2994 140 76 1500 080/03 RMK AO2 T02610217
94728KNYC NYC20250814094010808/14/25 09:40:31  5-MIN KNYC 141440Z AUTO 00000KT 10SM CLR 26/22 A2995 130 76 1500 000/00 RMK AO2 T02610217
94728KNYC NYC20250814094512108/14/25 09:45:31  5-MIN KNYC 141445Z AUTO 04003KT 10SM CLR 26/21 A2995 130 73 1500 050/03 RMK AO2 SLP131 T02610211 51014
94728KNYC NYC20250814095012108/14/25 09:50:31  5-MIN KNYC 141450Z AUTO VRB03KT 10SM CLR 26/22 A2995 130 76 1500 VRB/03 RMK AO2 SLP131 T02610217 51014
94728KNYC NYC20250814095510808/14/25 09:55:31  5-MIN KNYC 141455Z AUTO VRB03KT 10SM CLR 26/22 A2995 130 76 1500 VRB/03 RMK AO2 T02610217
94728KNYC NYC20250814100010808/14/25 10:00:31  5-MIN KNYC 141500Z AUTO 34004KT 10SM CLR 26/22 A2995 130 76 1500 350/04 RMK AO2 T02610217
94728KNYC NYC20250814100510808/14/25 10:05:31  5-MIN KNYC 141505Z AUTO VRB03KT 10SM CLR 26/21 A2995 130 73 1500 VRB/03 RMK AO2 T02610211
94728KNYC NYC20250814101010808/14/25 10:10:31  5-MIN KNYC 141510Z AUTO VRB03KT 10SM CLR 26/21 A2995 130 73 1500 VRB/03 RMK AO2 T02610211
94728KNYC NYC20250814101510808/14/25 10:15:31  5-MIN KNYC 141515Z AUTO 03004KT 10SM CLR 27/21 A2995 130 71 1500 040/04 RMK AO2 T02670211
94728KNYC NYC20250814102011108/14/25 10:20:31  5-MIN KNYC 141520Z AUTO 00000KT 10SM SCT100 27/21 A2995 130 71 1500 000/00 RMK AO2 T02670211
94728KNYC NYC20250814102511108/14/25 10:25:31  5-MIN KNYC 141525Z AUTO VRB04KT 10SM SCT100 27/21 A2995 130 71 1500 VRB/04 RMK AO2 T02670211
94728KNYC NYC20250814103011108/14/25 10:30:31  5-MIN KNYC 141530Z AUTO VRB03KT 10SM BKN100 27/21 A2995 130 71 1500 VRB/03 RMK AO2 T02670211
94728KNYC NYC20250814103511108/14/25 10:35:31  5-MIN KNYC 141535Z AUTO 07003KT 10SM BKN100 27/21 A2996 130 66 1600 080/03 RMK AO2 T02720206
94728KNYC NYC20250814104011108/14/25 10:40:31  5-MIN KNYC 141540Z AUTO 00000KT 10SM BKN100 27/21 A2996 130 69 1600 000/00 RMK AO2 T02720211
94728KNYC NYC20250814104511808/14/25 10:45:31  5-MIN KNYC 141545Z AUTO 02003KT 10SM SCT100 28/21 A2996 130 66 1700 030/03 RMK AO2 SLP134 T02780211
94728KNYC NYC20250814105011808/14/25 10:50:31  5-MIN KNYC 141550Z AUTO 06003KT 10SM SCT100 28/21 A2995 130 64 1700 070/03 RMK AO2 SLP133 T02830211
94728KNYC NYC20250814105511108/14/25 10:55:31  5-MIN KNYC 141555Z AUTO 00000KT 10SM FEW100 28/21 A2995 130 64 1700 000/00 RMK AO2 T02780206
94728KNYC NYC20250814110011108/14/25 11:00:31  5-MIN KNYC 141600Z AUTO 08003KT 10SM FEW100 28/21 A2995 130 64 1700 090/03 RMK AO2 T02780206
94728KNYC NYC20250814110510808/14/25 11:05:31  5-MIN KNYC 141605Z AUTO 00000KT 10SM CLR 28/21 A2995 130 64 1700 000/00 RMK AO2 T02780206
94728KNYC NYC20250814111010808/14/25 11:10:31  5-MIN KNYC 141610Z AUTO 00000KT 10SM CLR 28/21 A2995 130 64 1700 000/00 RMK AO2 T02830211
94728KNYC NYC20250814111510808/14/25 11:15:31  5-MIN KNYC 141615Z AUTO 05006KT 10SM CLR 29/21 A2995 130 62 1800 060/06 RMK AO2 T02890211
94728KNYC NYC20250814112010808/14/25 11:20:31  5-MIN KNYC 141620Z AUTO 07003KT 10SM CLR 29/21 A2995 130 60 1800 080/03 RMK AO2 T02890206
94728KNYC NYC20250814112510808/14/25 11:25:31  5-MIN KNYC 141625Z AUTO 00000KT 10SM CLR 28/21 A2995 130 64 1700 000/00 RMK AO2 T02830211
94728KNYC NYC20250814113010808/14/25 11:30:31  5-MIN KNYC 141630Z AUTO 07003KT 10SM CLR 29/21 A2995 130 60 1800 080/03 RMK AO2 T02890206
94728KNYC NYC20250814113510808/14/25 11:35:31  5-MIN KNYC 141635Z AUTO 00000KT 10SM CLR 29/21 A2995 130 60 1800 000/00 RMK AO2 T02890206
94728KNYC NYC20250814114010808/14/25 11:40:31  5-MIN KNYC 141640Z AUTO 05004KT 10SM CLR 28/20 A2995 130 60 1700 060/04 RMK AO2 T02830200
94728KNYC NYC20250814114511508/14/25 11:45:31  5-MIN KNYC 141645Z AUTO 07004KT 10SM CLR 28/21 A2995 130 62 1700 080/04 RMK AO2 SLP131 T02830206
94728KNYC NYC20250814115011508/14/25 11:50:31  5-MIN KNYC 141650Z AUTO 05004KT 10SM CLR 28/21 A2995 130 62 1700 070/04 RMK AO2 SLP131 T02830206
94728KNYC NYC20250814115510808/14/25 11:55:31  5-MIN KNYC 141655Z AUTO 07004KT 10SM CLR 29/21 A2995 130 60 1800 080/04 RMK AO2 T02890206
94728KNYC NYC20250814120010808/14/25 12:00:31  5-MIN KNYC 141700Z AUTO VRB04KT 10SM CLR 29/21 A2995 130 58 1900 VRB/04 RMK AO2 T02940206
94728KNYC NYC20250814120510808/14/25 12:05:31  5-MIN KNYC 141705Z AUTO 05005KT 10SM CLR 31/21 A2995 130 56 2000 070/05 RMK AO2 T03060211
94728KNYC NYC20250814121010808/14/25 12:10:31  5-MIN KNYC 141710Z AUTO 06006KT 10SM CLR 30/21 A2995 130 56 1900 070/06 RMK AO2 T03000206
94728KNYC NYC20250814121510808/14/25 12:15:31  5-MIN KNYC 141715Z AUTO VRB03KT 10SM CLR 29/21 A2995 130 58 1900 VRB/03 RMK AO2 T02940206
94728KNYC NYC20250814122010808/14/25 12:20:31  5-MIN KNYC 141720Z AUTO 07004KT 10SM CLR 29/21 A2995 130 58 1900 080/04 RMK AO2 T02940206
94728KNYC NYC20250814122510808/14/25 12:25:31  5-MIN KNYC 141725Z AUTO 00000KT 10SM CLR 30/21 A2995 130 56 1900 000/00 RMK AO2 T03000206
94728KNYC NYC20250814123010808/14/25 12:30:31  5-MIN KNYC 141730Z AUTO 07004KT 10SM CLR 30/20 A2995 130 54 1900 080/04 RMK AO2 T03000200
94728KNYC NYC20250814123510808/14/25 12:35:31  5-MIN KNYC 141735Z AUTO VRB05KT 10SM CLR 31/20 A2995 130 52 2000 VRB/05 RMK AO2 T03060200
94728KNYC NYC20250814124010808/14/25 12:40:31  5-MIN KNYC 141740Z AUTO 05005KT 10SM CLR 32/19 A2995 130 47 2100 060/05 RMK AO2 T03170194
94728KNYC NYC20250814124513308/14/25 12:45:31  5-MIN KNYC 141745Z AUTO 08004KT 10SM CLR 31/19 A2995 130 49 2000 090/04 RMK AO2 SLP131 T03110194 10317 20239 53011
94728KNYC NYC20250814125013608/14/25 12:50:31  5-MIN KNYC 141750Z AUTO 06005KT 10SM FEW120 31/19 A2995 130 51 2000 070/05 RMK AO2 SLP131 T03060194 10317 20239 53011
94728KNYC NYC20250814125511808/14/25 12:55:31  5-MIN KNYC 141755Z AUTO VRB03KT 10SM FEW036 FEW120 30/19 A2995 130 52 1900 VRB/03 RMK AO2 T03000194
94728KNYC NYC20250814130011108/14/25 13:00:31  5-MIN KNYC 141800Z AUTO 06005KT 10SM FEW036 30/19 A2995 130 52 1900 070/05 RMK AO2 T03000194
94728KNYC NYC20250814130511108/14/25 13:05:31  5-MIN KNYC 141805Z AUTO 05005KT 10SM FEW037 30/19 A2995 130 52 1900 060/05 RMK AO2 T03000194
94728KNYC NYC20250814131011108/14/25 13:10:31  5-MIN KNYC 141810Z AUTO 06003KT 10SM FEW037 29/20 A2995 130 56 1900 080/03 RMK AO2 T02940200
94728KNYC NYC20250814131511108/14/25 13:15:31  5-MIN KNYC 141815Z AUTO 06004KT 10SM FEW037 29/19 A2995 130 54 1900 070/04 RMK AO2 T02940194
94728KNYC NYC20250814132011108/14/25 13:20:31  5-MIN KNYC 141820Z AUTO 06003KT 10SM FEW037 29/20 A2995 130 56 1900 070/03 RMK AO2 T02940200
94728KNYC NYC20250814132511108/14/25 13:25:31  5-MIN KNYC 141825Z AUTO 04003KT 10SM FEW037 31/19 A2995 130 49 2000 060/03 RMK AO2 T03060189
94728KNYC NYC20250814133010808/14/25 13:30:31  5-MIN KNYC 141830Z AUTO 05004KT 10SM CLR 30/19 A2995 130 51 1900 070/04 RMK AO2 T03000189
94728KNYC NYC20250814133510808/14/25 13:35:31  5-MIN KNYC 141835Z AUTO 05004KT 10SM CLR 30/19 A2995 130 52 1900 070/04 RMK AO2 T03000194
94728KNYC NYC20250814134010808/14/25 13:40:31  5-MIN KNYC 141840Z AUTO 07004KT 10SM CLR 31/19 A2995 130 51 2000 080/04 RMK AO2 T03060194
94728KNYC NYC20250814134511508/14/25 13:45:31  5-MIN KNYC 141845Z AUTO 10003KT 10SM CLR 31/19 A2995 130 47 2000 110/03 RMK AO2 SLP131 T03110189
94728KNYC NYC20250814135011508/14/25 13:50:31  5-MIN KNYC 141850Z AUTO 00000KT 10SM CLR 31/19 A2995 130 47 2000 000/00 RMK AO2 SLP131 T03110189
94728KNYC NYC20250814135510808/14/25 13:55:31  5-MIN KNYC 141855Z AUTO 00000KT 10SM CLR 30/19 A2995 140 52 1900 000/00 RMK AO2 T03000194
94728KNYC NYC20250814140010808/14/25 14:00:31  5-MIN KNYC 141900Z AUTO 00000KT 10SM CLR 29/19 A2994 140 56 1800 000/00 RMK AO2 T02890194
94728KNYC NYC20250814140510808/14/25 14:05:31  5-MIN KNYC 141905Z AUTO 00000KT 10SM CLR 29/19 A2994 140 54 1900 000/00 RMK AO2 T02940194
94728KNYC NYC20250814141010808/14/25 14:10:31  5-MIN KNYC 141910Z AUTO 00000KT 10SM CLR 30/20 A2995 140 54 1900 000/00 RMK AO2 T03000200
94728KNYC NYC20250814141510808/14/25 14:15:31  5-MIN KNYC 141915Z AUTO 00000KT 10SM CLR 31/19 A2995 140 51 2000 000/00 RMK AO2 T03060194
94728KNYC NYC20250814142011108/14/25 14:20:31  5-MIN KNYC 141920Z AUTO 00000KT 10SM FEW080 30/20 A2994 140 54 1900 000/00 RMK AO2 T03000200
94728KNYC NYC20250814142511108/14/25 14:25:31  5-MIN KNYC 141925Z AUTO 00000KT 10SM FEW080 31/19 A2994 140 47 2100 000/00 RMK AO2 T03110189
94728KNYC NYC20250814143010808/14/25 14:30:31  5-MIN KNYC 141930Z AUTO VRB03KT 10SM CLR 31/19 A2994 140 47 2100 VRB/03 RMK AO2 T03110189
94728KNYC NYC20250814143510808/14/25 14:35:31  5-MIN KNYC 141935Z AUTO 00000KT 10SM CLR 31/19 A2993 140 49 2100 000/00 RMK AO2 T03110194
94728KNYC NYC20250814144010808/14/25 14:40:31  5-MIN KNYC 141940Z AUTO 00000KT 10SM CLR 31/19 A2993 150 51 2000 000/00 RMK AO2 T03060194
94728KNYC NYC20250814144511508/14/25 14:45:31  5-MIN KNYC 141945Z AUTO VRB03KT 10SM CLR 31/19 A2993 150 49 2100 VRB/03 RMK AO2 SLP125 T03110194
94728KNYC NYC20250814145011508/14/25 14:50:31  5-MIN KNYC 141950Z AUTO 02004KT 10SM CLR 32/19 A2993 150 47 2100 040/04 RMK AO2 SLP125 T03170194
94728KNYC NYC20250814145510808/14/25 14:55:31  5-MIN KNYC 141955Z AUTO 00000KT 10SM CLR 32/19 A2993 150 47 2100 000/00 RMK AO2 T03170194
94728KNYC NYC20250814150010808/14/25 15:00:31  5-MIN KNYC 142000Z AUTO 33003KT 10SM CLR 31/19 A2993 150 47 2100 340/03 RMK AO2 T03110189
94728KNYC NYC20250814150510808/14/25 15:05:31  5-MIN KNYC 142005Z AUTO VRB04KT 10SM CLR 31/19 A2992 160 49 2100 VRB/04 RMK AO2 T03110194
94728KNYC NYC20250814151010808/14/25 15:10:31  5-MIN KNYC 142010Z AUTO VRB05KT 10SM CLR 31/19 A2992 150 49 2100 VRB/05 RMK AO2 T03110194
94728KNYC NYC20250814151510808/14/25 15:15:31  5-MIN KNYC 142015Z AUTO 00000KT 10SM CLR 32/19 A2992 150 46 2100 000/00 RMK AO2 T03170189
94728KNYC NYC20250814152010808/14/25 15:20:31  5-MIN KNYC 142020Z AUTO VRB04KT 10SM CLR 31/19 A2993 150 49 2100 VRB/04 RMK AO2 T03110194
94728KNYC NYC20250814152510808/14/25 15:25:31  5-MIN KNYC 142025Z AUTO VRB03KT 10SM CLR 31/19 A2993 150 49 2100 VRB/03 RMK AO2 T03110194
94728KNYC NYC20250814153010808/14/25 15:30:31  5-MIN KNYC 142030Z AUTO 00000KT 10SM CLR 32/19 A2992 150 46 2100 000/00 RMK AO2 T03170189
94728KNYC NYC20250814153510808/14/25 15:35:31  5-MIN KNYC 142035Z AUTO VRB03KT 10SM CLR 32/19 A2992 160 47 2100 VRB/03 RMK AO2 T03170194
94728KNYC NYC20250814154010808/14/25 15:40:31  5-MIN KNYC 142040Z AUTO 00000KT 10SM CLR 31/20 A2992 150 52 2000 000/00 RMK AO2 T03060200
94728KNYC NYC20250814154512108/14/25 15:45:31  5-MIN KNYC 142045Z AUTO 06003KT 10SM CLR 31/21 A2993 150 54 2000 070/03 RMK AO2 SLP123 T03060206 58001
94728KNYC NYC20250814155012108/14/25 15:50:31  5-MIN KNYC 142050Z AUTO VRB03KT 10SM CLR 31/20 A2993 150 52 2000 VRB/03 RMK AO2 SLP124 T03060200 58001
94728KNYC NYC20250814155510808/14/25 15:55:31  5-MIN KNYC 142055Z AUTO 07003KT 10SM CLR 31/19 A2993 150 51 2000 090/03 RMK AO2 T03060194
94728KNYC NYC20250814160010808/14/25 16:00:31  5-MIN KNYC 142100Z AUTO VRB03KT 10SM CLR 31/19 A2993 150 51 2000 VRB/03 RMK AO2 T03060194
94728KNYC NYC20250814160510808/14/25 16:05:31  5-MIN KNYC 142105Z AUTO 00000KT 10SM CLR 31/20 A2993 150 51 2100 000/00 RMK AO2 T03110200
94728KNYC NYC20250814161010808/14/25 16:10:31  5-MIN KNYC 142110Z AUTO 00000KT 10SM CLR 31/19 A2993 150 49 2100 000/00 RMK AO2 T03110194
94728KNYC NYC20250814161510808/14/25 16:15:31  5-MIN KNYC 142115Z AUTO VRB03KT 10SM CLR 31/19 A2993 150 51 2000 VRB/03 RMK AO2 T03060194
94728KNYC NYC20250814162010808/14/25 16:20:31  5-MIN KNYC 142120Z AUTO 05003KT 10SM CLR 30/20 A2993 150 54 1900 070/03 RMK AO2 T03000200
94728KNYC NYC20250814162510808/14/25 16:25:31  5-MIN KNYC 142125Z AUTO 06004KT 10SM CLR 31/20 A2993 150 51 2100 080/04 RMK AO2 T03110200
94728KNYC NYC20250814163010808/14/25 16:30:31  5-MIN KNYC 142130Z AUTO 06003KT 10SM CLR 31/20 A2993 150 52 2000 070/03 RMK AO2 T03060200
94728KNYC NYC20250814163510808/14/25 16:35:31  5-MIN KNYC 142135Z AUTO 06004KT 10SM CLR 31/19 A2994 140 51 2000 070/04 RMK AO2 T03060194
94728KNYC NYC20250814164010808/14/25 16:40:31  5-MIN KNYC 142140Z AUTO 07004KT 10SM CLR 31/19 A2994 140 49 2100 080/04 RMK AO2 T03110194
94728KNYC NYC20250814164511508/14/25 16:45:31  5-MIN KNYC 142145Z AUTO VRB03KT 10SM CLR 31/19 A2994 140 51 2000 VRB/03 RMK AO2 SLP128 T03060194
94728KNYC NYC20250814165011508/14/25 16:50:31  5-MIN KNYC 142150Z AUTO 06005KT 10SM CLR 30/19 A2994 140 52 1900 070/05 RMK AO2 SLP128 T03000194
94728KNYC NYC20250814165510808/14/25 16:55:31  5-MIN KNYC 142155Z AUTO 05004KT 10SM CLR 31/19 A2994 140 51 2000 060/04 RMK AO2 T03060194
94728KNYC NYC20250814170010808/14/25 17:00:31  5-MIN KNYC 142200Z AUTO 05004KT 10SM CLR 31/19 A2994 140 47 2100 070/04 RMK AO2 T03110189
94728KNYC NYC20250814170510808/14/25 17:05:31  5-MIN KNYC 142205Z AUTO 06003KT 10SM CLR 31/19 A2994 140 49 2000 080/03 RMK AO2 T03060189
94728KNYC NYC20250814171010808/14/25 17:10:31  5-MIN KNYC 142210Z AUTO 07003KT 10SM CLR 31/19 A2994 140 49 2000 080/03 RMK AO2 T03060189
94728KNYC NYC20250814171510808/14/25 17:15:31  5-MIN KNYC 142215Z AUTO 06003KT 10SM CLR 31/19 A2994 140 51 2000 070/03 RMK AO2 T03060194
94728KNYC NYC20250814172010808/14/25 17:20:31  5-MIN KNYC 142220Z AUTO 06004KT 10SM CLR 31/19 A2994 140 49 2000 080/04 RMK AO2 T03060189
94728KNYC NYC20250814172510808/14/25 17:25:31  5-MIN KNYC 142225Z AUTO 05003KT 10SM CLR 30/19 A2994 140 51 1900 060/03 RMK AO2 T03000189
94728KNYC NYC20250814173010808/14/25 17:30:31  5-MIN KNYC 142230Z AUTO 07003KT 10SM CLR 30/19 A2994 140 51 1900 080/03 RMK AO2 T03000189
94728KNYC NYC20250814173510808/14/25 17:35:31  5-MIN KNYC 142235Z AUTO 00000KT 10SM CLR 30/19 A2994 140 51 1900 000/00 RMK AO2 T03000189
94728KNYC NYC20250814174010808/14/25 17:40:31  5-MIN KNYC 142240Z AUTO 00000KT 10SM CLR 30/19 A2994 140 51 1900 000/00 RMK AO2 T03000189
94728KNYC NYC20250814174511508/14/25 17:45:31  5-MIN KNYC 142245Z AUTO 00000KT 10SM CLR 30/19 A2994 140 51 1900 000/00 RMK AO2 SLP130 T03000189
94728KNYC NYC20250814175011508/14/25 17:50:31  5-MIN KNYC 142250Z AUTO 00000KT 10SM CLR 30/19 A2995 130 51 1900 000/00 RMK AO2 SLP131 T03000189
94728KNYC NYC20250814175510808/14/25 17:55:31  5-MIN KNYC 142255Z AUTO 00000KT 10SM CLR 30/18 A2995 130 47 1900 000/00 RMK AO2 T03000178
94728KNYC NYC20250814180010808/14/25 18:00:31  5-MIN KNYC 142300Z AUTO 00000KT 10SM CLR 30/18 A2995 130 49 1900 000/00 RMK AO2 T03000183
94728KNYC NYC20250814180510808/14/25 18:05:31  5-MIN KNYC 142305Z AUTO 00000KT 10SM CLR 30/18 A2995 130 49 1900 000/00 RMK AO2 T03000183
94728KNYC NYC20250814181010808/14/25 18:10:31  5-MIN KNYC 142310Z AUTO 00000KT 10SM CLR 30/18 A2995 130 49 1900 000/00 RMK AO2 T03000183
94728KNYC NYC20250814181510808/14/25 18:15:31  5-MIN KNYC 142315Z AUTO 00000KT 10SM CLR 30/18 A2995 130 47 1900 000/00 RMK AO2 T03000178
94728KNYC NYC20250814182010808/14/25 18:20:31  5-MIN KNYC 142320Z AUTO 00000KT 10SM CLR 29/18 A2996 120 50 1900 000/00 RMK AO2 T02940183
94728KNYC NYC20250814182510808/14/25 18:25:31  5-MIN KNYC 142325Z AUTO 00000KT 10SM CLR 29/19 A2996 120 52 1800 000/00 RMK AO2 T02940189
94728KNYC NYC20250814183010808/14/25 18:30:31  5-MIN KNYC 142330Z AUTO 00000KT 10SM CLR 29/19 A2996 120 54 1800 000/00 RMK AO2 T02890189
94728KNYC NYC20250814183510808/14/25 18:35:31  5-MIN KNYC 142335Z AUTO 00000KT 10SM CLR 29/18 A2997 120 52 1800 000/00 RMK AO2 T02890183
94728KNYC NYC20250814184010808/14/25 18:40:31  5-MIN KNYC 142340Z AUTO 00000KT 10SM CLR 29/18 A2997 120 52 1800 000/00 RMK AO2 T02890183
94728KNYC NYC20250814184513308/14/25 18:45:31  5-MIN KNYC 142345Z AUTO 00000KT 10SM CLR 29/18 A2997 110 52 1800 000/00 RMK AO2 SLP138 T02890183 10317 20289 58007
94728KNYC NYC20250814185013308/14/25 18:50:31  5-MIN KNYC 142350Z AUTO VRB03KT 10SM CLR 29/18 A2997 110 52 1800 VRB/03 RMK AO2 SLP139 T02890183 10317 20289 58007
94728KNYC NYC20250814185510808/14/25 18:55:31  5-MIN KNYC 142355Z AUTO 00000KT 10SM CLR 29/19 A2997 110 54 1800 000/00 RMK AO2 T02890189
94728KNYC NYC20250814190010808/14/25 19:00:31  5-MIN KNYC 150000Z AUTO 00000KT 10SM CLR 29/19 A2998 110 56 1800 000/00 RMK AO2 T02890194
94728KNYC NYC20250814190510808/14/25 19:05:31  5-MIN KNYC 150005Z AUTO 00000KT 10SM CLR 29/19 A2998 110 56 1800 000/00 RMK AO2 T02890194
94728KNYC NYC20250814191010808/14/25 19:10:31  5-MIN KNYC 150010Z AUTO 00000KT 10SM CLR 29/19 A2998 110 56 1800 000/00 RMK AO2 T02890194
94728KNYC NYC20250814191510808/14/25 19:15:31  5-MIN KNYC 150015Z AUTO 00000KT 10SM CLR 28/19 A2998 110 58 1700 000/00 RMK AO2 T02830194
94728KNYC NYC20250814192010808/14/25 19:20:31  5-MIN KNYC 150020Z AUTO 00000KT 10SM CLR 28/19 A2998 110 58 1700 000/00 RMK AO2 T02830194
94728KNYC NYC20250814192510808/14/25 19:25:31  5-MIN KNYC 150025Z AUTO 00000KT 10SM CLR 28/19 A2998 100 58 1700 000/00 RMK AO2 T02830194
94728KNYC NYC20250814193010808/14/25 19:30:31  5-MIN KNYC 150030Z AUTO 00000KT 10SM CLR 28/19 A2999 100 58 1700 000/00 RMK AO2 T02830194
94728KNYC NYC20250814193510808/14/25 19:35:31  5-MIN KNYC 150035Z AUTO 00000KT 10SM CLR 28/19 A2999 100 58 1700 000/00 RMK AO2 T02830194
94728KNYC NYC20250814194010708/14/25 19:40:31  5-MIN KNYC 150040Z AUTO 00000KT 10SM CLR 28/19 A2999 90 58 1700 000/00 RMK AO2 T02830194
94728KNYC NYC20250815075512908/15/25 07:55:31  5-MIN KNYC 151255Z AUTO 05007G15KT 010V080 9SM CLR 26/14 A3015 -50 49 1200 060/07G15 020V090 RMK AO2 T02560144
94728KNYC NYC20250815080012308/15/25 08:00:31  5-MIN KNYC 151300Z AUTO 05007KT 010V080 9SM CLR 26/14 A3015 -50 49 1200 060/07 020V090 RMK AO2 T02560144
94728KNYC NYC20250815080511308/15/25 08:05:31  5-MIN KNYC 151305Z AUTO 06014G21KT 9SM CLR 26/14 A3016 -50 48 1300 070/14G21 RMK AO2 T02610144
94728KNYC NYC20250815081011308/15/25 08:10:31  5-MIN KNYC 151310Z AUTO 05010G21KT 9SM CLR 26/14 A3016 -50 48 1200 070/10G21 RMK AO2 T02560139
94728KNYC NYC20250815081511308/15/25 08:15:31  5-MIN KNYC 151315Z AUTO 07010G21KT 9SM CLR 26/14 A3016 -60 46 1200 080/10G21 RMK AO2 T02610139
94728KNYC NYC20250815082011308/15/25 08:20:31  5-MIN KNYC 151320Z AUTO 06011G20KT 9SM CLR 26/14 A3016 -60 46 1200 070/11G20 RMK AO2 T02610139
94728KNYC NYC20250815082512908/15/25 08:25:31  5-MIN KNYC 151325Z AUTO 06009G20KT 010V080 9SM CLR 26/14 A3016 -60 46 1200 070/09G20 020V090 RMK AO2 T02610139
94728KNYC NYC20250815083012908/15/25 08:30:31  5-MIN KNYC 151330Z AUTO 08010G18KT 050V110 9SM CLR 26/14 A3016 -60 48 1200 090/10G18 060V120 RMK AO2 T02610144
94728KNYC NYC20250815083511308/15/25 08:35:31  5-MIN KNYC 151335Z AUTO 07007G21KT 9SM CLR 26/14 A3017 -60 46 1200 080/07G21 RMK AO2 T02610139
94728KNYC NYC20250815084012908/15/25 08:40:31  5-MIN KNYC 151340Z AUTO 07008G21KT 050V110 9SM CLR 26/14 A3017 -70 46 1200 080/08G21 060V120 RMK AO2 T02610139
94728KNYC NYC20250815084512008/15/25 08:45:31  5-MIN KNYC 151345Z AUTO 06008G19KT 9SM CLR 26/14 A3017 -70 46 1200 080/08G19 RMK AO2 SLP206 T02610139
94728KNYC NYC20250815085012008/15/25 08:50:31  5-MIN KNYC 151350Z AUTO 06010G19KT 9SM CLR 26/14 A3017 -70 48 1200 080/10G19 RMK AO2 SLP206 T02610144
94728KNYC NYC20250815085511308/15/25 08:55:31  5-MIN KNYC 151355Z AUTO 06008G18KT 9SM CLR 26/14 A3017 -60 46 1200 070/08G18 RMK AO2 T02610139
94728KNYC NYC20250815090011308/15/25 09:00:31  5-MIN KNYC 151400Z AUTO VRB06G16KT 9SM CLR 26/14 A3017 -70 48 1200 VRB/06G16 RMK AO2 T02610144
94728KNYC NYC20250815090510708/15/25 09:05:31  5-MIN KNYC 151405Z AUTO 00000KT 9SM CLR 26/14 A3017 -70 48 1200 000/00 RMK AO2 T02610144
94728KNYC NYC20250815091010808/15/25 09:10:31  5-MIN KNYC 151410Z AUTO 11006KT 10SM CLR 27/14 A3017 -70 45 1300 120/06 RMK AO2 T02670139
94728KNYC NYC20250815091510808/15/25 09:15:31  5-MIN KNYC 151415Z AUTO VRB05KT 10SM CLR 26/14 A3018 -70 46 1200 VRB/05 RMK AO2 T02610139
94728KNYC NYC20250815092010708/15/25 09:20:31  5-MIN KNYC 151420Z AUTO VRB05KT 8SM CLR 26/14 A3018 -70 46 1200 VRB/05 RMK AO2 T02610139
94728KNYC NYC20250815092511308/15/25 09:25:31  5-MIN KNYC 151425Z AUTO 06011G20KT 7SM CLR 27/14 A3018 -80 46 1300 080/11G20 RMK AO2 T02670144
94728KNYC NYC20250815093012908/15/25 09:30:31  5-MIN KNYC 151430Z AUTO 09009G20KT 040V120 7SM CLR 26/14 A3018 -80 46 1200 100/09G20 050V130 RMK AO2 T02610139
94728KNYC NYC20250815093511308/15/25 09:35:31  5-MIN KNYC 151435Z AUTO VRB05G17KT 7SM CLR 26/14 A3018 -80 46 1200 VRB/05G17 RMK AO2 T02610139
94728KNYC NYC20250815094011308/15/25 09:40:31  5-MIN KNYC 151440Z AUTO VRB05G15KT 8SM CLR 27/14 A3018 -80 45 1300 VRB/05G15 RMK AO2 T02670139
94728KNYC NYC20250815094513608/15/25 09:45:31  5-MIN KNYC 151445Z AUTO 07009KT 010V100 9SM CLR 27/14 A3018 -80 45 1300 080/09 020V110 RMK AO2 SLP211 T02670139 51019
94728KNYC NYC20250815095014308/15/25 09:50:31  5-MIN KNYC 151450Z AUTO 05008G15KT 010V080 10SM CLR 27/14 A3018 -80 45 1300 070/08G15 020V090 RMK AO2 SLP210 T02670139 51019
94728KNYC NYC20250815095511408/15/25 09:55:31  5-MIN KNYC 151455Z AUTO VRB06G15KT 10SM CLR 27/14 A3018 -80 45 1300 VRB/06G15 RMK AO2 T02720144
94728KNYC NYC20250815100012408/15/25 10:00:31  5-MIN KNYC 151500Z AUTO 06008KT 010V080 10SM CLR 27/15 A3018 -80 46 1300 070/08 020V090 RMK AO2 T02720150
94728KNYC NYC20250815100510708/15/25 10:05:31  5-MIN KNYC 151505Z AUTO 07011KT 9SM CLR 28/14 A3018 -80 43 1400 080/11 RMK AO2 T02780144
94728KNYC NYC20250815101013008/15/25 10:10:31  5-MIN KNYC 151510Z AUTO 09008G20KT 060V130 10SM CLR 27/14 A3018 -80 45 1300 100/08G20 070V140 RMK AO2 T02720144
94728KNYC NYC20250815101511408/15/25 10:15:31  5-MIN KNYC 151515Z AUTO VRB05G20KT 10SM CLR 27/14 A3018 -80 45 1300 VRB/05G20 RMK AO2 T02720144
94728KNYC NYC20250815102010808/15/25 10:20:31  5-MIN KNYC 151520Z AUTO 07007KT 10SM CLR 28/14 A3018 -80 42 1400 080/07 RMK AO2 T02780139
94728KNYC NYC20250815102510808/15/25 10:25:31  5-MIN KNYC 151525Z AUTO 05010KT 10SM CLR 27/14 A3018 -80 45 1300 060/10 RMK AO2 T02720144
94728KNYC NYC20250815103010808/15/25 10:30:31  5-MIN KNYC 151530Z AUTO 06007KT 10SM CLR 28/14 A3018 -80 43 1400 070/07 RMK AO2 T02780144
94728KNYC NYC20250815103510808/15/25 10:35:31  5-MIN KNYC 151535Z AUTO 07006KT 10SM CLR 28/14 A3018 -80 43 1400 080/06 RMK AO2 T02780144
94728KNYC NYC20250815104010808/15/25 10:40:31  5-MIN KNYC 151540Z AUTO VRB04KT 10SM CLR 28/14 A3018 -80 43 1400 VRB/04 RMK AO2 T02780144
94728KNYC NYC20250815104510508/15/25 10:45:31  5-MIN KNYC 151545Z AUTO 10SM CLR 28/14 A3018 -80 43 1400 M /M RMK AO2 SLP210 T02780144
94728KNYC NYC20250815105011508/15/25 10:50:31  5-MIN KNYC 151550Z AUTO VRB05KT 10SM CLR 28/14 A3018 -80 42 1500 VRB/05 RMK AO2 SLP209 T02830144
94728KNYC NYC20250815105509808/15/25 10:55:31  5-MIN KNYC 151555Z AUTO 10SM CLR 28/15 A3018 -70 43 1500 M /M RMK AO2 T02830150
94728KNYC NYC20250815110012408/15/25 11:00:31  5-MIN KNYC 151600Z AUTO 06007KT 030V100 10SM CLR 28/14 A3018 -70 42 1500 070/07 040V110 RMK AO2 T02830144
94728KNYC NYC20250815110510808/15/25 11:05:31  5-MIN KNYC 151605Z AUTO VRB06KT 10SM CLR 29/14 A3018 -70 40 1500 VRB/06 RMK AO2 T02890144
94728KNYC NYC20250815111011408/15/25 11:10:31  5-MIN KNYC 151610Z AUTO VRB05G16KT 10SM CLR 29/14 A3018 -70 40 1500 VRB/05G16 RMK AO2 T02890144
94728KNYC NYC20250815111509808/15/25 11:15:31  5-MIN KNYC 151615Z AUTO 10SM CLR 29/14 A3018 -70 40 1500 M /M RMK AO2 T02890144
94728KNYC NYC20250815112010808/15/25 11:20:31  5-MIN KNYC 151620Z AUTO 05009KT 10SM CLR 29/14 A3018 -70 39 1500 070/09 RMK AO2 T02890139
94728KNYC NYC20250815112510808/15/25 11:25:31  5-MIN KNYC 151625Z AUTO 10005KT 10SM CLR 29/14 A3018 -70 38 1600 110/05 RMK AO2 T02940139
94728KNYC NYC20250815113010808/15/25 11:30:31  5-MIN KNYC 151630Z AUTO 11006KT 10SM CLR 29/13 A3018 -70 36 1600 120/06 RMK AO2 T02940133
94728KNYC NYC20250815113510808/15/25 11:35:31  5-MIN KNYC 151635Z AUTO 06007KT 10SM CLR 29/14 A3018 -70 39 1500 070/07 RMK AO2 T02890139
94728KNYC NYC20250815114011408/15/25 11:40:31  5-MIN KNYC 151640Z AUTO 05009G14KT 10SM CLR 30/14 A3018 -70 36 1700 060/09G14 RMK AO2 T03000139
94728KNYC NYC20250815114512108/15/25 11:45:31  5-MIN KNYC 151645Z AUTO VRB06G14KT 10SM CLR 30/14 A3018 -70 36 1700 VRB/06G14 RMK AO2 SLP208 T03000139
94728KNYC NYC20250815115013108/15/25 11:50:31  5-MIN KNYC 151650Z AUTO 08007KT 030V110 10SM CLR 30/14 A3018 -70 36 1700 090/07 040V120 RMK AO2 SLP208 T03000139
94728KNYC NYC20250815115511408/15/25 11:55:31  5-MIN KNYC 151655Z AUTO 05008G15KT 10SM CLR 30/14 A3017 -70 36 1700 070/08G15 RMK AO2 T03000139
94728KNYC NYC20250815120011408/15/25 12:00:31  5-MIN KNYC 151700Z AUTO 06006G16KT 10SM CLR 30/13 A3017 -70 35 1700 070/06G16 RMK AO2 T03000133
94728KNYC NYC20250815120513008/15/25 12:05:31  5-MIN KNYC 151705Z AUTO 10008G16KT 060V120 10SM CLR 29/14 A3017 -70 38 1600 110/08G16 070V130 RMK AO2 T02940139
94728KNYC NYC20250815121010808/15/25 12:10:31  5-MIN KNYC 151710Z AUTO VRB05KT 10SM CLR 29/13 A3017 -70 36 1600 VRB/05 RMK AO2 T02940133
94728KNYC NYC20250815121511408/15/25 12:15:31  5-MIN KNYC 151715Z AUTO VRB06G14KT 10SM CLR 30/14 A3017 -70 36 1700 VRB/06G14 RMK AO2 T03000139
94728KNYC NYC20250815122011408/15/25 12:20:31  5-MIN KNYC 151720Z AUTO 06008G14KT 10SM CLR 30/13 A3017 -70 35 1700 080/08G14 RMK AO2 T03000133
94728KNYC NYC20250815122510808/15/25 12:25:31  5-MIN KNYC 151725Z AUTO 08006KT 10SM CLR 31/14 A3017 -70 35 1700 090/06 RMK AO2 T03060139
94728KNYC NYC20250815123010808/15/25 12:30:31  5-MIN KNYC 151730Z AUTO VRB04KT 10SM CLR 30/14 A3017 -70 36 1700 VRB/04 RMK AO2 T03000139
94728KNYC NYC20250815123510808/15/25 12:35:31  5-MIN KNYC 151735Z AUTO 05006KT 10SM CLR 31/13 A3017 -70 34 1700 070/06 RMK AO2 T03060133
94728KNYC NYC20250815124010808/15/25 12:40:31  5-MIN KNYC 151740Z AUTO 05008KT 10SM CLR 31/14 A3017 -70 34 1800 070/08 RMK AO2 T03110139
94728KNYC NYC20250815124513908/15/25 12:45:31  5-MIN KNYC 151745Z AUTO 04009G17KT 10SM CLR 31/14 A3017 -60 34 1800 060/09G17 RMK AO2 SLP205 T03110139 10311 20244 53014
94728KNYC NYC20250815125013308/15/25 12:50:31  5-MIN KNYC 151750Z AUTO 05008KT 10SM CLR 31/14 A3016 -60 34 1800 060/08 RMK AO2 SLP204 T03110139 10311 20244 53014
94728KNYC NYC20250815125510808/15/25 12:55:31  5-MIN KNYC 151755Z AUTO 06009KT 10SM CLR 31/14 A3016 -60 34 1800 080/09 RMK AO2 T03110139
94728KNYC NYC20250815130011408/15/25 13:00:31  5-MIN KNYC 151800Z AUTO VRB06G16KT 10SM CLR 31/14 A3016 -60 35 1800 VRB/06G16 RMK AO2 T03110144
94728KNYC NYC20250815130510808/15/25 13:05:31  5-MIN KNYC 151805Z AUTO 06006KT 10SM CLR 31/14 A3016 -60 35 1800 070/06 RMK AO2 T03110144
94728KNYC NYC20250815131011408/15/25 13:10:31  5-MIN KNYC 151810Z AUTO VRB06G14KT 10SM CLR 31/14 A3016 -60 34 1800 VRB/06G14 RMK AO2 T03110139
94728KNYC NYC20250815131511408/15/25 13:15:31  5-MIN KNYC 151815Z AUTO VRB04G14KT 10SM CLR 31/14 A3016 -60 35 1800 VRB/04G14 RMK AO2 T03110144
94728KNYC NYC20250815132012408/15/25 13:20:31  5-MIN KNYC 151820Z AUTO 05007KT 360V070 10SM CLR 31/15 A3016 -60 37 1800 060/07 010V080 RMK AO2 T03110150
94728KNYC NYC20250815132510808/15/25 13:25:31  5-MIN KNYC 151825Z AUTO 08007KT 10SM CLR 31/14 A3016 -60 35 1800 090/07 RMK AO2 T03110144
94728KNYC NYC20250815133010808/15/25 13:30:31  5-MIN KNYC 151830Z AUTO VRB04KT 10SM CLR 31/14 A3016 -60 37 1700 VRB/04 RMK AO2 T03060144
94728KNYC NYC20250815133510808/15/25 13:35:31  5-MIN KNYC 151835Z AUTO VRB05KT 10SM CLR 31/15 A3016 -60 37 1800 VRB/05 RMK AO2 T03110150
94728KNYC NYC20250815134010808/15/25 13:40:31  5-MIN KNYC 151840Z AUTO VRB04KT 10SM CLR 31/15 A3016 -60 37 1800 VRB/04 RMK AO2 T03110150
94728KNYC NYC20250815134511508/15/25 13:45:31  5-MIN KNYC 151845Z AUTO VRB04KT 10SM CLR 31/14 A3016 -50 35 1800 VRB/04 RMK AO2 SLP201 T03110144
94728KNYC NYC20250815135011508/15/25 13:50:31  5-MIN KNYC 151850Z AUTO VRB03KT 10SM CLR 32/15 A3015 -50 36 1900 VRB/03 RMK AO2 SLP201 T03170150
94728KNYC NYC20250815135510808/15/25 13:55:31  5-MIN KNYC 151855Z AUTO VRB06KT 10SM CLR 31/15 A3015 -50 37 1800 VRB/06 RMK AO2 T03110150
94728KNYC NYC20250815140010808/15/25 14:00:31  5-MIN KNYC 151900Z AUTO 06006KT 10SM CLR 31/15 A3015 -50 37 1800 080/06 RMK AO2 T03110150
94728KNYC NYC20250815140510808/15/25 14:05:31  5-MIN KNYC 151905Z AUTO VRB04KT 10SM CLR 31/15 A3015 -50 37 1800 VRB/04 RMK AO2 T03110150
94728KNYC NYC20250815141010808/15/25 14:10:31  5-MIN KNYC 151910Z AUTO VRB04KT 10SM CLR 31/15 A3015 -50 37 1800 VRB/04 RMK AO2 T03110150
94728KNYC NYC20250815141510808/15/25 14:15:31  5-MIN KNYC 151915Z AUTO 06006KT 10SM CLR 31/16 A3015 -50 39 1800 070/06 RMK AO2 T03060156
94728KNYC NYC20250815142010808/15/25 14:20:31  5-MIN KNYC 151920Z AUTO VRB03KT 10SM CLR 31/15 A3015 -50 37 1800 VRB/03 RMK AO2 T03110150
94728KNYC NYC20250815142510808/15/25 14:25:31  5-MIN KNYC 151925Z AUTO VRB03KT 10SM CLR 31/16 A3015 -50 39 1800 VRB/03 RMK AO2 T03060156
94728KNYC NYC20250815143010808/15/25 14:30:31  5-MIN KNYC 151930Z AUTO VRB05KT 10SM CLR 31/15 A3015 -50 38 1800 VRB/05 RMK AO2 T03060150
94728KNYC NYC20250815143510808/15/25 14:35:31  5-MIN KNYC 151935Z AUTO 06004KT 10SM CLR 31/16 A3015 -50 38 1800 070/04 RMK AO2 T03110156
94728KNYC NYC20250815144010808/15/25 14:40:31  5-MIN KNYC 151940Z AUTO VRB05KT 10SM CLR 31/16 A3015 -50 38 1800 VRB/05 RMK AO2 T03110156
94728KNYC NYC20250815144511508/15/25 14:45:31  5-MIN KNYC 151945Z AUTO 08006KT 10SM CLR 31/15 A3015 -50 37 1800 100/06 RMK AO2 SLP200 T03110150
94728KNYC NYC20250815145011508/15/25 14:50:31  5-MIN KNYC 151950Z AUTO VRB04KT 10SM CLR 31/15 A3015 -50 37 1800 VRB/04 RMK AO2 SLP200 T03110150
94728KNYC NYC20250815145510808/15/25 14:55:31  5-MIN KNYC 151955Z AUTO 00000KT 10SM CLR 31/15 A3015 -50 37 1800 000/00 RMK AO2 T03110150
94728KNYC NYC20250815150010808/15/25 15:00:31  5-MIN KNYC 152000Z AUTO 09005KT 10SM CLR 31/15 A3015 -50 37 1800 110/05 RMK AO2 T03110150
94728KNYC NYC20250815150510708/15/25 15:05:31  5-MIN KNYC 152005Z AUTO VRB03KT 9SM CLR 31/17 A3015 -50 42 1800 VRB/03 RMK AO2 T03060167
94728KNYC NYC20250815151010708/15/25 15:10:31  5-MIN KNYC 152010Z AUTO 00000KT 9SM CLR 30/18 A3015 -50 47 1700 000/00 RMK AO2 T03000178
94728KNYC NYC20250815151510708/15/25 15:15:31  5-MIN KNYC 152015Z AUTO VRB04KT 9SM CLR 29/18 A3015 -50 50 1600 VRB/04 RMK AO2 T02940183
94728KNYC NYC20250815152009708/15/25 15:20:31  5-MIN KNYC 152020Z AUTO 9SM CLR 29/18 A3015 -50 50 1600 M /M RMK AO2 T02890178
94728KNYC NYC20250815152509708/15/25 15:25:31  5-MIN KNYC 152025Z AUTO 9SM CLR 29/18 A3015 -50 50 1600 M /M RMK AO2 T02890178
94728KNYC NYC20250815153010708/15/25 15:30:31  5-MIN KNYC 152030Z AUTO VRB04KT 9SM CLR 29/18 A3015 -50 52 1600 VRB/04 RMK AO2 T02890183
94728KNYC NYC20250815153510708/15/25 15:35:31  5-MIN KNYC 152035Z AUTO VRB05KT 9SM CLR 29/18 A3015 -50 52 1600 VRB/05 RMK AO2 T02890183
94728KNYC NYC20250815154009708/15/25 15:40:31  5-MIN KNYC 152040Z AUTO 9SM CLR 29/18 A3016 -50 52 1600 M /M RMK AO2 T02890183
94728KNYC NYC20250815154512008/15/25 15:45:31  5-MIN KNYC 152045Z AUTO VRB04KT 9SM CLR 29/18 A3016 -60 50 1600 VRB/04 RMK AO2 SLP202 T02890178 58006
94728KNYC NYC20250815155012008/15/25 15:50:31  5-MIN KNYC 152050Z AUTO VRB05KT 9SM CLR 28/18 A3016 -60 52 1500 VRB/05 RMK AO2 SLP202 T02830178 58006
94728KNYC NYC20250815155510708/15/25 15:55:31  5-MIN KNYC 152055Z AUTO VRB03KT 9SM CLR 28/18 A3016 -50 52 1500 VRB/03 RMK AO2 T02830178
94728KNYC NYC20250815160010708/15/25 16:00:31  5-MIN KNYC 152100Z AUTO VRB03KT 9SM CLR 28/18 A3016 -50 52 1500 VRB/03 RMK AO2 T02830178
94728KNYC NYC20250815160509708/15/25 16:05:31  5-MIN KNYC 152105Z AUTO 9SM CLR 28/18 A3016 -50 52 1500 M /M RMK AO2 T02830178
94728KNYC NYC20250815161010708/15/25 16:10:31  5-MIN KNYC 152110Z AUTO 18005KT 9SM CLR 28/18 A3016 -50 52 1500 190/05 RMK AO2 T02830178
94728KNYC NYC20250815161510808/15/25 16:15:31  5-MIN KNYC 152115Z AUTO 00000KT 10SM CLR 28/18 A3016 -60 52 1500 000/00 RMK AO2 T02830178
94728KNYC NYC20250815162009808/15/25 16:20:31  5-MIN KNYC 152120Z AUTO 10SM CLR 28/18 A3016 -60 54 1400 M /M RMK AO2 T02780178
94728KNYC NYC20250815162510808/15/25 16:25:31  5-MIN KNYC 152125Z AUTO VRB03KT 10SM CLR 28/18 A3016 -60 54 1400 VRB/03 RMK AO2 T02780178
94728KNYC NYC20250815163010708/15/25 16:30:31  5-MIN KNYC 152130Z AUTO 00000KT 9SM CLR 28/18 A3016 -60 56 1400 000/00 RMK AO2 T02780183
94728KNYC NYC20250815163510808/15/25 16:35:31  5-MIN KNYC 152135Z AUTO 00000KT 10SM CLR 28/18 A3016 -60 56 1400 000/00 RMK AO2 T02780183
94728KNYC NYC20250815164010808/15/25 16:40:31  5-MIN KNYC 152140Z AUTO VRB05KT 10SM CLR 28/18 A3016 -60 54 1400 VRB/05 RMK AO2 T02780178
94728KNYC NYC20250815164510508/15/25 16:45:31  5-MIN KNYC 152145Z AUTO 10SM CLR 28/18 A3016 -60 54 1400 M /M RMK AO2 SLP203 T02780178
94728KNYC NYC20250815165010508/15/25 16:50:31  5-MIN KNYC 152150Z AUTO 10SM CLR 28/18 A3016 -60 56 1400 M /M RMK AO2 SLP203 T02780183
94728KNYC NYC20250815165510808/15/25 16:55:31  5-MIN KNYC 152155Z AUTO 00000KT 10SM CLR 28/18 A3016 -60 56 1400 000/00 RMK AO2 T02780183
94728KNYC NYC20250815170010808/15/25 17:00:31  5-MIN KNYC 152200Z AUTO 00000KT 10SM CLR 27/18 A3016 -60 56 1400 000/00 RMK AO2 T02720178
94728KNYC NYC20250815170510808/15/25 17:05:31  5-MIN KNYC 152205Z AUTO 15004KT 10SM CLR 28/18 A3016 -60 54 1400 160/04 RMK AO2 T02780178
94728KNYC NYC20250815171010808/15/25 17:10:31  5-MIN KNYC 152210Z AUTO 17003KT 10SM CLR 27/18 A3016 -60 56 1400 180/03 RMK AO2 T02720178
94728KNYC NYC20250815171509808/15/25 17:15:31  5-MIN KNYC 152215Z AUTO 10SM CLR 27/18 A3016 -60 57 1300 M /M RMK AO2 T02670178
94728KNYC NYC20250815172010808/15/25 17:20:31  5-MIN KNYC 152220Z AUTO VRB05KT 10SM CLR 27/17 A3016 -60 54 1400 VRB/05 RMK AO2 T02720172
94728KNYC NYC20250815172510808/15/25 17:25:31  5-MIN KNYC 152225Z AUTO VRB04KT 10SM CLR 27/18 A3016 -60 56 1400 VRB/04 RMK AO2 T02720178
94728KNYC NYC20250815173010808/15/25 17:30:31  5-MIN KNYC 152230Z AUTO VRB03KT 10SM CLR 27/18 A3016 -60 57 1300 VRB/03 RMK AO2 T02670178
94728KNYC NYC20250815173510808/15/25 17:35:31  5-MIN KNYC 152235Z AUTO VRB04KT 10SM CLR 26/18 A3016 -60 59 1200 VRB/04 RMK AO2 T02610178
94728KNYC NYC20250815174010808/15/25 17:40:31  5-MIN KNYC 152240Z AUTO VRB04KT 10SM CLR 26/18 A3016 -60 62 1200 VRB/04 RMK AO2 T02610183
94728KNYC NYC20250815174511508/15/25 17:45:31  5-MIN KNYC 152245Z AUTO VRB03KT 10SM CLR 26/18 A3016 -60 62 1200 VRB/03 RMK AO2 SLP203 T02610183
94728KNYC NYC20250815175011508/15/25 17:50:31  5-MIN KNYC 152250Z AUTO 00000KT 10SM CLR 26/18 A3016 -60 59 1200 000/00 RMK AO2 SLP203 T02610178
94728KNYC NYC20250815175509808/15/25 17:55:31  5-MIN KNYC 152255Z AUTO 10SM CLR 26/18 A3016 -60 62 1200 M /M RMK AO2 T02610183
94728KNYC NYC20250815180009808/15/25 18:00:31  5-MIN KNYC 152300Z AUTO 10SM CLR 26/18 A3016 -60 62 1200 M /M RMK AO2 T02610183
94728KNYC NYC20250815180510808/15/25 18:05:31  5-MIN KNYC 152305Z AUTO 00000KT 10SM CLR 26/18 A3016 -60 62 1200 000/00 RMK AO2 T02610183
94728KNYC NYC20250815181010808/15/25 18:10:31  5-MIN KNYC 152310Z AUTO 13005KT 10SM CLR 26/18 A3016 -60 62 1200 150/05 RMK AO2 T02610183
94728KNYC NYC20250815181509808/15/25 18:15:31  5-MIN KNYC 152315Z AUTO 10SM CLR 26/18 A3017 -60 62 1200 M /M RMK AO2 T02610183
94728KNYC NYC20250815182010808/15/25 18:20:31  5-MIN KNYC 152320Z AUTO VRB04KT 10SM CLR 26/18 A3017 -70 64 1200 VRB/04 RMK AO2 T02560183
94728KNYC NYC20250815182510808/15/25 18:25:31  5-MIN KNYC 152325Z AUTO VRB03KT 10SM CLR 26/18 A3017 -70 64 1200 VRB/03 RMK AO2 T02560183
94728KNYC NYC20250815183009808/15/25 18:30:31  5-MIN KNYC 152330Z AUTO 10SM CLR 26/18 A3017 -70 64 1200 M /M RMK AO2 T02560183
94728KNYC NYC20250815183510808/15/25 18:35:31  5-MIN KNYC 152335Z AUTO VRB04KT 10SM CLR 26/19 A3017 -70 66 1200 VRB/04 RMK AO2 T02560189
94728KNYC NYC20250815184009808/15/25 18:40:31  5-MIN KNYC 152340Z AUTO 10SM CLR 26/19 A3017 -70 66 1200 M /M RMK AO2 T02560189
94728KNYC NYC20250815184513308/15/25 18:45:31  5-MIN KNYC 152345Z AUTO VRB04KT 10SM CLR 25/19 A3017 -70 68 1100 VRB/04 RMK AO2 SLP206 T02500189 10317 20250 55002
94728KNYC NYC20250815185013308/15/25 18:50:31  5-MIN KNYC 152350Z AUTO VRB04KT 10SM CLR 25/19 A3017 -70 68 1100 VRB/04 RMK AO2 SLP206 T02500189 10317 20250 55002
94728KNYC NYC20250815185509808/15/25 18:55:31  5-MIN KNYC 152355Z AUTO 10SM CLR 25/19 A3017 -70 68 1100 M /M RMK AO2 T02500189
94728KNYC NYC20250815190010808/15/25 19:00:31  5-MIN KNYC 160000Z AUTO VRB04KT 10SM CLR 25/19 A3017 -70 68 1100 VRB/04 RMK AO2 T02500189
94728KNYC NYC20250815190509808/15/25 19:05:31  5-MIN KNYC 160005Z AUTO 10SM CLR 25/18 A3017 -70 66 1100 M /M RMK AO2 T02500183
94728KNYC NYC20250815191010808/15/25 19:10:31  5-MIN KNYC 160010Z AUTO VRB03KT 10SM CLR 25/18 A3017 -70 66 1100 VRB/03 RMK AO2 T02500183
94728KNYC NYC20250815191510808/15/25 19:15:31  5-MIN KNYC 160015Z AUTO 15004KT 10SM CLR 25/18 A3017 -70 66 1100 170/04 RMK AO2 T02500183
94728KNYC NYC20250815192010808/15/25 19:20:31  5-MIN KNYC 160020Z AUTO VRB03KT 10SM CLR 25/19 A3017 -70 68 1100 VRB/03 RMK AO2 T02500189
94728KNYC NYC20250815192510808/15/25 19:25:31  5-MIN KNYC 160025Z AUTO VRB03KT 10SM CLR 25/19 A3017 -70 68 1100 VRB/03 RMK AO2 T02500189
94728KNYC NYC20250815193010808/15/25 19:30:31  5-MIN KNYC 160030Z AUTO VRB04KT 10SM CLR 25/19 A3017 -70 68 1100 VRB/04 RMK AO2 T02500189
94728KNYC NYC20250815193509808/15/25 19:35:31  5-MIN KNYC 160035Z AUTO 10SM CLR 24/19 A3018 -70 71 1000 M /M RMK AO2 T02440189
94728KNYC NYC20250815194010808/15/25 19:40:31  5-MIN KNYC 160040Z AUTO VRB04KT 10SM CLR 25/19 A3018 -70 68 1100 VRB/04 RMK AO2 T02500189
94728KNYC NYC20250815194511508/15/25 19:45:31  5-MIN KNYC 160045Z AUTO VRB05KT 10SM CLR 25/19 A3018 -70 68 1100 VRB/05 RMK AO2 SLP209 T02500189
94728KNYC NYC20250815195010508/15/25 19:50:31  5-MIN KNYC 160050Z AUTO 10SM CLR 25/19 A3018 -80 68 1100 M /M RMK AO2 SLP209 T02500189
94728KNYC NYC20250816073011108/16/25 07:30:31  5-MIN KNYC 161230Z AUTO 00000KT 10SM SCT022 24/19 A3019 -90 76 1000 000/00 RMK AO2 T02390194
94728KNYC NYC20250816073511108/16/25 07:35:31  5-MIN KNYC 161235Z AUTO 00000KT 10SM SCT022 24/20 A3019 -90 78 1000 000/00 RMK AO2 T02390200
94728KNYC NYC20250816074011108/16/25 07:40:31  5-MIN KNYC 161240Z AUTO 20003KT 10SM BKN022 24/19 A3019 -90 73 1000 210/03 RMK AO2 T02440194
94728KNYC NYC20250816074511808/16/25 07:45:31  5-MIN KNYC 161245Z AUTO 00000KT 10SM BKN022 25/19 A3019 -80 71 1100 000/00 RMK AO2 SLP212 T02500194
94728KNYC NYC20250816075011808/16/25 07:50:31  5-MIN KNYC 161250Z AUTO 00000KT 10SM BKN022 25/19 A3019 -80 68 1100 000/00 RMK AO2 SLP211 T02500189
94728KNYC NYC20250816075511108/16/25 07:55:31  5-MIN KNYC 161255Z AUTO 00000KT 10SM BKN022 25/19 A3018 -80 71 1100 000/00 RMK AO2 T02500194
94728KNYC NYC20250816080011108/16/25 08:00:31  5-MIN KNYC 161300Z AUTO 00000KT 10SM OVC022 25/19 A3018 -80 71 1100 000/00 RMK AO2 T02500194
94728KNYC NYC20250816080511108/16/25 08:05:31  5-MIN KNYC 161305Z AUTO 00000KT 10SM OVC022 25/19 A3018 -80 71 1100 000/00 RMK AO2 T02500194
94728KNYC NYC20250816081011108/16/25 08:10:31  5-MIN KNYC 161310Z AUTO 00000KT 10SM OVC024 25/19 A3018 -80 71 1100 000/00 RMK AO2 T02500194
94728KNYC NYC20250816081511108/16/25 08:15:31  5-MIN KNYC 161315Z AUTO 00000KT 10SM OVC024 25/19 A3018 -80 71 1100 000/00 RMK AO2 T02500194
94728KNYC NYC20250816082011108/16/25 08:20:31  5-MIN KNYC 161320Z AUTO 00000KT 10SM OVC022 25/19 A3019 -80 71 1100 000/00 RMK AO2 T02500194
94728KNYC NYC20250816082511108/16/25 08:25:31  5-MIN KNYC 161325Z AUTO 00000KT 10SM OVC022 25/19 A3019 -80 71 1100 000/00 RMK AO2 T02500194
94728KNYC NYC20250816083011108/16/25 08:30:31  5-MIN KNYC 161330Z AUTO 00000KT 10SM OVC023 25/19 A3018 -80 71 1100 000/00 RMK AO2 T02500194
94728KNYC NYC20250816083511108/16/25 08:35:31  5-MIN KNYC 161335Z AUTO 00000KT 10SM OVC023 25/19 A3018 -80 71 1100 000/00 RMK AO2 T02500194
94728KNYC NYC20250816084011108/16/25 08:40:31  5-MIN KNYC 161340Z AUTO VRB03KT 10SM OVC023 25/19 A3018 -80 71 1100 VRB/03 RMK AO2 T02500194
94728KNYC NYC20250816084511808/16/25 08:45:31  5-MIN KNYC 161345Z AUTO 00000KT 10SM BKN024 26/19 A3018 -80 68 1200 000/00 RMK AO2 SLP209 T02560194
94728KNYC NYC20250816085011808/16/25 08:50:31  5-MIN KNYC 161350Z AUTO VRB03KT 10SM BKN024 26/20 A3018 -80 71 1200 VRB/03 RMK AO2 SLP209 T02560200
94728KNYC NYC20250816085511108/16/25 08:55:31  5-MIN KNYC 161355Z AUTO 13006KT 10SM SCT024 26/19 A3018 -70 68 1200 150/06 RMK AO2 T02560194
94728KNYC NYC20250816090011108/16/25 09:00:31  5-MIN KNYC 161400Z AUTO VRB03KT 10SM FEW024 26/19 A3017 -70 68 1200 VRB/03 RMK AO2 T02560194
94728KNYC NYC20250816090511108/16/25 09:05:31  5-MIN KNYC 161405Z AUTO VRB03KT 10SM FEW024 26/19 A3017 -70 68 1200 VRB/03 RMK AO2 T02560194
94728KNYC NYC20250816091009808/16/25 09:10:31  5-MIN KNYC 161410Z AUTO 10SM CLR 26/19 A3017 -70 66 1200 M /M RMK AO2 T02560189
94728KNYC NYC20250816091510808/16/25 09:15:31  5-MIN KNYC 161415Z AUTO 00000KT 10SM CLR 26/19 A3017 -70 64 1200 000/00 RMK AO2 T02610189
94728KNYC NYC20250816092010808/16/25 09:20:31  5-MIN KNYC 161420Z AUTO VRB03KT 10SM CLR 26/19 A3018 -70 66 1200 VRB/03 RMK AO2 T02610194
94728KNYC NYC20250816092511108/16/25 09:25:31  5-MIN KNYC 161425Z AUTO VRB04KT 10SM SCT065 26/19 A3018 -70 68 1200 VRB/04 RMK AO2 T02560194
94728KNYC NYC20250816093010108/16/25 09:30:31  5-MIN KNYC 161430Z AUTO 10SM SCT065 26/19 A3018 -70 66 1200 M /M RMK AO2 T02610194
94728KNYC NYC20250816093511808/16/25 09:35:31  5-MIN KNYC 161435Z AUTO 21006KT 10SM FEW025 BKN065 26/19 A3018 -70 68 1200 220/06 RMK AO2 T02560194
94728KNYC NYC20250816094011808/16/25 09:40:31  5-MIN KNYC 161440Z AUTO VRB03KT 10SM FEW025 BKN065 26/19 A3018 -80 68 1200 VRB/03 RMK AO2 T02560194
94728KNYC NYC20250816094513108/16/25 09:45:31  5-MIN KNYC 161445Z AUTO 00000KT 10SM FEW027 BKN065 26/19 A3018 -80 66 1200 000/00 RMK AO2 SLP210 T02560189 58002
94728KNYC NYC20250816095012108/16/25 09:50:31  5-MIN KNYC 161450Z AUTO 10SM FEW029 OVC065 26/19 A3018 -80 68 1200 M /M RMK AO2 SLP209 T02560194 58002
94728KNYC NYC20250816095511808/16/25 09:55:31  5-MIN KNYC 161455Z AUTO 00000KT 10SM FEW029 OVC065 26/19 A3018 -80 68 1200 000/00 RMK AO2 T02560194
94728KNYC NYC20250816100011808/16/25 10:00:31  5-MIN KNYC 161500Z AUTO VRB03KT 10SM FEW029 BKN070 26/19 A3018 -80 68 1200 VRB/03 RMK AO2 T02560194
94728KNYC NYC20250816100510808/16/25 10:05:31  5-MIN KNYC 161505Z AUTO 10SM FEW029 BKN070 26/19 A3018 -80 66 1200 M /M RMK AO2 T02610194
94728KNYC NYC20250816101011808/16/25 10:10:31  5-MIN KNYC 161510Z AUTO VRB03KT 10SM SCT029 BKN065 27/19 A3018 -70 62 1300 VRB/03 RMK AO2 T02670189
94728KNYC NYC20250816101511808/16/25 10:15:31  5-MIN KNYC 161515Z AUTO 14005KT 10SM SCT027 BKN070 26/19 A3018 -70 64 1200 150/05 RMK AO2 T02610189
94728KNYC NYC20250816102011808/16/25 10:20:31  5-MIN KNYC 161520Z AUTO VRB03KT 10SM SCT027 BKN070 26/19 A3018 -70 66 1200 VRB/03 RMK AO2 T02610194
94728KNYC NYC20250816102512508/16/25 10:25:31  5-MIN KNYC 161525Z AUTO VRB04KT 10SM SCT027 BKN070 BKN090 26/19 A3018 -80 66 1200 VRB/04 RMK AO2 T02610194
94728KNYC NYC20250816103012508/16/25 10:30:31  5-MIN KNYC 161530Z AUTO VRB03KT 10SM BKN027 BKN070 BKN090 27/19 A3018 -70 62 1300 VRB/03 RMK AO2 T02670189
94728KNYC NYC20250816103511808/16/25 10:35:31  5-MIN KNYC 161535Z AUTO VRB03KT 10SM BKN027 BKN090 27/19 A3018 -70 62 1300 VRB/03 RMK AO2 T02670189
94728KNYC NYC20250816104011808/16/25 10:40:31  5-MIN KNYC 161540Z AUTO VRB03KT 10SM SCT027 BKN090 27/19 A3017 -70 62 1300 VRB/03 RMK AO2 T02670189
94728KNYC NYC20250816104512508/16/25 10:45:31  5-MIN KNYC 161545Z AUTO 00000KT 10SM FEW027 BKN090 27/19 A3017 -70 62 1300 000/00 RMK AO2 SLP206 T02670189
94728KNYC NYC20250816105012508/16/25 10:50:31  5-MIN KNYC 161550Z AUTO 00000KT 10SM SCT027 BKN090 27/19 A3017 -70 60 1400 000/00 RMK AO2 SLP206 T02720189
94728KNYC NYC20250816105511808/16/25 10:55:31  5-MIN KNYC 161555Z AUTO 00000KT 10SM SCT029 BKN090 27/19 A3017 -70 62 1300 000/00 RMK AO2 T02670189
94728KNYC NYC20250816110011808/16/25 11:00:31  5-MIN KNYC 161600Z AUTO 00000KT 10SM SCT029 BKN090 27/19 A3017 -60 62 1300 000/00 RMK AO2 T02670189
94728KNYC NYC20250816110511808/16/25 11:05:31  5-MIN KNYC 161605Z AUTO 00000KT 10SM SCT029 SCT090 28/19 A3017 -60 58 1400 000/00 RMK AO2 T02780189
94728KNYC NYC20250816111011808/16/25 11:10:31  5-MIN KNYC 161610Z AUTO 00000KT 10SM SCT029 SCT075 28/19 A3016 -60 58 1400 000/00 RMK AO2 T02780189
94728KNYC NYC20250816111511808/16/25 11:15:31  5-MIN KNYC 161615Z AUTO 00000KT 10SM SCT029 SCT075 28/19 A3016 -50 58 1400 000/00 RMK AO2 T02780189
94728KNYC NYC20250816112011808/16/25 11:20:31  5-MIN KNYC 161620Z AUTO 00000KT 10SM FEW029 SCT075 28/19 A3016 -50 60 1400 000/00 RMK AO2 T02780194
94728KNYC NYC20250816112511808/16/25 11:25:31  5-MIN KNYC 161625Z AUTO VRB04KT 10SM FEW029 BKN075 28/19 A3016 -50 60 1400 VRB/04 RMK AO2 T02780194
94728KNYC NYC20250816113011108/16/25 11:30:31  5-MIN KNYC 161630Z AUTO 00000KT 10SM BKN075 27/19 A3015 -50 60 1400 000/00 RMK AO2 T02720189
94728KNYC NYC20250816113511808/16/25 11:35:31  5-MIN KNYC 161635Z AUTO VRB04KT 10SM FEW030 SCT075 27/19 A3015 -50 62 1400 VRB/04 RMK AO2 T02720194
94728KNYC NYC20250816114011808/16/25 11:40:31  5-MIN KNYC 161640Z AUTO 00000KT 10SM FEW030 SCT075 27/19 A3015 -50 62 1400 000/00 RMK AO2 T02720194
94728KNYC NYC20250816114511508/16/25 11:45:31  5-MIN KNYC 161645Z AUTO 10SM FEW030 SCT075 28/19 A3015 -50 58 1400 M /M RMK AO2 SLP200 T02780189
94728KNYC NYC20250816115012508/16/25 11:50:31  5-MIN KNYC 161650Z AUTO VRB03KT 10SM FEW030 SCT075 28/19 A3015 -50 60 1400 VRB/03 RMK AO2 SLP199 T02780194
94728KNYC NYC20250816115511108/16/25 11:55:31  5-MIN KNYC 161655Z AUTO 00000KT 10SM FEW030 28/19 A3015 -50 58 1400 000/00 RMK AO2 T02780189
94728KNYC NYC20250816120011108/16/25 12:00:31  5-MIN KNYC 161700Z AUTO 15003KT 10SM FEW030 28/19 A3015 -50 56 1500 160/03 RMK AO2 T02830189
94728KNYC NYC20250816120511108/16/25 12:05:31  5-MIN KNYC 161705Z AUTO VRB03KT 10SM FEW030 28/19 A3015 -50 58 1500 VRB/03 RMK AO2 T02780189
94728KNYC NYC20250816121011108/16/25 12:10:31  5-MIN KNYC 161710Z AUTO VRB05KT 10SM FEW032 28/19 A3014 -40 60 1500 VRB/05 RMK AO2 T02780194
94728KNYC NYC20250816121511108/16/25 12:15:31  5-MIN KNYC 161715Z AUTO VRB04KT 10SM SCT032 28/19 A3014 -40 58 1500 VRB/04 RMK AO2 T02780189
94728KNYC NYC20250816122011108/16/25 12:20:31  5-MIN KNYC 161720Z AUTO 14007KT 10SM FEW032 28/19 A3014 -40 60 1500 150/07 RMK AO2 T02780194
94728KNYC NYC20250816122511108/16/25 12:25:31  5-MIN KNYC 161725Z AUTO VRB05KT 10SM SCT032 27/19 A3014 -40 60 1400 VRB/05 RMK AO2 T02720189
94728KNYC NYC20250816123011108/16/25 12:30:31  5-MIN KNYC 161730Z AUTO 13008KT 10SM FEW032 28/19 A3014 -40 60 1500 140/08 RMK AO2 T02780194
94728KNYC NYC20250816123511108/16/25 12:35:31  5-MIN KNYC 161735Z AUTO VRB06KT 10SM FEW032 28/19 A3013 -30 56 1500 VRB/06 RMK AO2 T02830189
94728KNYC NYC20250816124011808/16/25 12:40:31  5-MIN KNYC 161740Z AUTO 15005KT 10SM FEW030 FEW035 28/19 A3013 -30 58 1500 160/05 RMK AO2 T02780189
94728KNYC NYC20250816124513608/16/25 12:45:31  5-MIN KNYC 161745Z AUTO VRB06KT 10SM FEW028 28/19 A3013 -30 60 1500 VRB/06 RMK AO2 SLP193 T02780194 10283 20239 55004
94728KNYC NYC20250816125013608/16/25 12:50:31  5-MIN KNYC 161750Z AUTO VRB05KT 10SM FEW028 28/19 A3013 -30 58 1500 VRB/05 RMK AO2 SLP193 T02830194 10283 20239 55004
94728KNYC NYC20250816125509808/16/25 12:55:31  5-MIN KNYC 161755Z AUTO 10SM CLR 28/19 A3013 -30 58 1500 M /M RMK AO2 T02830194
94728KNYC NYC20250816130010808/16/25 13:00:31  5-MIN KNYC 161800Z AUTO VRB03KT 10SM CLR 28/19 A3013 -30 58 1500 VRB/03 RMK AO2 T02830194
94728KNYC NYC20250816130510108/16/25 13:05:31  5-MIN KNYC 161805Z AUTO 10SM FEW031 28/19 A3013 -30 56 1500 M /M RMK AO2 T02830189
94728KNYC NYC20250816131011108/16/25 13:10:31  5-MIN KNYC 161810Z AUTO VRB05KT 10SM SCT031 29/19 A3013 -30 54 1600 VRB/05 RMK AO2 T02890189
94728KNYC NYC20250816131510108/16/25 13:15:31  5-MIN KNYC 161815Z AUTO 10SM SCT031 28/19 A3013 -30 60 1500 M /M RMK AO2 T02780194
94728KNYC NYC20250816132011108/16/25 13:20:31  5-MIN KNYC 161820Z AUTO 00000KT 10SM SCT031 28/19 A3013 -30 58 1500 000/00 RMK AO2 T02830194
94728KNYC NYC20250816132510108/16/25 13:25:31  5-MIN KNYC 161825Z AUTO 10SM FEW031 28/20 A3012 -20 60 1500 M /M RMK AO2 T02830200
94728KNYC NYC20250816133011108/16/25 13:30:31  5-MIN KNYC 161830Z AUTO VRB03KT 10SM FEW031 28/19 A3012 -20 60 1500 VRB/03 RMK AO2 T02780194
94728KNYC NYC20250816133510108/16/25 13:35:31  5-MIN KNYC 161835Z AUTO 10SM FEW031 28/19 A3012 -20 60 1500 M /M RMK AO2 T02780194
94728KNYC NYC20250816134012708/16/25 13:40:31  5-MIN KNYC 161840Z AUTO 16007KT 110V190 10SM FEW030 28/19 A3012 -20 60 1500 170/07 120V200 RMK AO2 T02780194
94728KNYC NYC20250816134511508/16/25 13:45:31  5-MIN KNYC 161845Z AUTO VRB06KT 10SM CLR 28/19 A3012 -20 60 1500 VRB/06 RMK AO2 SLP190 T02780194
94728KNYC NYC20250816135011508/16/25 13:50:31  5-MIN KNYC 161850Z AUTO VRB06KT 10SM CLR 28/19 A3012 -20 56 1500 VRB/06 RMK AO2 SLP190 T02830189
94728KNYC NYC20250816135511408/16/25 13:55:31  5-MIN KNYC 161855Z AUTO VRB03G14KT 10SM CLR 28/19 A3012 -20 56 1500 VRB/03G14 RMK AO2 T02830189
94728KNYC NYC20250816140010808/16/25 14:00:31  5-MIN KNYC 161900Z AUTO 15005KT 10SM CLR 28/19 A3012 -20 58 1500 170/05 RMK AO2 T02780189
94728KNYC NYC20250816140510808/16/25 14:05:31  5-MIN KNYC 161905Z AUTO VRB04KT 10SM CLR 28/19 A3012 -20 58 1500 VRB/04 RMK AO2 T02830194
94728KNYC NYC20250816141010808/16/25 14:10:31  5-MIN KNYC 161910Z AUTO 15004KT 10SM CLR 28/19 A3011 -20 58 1500 160/04 RMK AO2 T02830194
94728KNYC NYC20250816141510808/16/25 14:15:31  5-MIN KNYC 161915Z AUTO VRB05KT 10SM CLR 28/19 A3011 -10 56 1600 VRB/05 RMK AO2 T02830189
94728KNYC NYC20250816142009808/16/25 14:20:31  5-MIN KNYC 161920Z AUTO 10SM CLR 28/19 A3011 -10 58 1600 M /M RMK AO2 T02830194
94728KNYC NYC20250816142510808/16/25 14:25:31  5-MIN KNYC 161925Z AUTO VRB04KT 10SM CLR 28/19 A3011 -10 56 1600 VRB/04 RMK AO2 T02830189
94728KNYC NYC20250816143009808/16/25 14:30:31  5-MIN KNYC 161930Z AUTO 10SM CLR 28/19 A3011 -10 58 1600 M /M RMK AO2 T02830194
94728KNYC NYC20250816143510808/16/25 14:35:31  5-MIN KNYC 161935Z AUTO VRB03KT 10SM CLR 28/19 A3011 -10 60 1500 VRB/03 RMK AO2 T02780194
94728KNYC NYC20250816144010808/16/25 14:40:31  5-MIN KNYC 161940Z AUTO 14004KT 10SM CLR 28/19 A3011 -10 60 1500 150/04 RMK AO2 T02780194
94728KNYC NYC20250816144511508/16/25 14:45:31  5-MIN KNYC 161945Z AUTO 00000KT 10SM CLR 28/19 A3011 -10 60 1500 000/00 RMK AO2 SLP185 T02780194
94728KNYC NYC20250816145010508/16/25 14:50:31  5-MIN KNYC 161950Z AUTO 10SM CLR 28/19 A3011 -10 60 1500 M /M RMK AO2 SLP185 T02780194
94728KNYC NYC20250816145510808/16/25 14:55:31  5-MIN KNYC 161955Z AUTO VRB03KT 10SM CLR 28/19 A3011 -10 60 1500 VRB/03 RMK AO2 T02780194
94728KNYC NYC20250816150010808/16/25 15:00:31  5-MIN KNYC 162000Z AUTO 00000KT 10SM CLR 28/19 A3010 -10 60 1500 000/00 RMK AO2 T02780194
94728KNYC NYC20250816150509808/16/25 15:05:31  5-MIN KNYC 162005Z AUTO 10SM CLR 28/19 A3010 -10 60 1500 M /M RMK AO2 T02780194
94728KNYC NYC20250816151009608/16/25 15:10:31  5-MIN KNYC 162010Z AUTO 10SM CLR 28/19 A3010 0 58 1500 M /M RMK AO2 T02780189
94728KNYC NYC20250816151510608/16/25 15:15:31  5-MIN KNYC 162015Z AUTO VRB03KT 10SM CLR 27/19 A3010 0 60 1400 VRB/03 RMK AO2 T02720189
94728KNYC NYC20250816152010608/16/25 15:20:31  5-MIN KNYC 162020Z AUTO 00000KT 10SM CLR 28/19 A3009 0 60 1500 000/00 RMK AO2 T02780194
94728KNYC NYC20250816152509608/16/25 15:25:31  5-MIN KNYC 162025Z AUTO 10SM CLR 27/19 A3009 0 62 1400 M /M RMK AO2 T02720194
94728KNYC NYC20250816153010608/16/25 15:30:31  5-MIN KNYC 162030Z AUTO VRB04KT 10SM CLR 27/19 A3009 0 62 1400 VRB/04 RMK AO2 T02720194
94728KNYC NYC20250816153509608/16/25 15:35:31  5-MIN KNYC 162035Z AUTO 10SM CLR 27/19 A3009 0 62 1500 M /M RMK AO2 T02720194
94728KNYC NYC20250816154010608/16/25 15:40:31  5-MIN KNYC 162040Z AUTO VRB03KT 10SM CLR 27/19 A3009 0 60 1500 VRB/03 RMK AO2 T02720189
94728KNYC NYC20250816154511908/16/25 15:45:31  5-MIN KNYC 162045Z AUTO VRB03KT 10SM CLR 27/19 A3009 0 62 1500 VRB/03 RMK AO2 SLP180 T02720194 58017
94728KNYC NYC20250816155011908/16/25 15:50:31  5-MIN KNYC 162050Z AUTO VRB04KT 10SM CLR 27/19 A3009 0 62 1500 VRB/04 RMK AO2 SLP179 T02720194 58017
94728KNYC NYC20250816155509608/16/25 15:55:31  5-MIN KNYC 162055Z AUTO 10SM CLR 27/19 A3009 0 62 1500 M /M RMK AO2 T02720194
94728KNYC NYC20250816160010608/16/25 16:00:31  5-MIN KNYC 162100Z AUTO 17005KT 10SM CLR 27/19 A3009 0 62 1500 190/05 RMK AO2 T02720194
94728KNYC NYC20250816160510608/16/25 16:05:31  5-MIN KNYC 162105Z AUTO 00000KT 10SM CLR 27/19 A3009 0 62 1500 000/00 RMK AO2 T02720194
94728KNYC NYC20250816161009608/16/25 16:10:31  5-MIN KNYC 162110Z AUTO 10SM CLR 27/19 A3009 0 62 1500 M /M RMK AO2 T02720194
94728KNYC NYC20250816161510708/16/25 16:15:31  5-MIN KNYC 162115Z AUTO VRB03KT 10SM CLR 27/19 A3008 10 64 1400 VRB/03 RMK AO2 T02670194
94728KNYC NYC20250816162009708/16/25 16:20:31  5-MIN KNYC 162120Z AUTO 10SM CLR 27/19 A3008 10 64 1400 M /M RMK AO2 T02670194
94728KNYC NYC20250816162510708/16/25 16:25:31  5-MIN KNYC 162125Z AUTO VRB03KT 10SM CLR 27/19 A3008 10 64 1400 VRB/03 RMK AO2 T02670194
94728KNYC NYC20250816163010708/16/25 16:30:31  5-MIN KNYC 162130Z AUTO VRB05KT 10SM CLR 27/19 A3007 20 62 1400 VRB/05 RMK AO2 T02670189
94728KNYC NYC20250816163510708/16/25 16:35:31  5-MIN KNYC 162135Z AUTO 15004KT 10SM CLR 27/19 A3007 20 62 1400 160/04 RMK AO2 T02670189
94728KNYC NYC20250816164010708/16/25 16:40:31  5-MIN KNYC 162140Z AUTO 00000KT 10SM CLR 27/19 A3008 10 62 1400 000/00 RMK AO2 T02670189
94728KNYC NYC20250816164510408/16/25 16:45:31  5-MIN KNYC 162145Z AUTO 10SM CLR 27/19 A3008 10 62 1500 M /M RMK AO2 SLP176 T02720194
94728KNYC NYC20250816165010408/16/25 16:50:31  5-MIN KNYC 162150Z AUTO 10SM CLR 27/19 A3008 10 60 1500 M /M RMK AO2 SLP177 T02720189
94728KNYC NYC20250816165510708/16/25 16:55:31  5-MIN KNYC 162155Z AUTO VRB06KT 10SM CLR 27/19 A3008 10 60 1500 VRB/06 RMK AO2 T02720189
94728KNYC NYC20250816170010708/16/25 17:00:31  5-MIN KNYC 162200Z AUTO VRB06KT 10SM CLR 27/19 A3008 10 60 1500 VRB/06 RMK AO2 T02720189
94728KNYC NYC20250816170510708/16/25 17:05:31  5-MIN KNYC 162205Z AUTO VRB05KT 10SM CLR 27/19 A3008 10 62 1400 VRB/05 RMK AO2 T02670189
94728KNYC NYC20250816171010708/16/25 17:10:31  5-MIN KNYC 162210Z AUTO VRB05KT 10SM CLR 27/19 A3008 20 62 1400 VRB/05 RMK AO2 T02670189
94728KNYC NYC20250816171510708/16/25 17:15:31  5-MIN KNYC 162215Z AUTO VRB04KT 10SM CLR 27/19 A3008 10 62 1400 VRB/04 RMK AO2 T02670189
94728KNYC NYC20250816172011008/16/25 17:20:31  5-MIN KNYC 162220Z AUTO VRB04KT 10SM FEW095 26/19 A3007 20 66 1300 VRB/04 RMK AO2 T02610194
94728KNYC NYC20250816172511008/16/25 17:25:31  5-MIN KNYC 162225Z AUTO VRB03KT 10SM FEW100 26/19 A3007 20 66 1300 VRB/03 RMK AO2 T02610194
94728KNYC NYC20250816173011008/16/25 17:30:31  5-MIN KNYC 162230Z AUTO 13006KT 10SM SCT100 27/19 A3007 20 62 1400 150/06 RMK AO2 T02670189
94728KNYC NYC20250816173511008/16/25 17:35:31  5-MIN KNYC 162235Z AUTO VRB04KT 10SM FEW100 27/19 A3008 10 62 1400 VRB/04 RMK AO2 T02670189
94728KNYC NYC20250816174011008/16/25 17:40:31  5-MIN KNYC 162240Z AUTO 00000KT 10SM FEW100 26/19 A3008 20 64 1300 000/00 RMK AO2 T02610189
94728KNYC NYC20250816174510708/16/25 17:45:31  5-MIN KNYC 162245Z AUTO 10SM FEW100 26/19 A3007 20 66 1300 M /M RMK AO2 SLP173 T02610194
94728KNYC NYC20250816175011708/16/25 17:50:31  5-MIN KNYC 162250Z AUTO VRB03KT 10SM FEW100 26/19 A3007 20 66 1400 VRB/03 RMK AO2 SLP171 T02610194
94728KNYC NYC20250816175510008/16/25 17:55:31  5-MIN KNYC 162255Z AUTO 10SM FEW100 26/19 A3007 20 66 1400 M /M RMK AO2 T02610194
94728KNYC NYC20250816180010708/16/25 18:00:31  5-MIN KNYC 162300Z AUTO VRB04KT 10SM CLR 27/19 A3007 20 64 1400 VRB/04 RMK AO2 T02670194
94728KNYC NYC20250816180509708/16/25 18:05:31  5-MIN KNYC 162305Z AUTO 10SM CLR 26/19 A3007 20 66 1300 M /M RMK AO2 T02610194
94728KNYC NYC20250816181010708/16/25 18:10:31  5-MIN KNYC 162310Z AUTO VRB06KT 10SM CLR 26/19 A3007 20 64 1300 VRB/06 RMK AO2 T02610189
94728KNYC NYC20250816181510708/16/25 18:15:31  5-MIN KNYC 162315Z AUTO VRB05KT 10SM CLR 26/19 A3007 20 64 1300 VRB/05 RMK AO2 T02610189
94728KNYC NYC20250816182010708/16/25 18:20:31  5-MIN KNYC 162320Z AUTO VRB03KT 10SM CLR 26/19 A3007 20 64 1300 VRB/03 RMK AO2 T02610189
94728KNYC NYC20250816182510708/16/25 18:25:31  5-MIN KNYC 162325Z AUTO VRB04KT 10SM CLR 26/19 A3008 20 64 1300 VRB/04 RMK AO2 T02610189
94728KNYC NYC20250816183010708/16/25 18:30:31  5-MIN KNYC 162330Z AUTO VRB03KT 10SM CLR 26/19 A3007 20 66 1300 VRB/03 RMK AO2 T02560189
94728KNYC NYC20250816183509708/16/25 18:35:31  5-MIN KNYC 162335Z AUTO 10SM CLR 26/19 A3007 20 66 1300 M /M RMK AO2 T02560189
94728KNYC NYC20250816184010708/16/25 18:40:31  5-MIN KNYC 162340Z AUTO VRB05KT 10SM CLR 26/19 A3008 20 66 1300 VRB/05 RMK AO2 T02560189
94728KNYC NYC20250816184513208/16/25 18:45:31  5-MIN KNYC 162345Z AUTO VRB04KT 10SM CLR 26/19 A3008 10 66 1300 VRB/04 RMK AO2 SLP174 T02560189 10289 20256 58014
94728KNYC NYC20250816185013208/16/25 18:50:31  5-MIN KNYC 162350Z AUTO VRB03KT 10SM CLR 25/19 A3007 20 68 1200 VRB/03 RMK AO2 SLP173 T02500189 10289 20250 58014
94728KNYC NYC20250816185510708/16/25 18:55:31  5-MIN KNYC 162355Z AUTO VRB03KT 10SM CLR 25/19 A3007 20 68 1200 VRB/03 RMK AO2 T02500189
94728KNYC NYC20250816190010708/16/25 19:00:31  5-MIN KNYC 170000Z AUTO 00000KT 10SM CLR 25/19 A3007 20 68 1200 000/00 RMK AO2 T02500189
94728KNYC NYC20250816190509708/16/25 19:05:31  5-MIN KNYC 170005Z AUTO 10SM CLR 25/19 A3007 20 68 1200 M /M RMK AO2 T02500189
94728KNYC NYC20250816191010708/16/25 19:10:31  5-MIN KNYC 170010Z AUTO 00000KT 10SM CLR 24/19 A3007 20 71 1200 000/00 RMK AO2 T02440189
94728KNYC NYC20250816191510708/16/25 19:15:31  5-MIN KNYC 170015Z AUTO 00000KT 10SM CLR 25/19 A3007 20 68 1200 000/00 RMK AO2 T02500189
94728KNYC NYC20250816192009708/16/25 19:20:31  5-MIN KNYC 170020Z AUTO 10SM CLR 25/19 A3007 20 68 1200 M /M RMK AO2 T02500189
94728KNYC NYC20250816192510708/16/25 19:25:31  5-MIN KNYC 170025Z AUTO 17003KT 10SM CLR 24/19 A3007 20 71 1200 190/03 RMK AO2 T02440189
94728KNYC NYC20250816193010708/16/25 19:30:31  5-MIN KNYC 170030Z AUTO 16005KT 10SM CLR 24/18 A3007 20 68 1200 170/05 RMK AO2 T02440183
94728KNYC NYC20250816193510708/16/25 19:35:31  5-MIN KNYC 170035Z AUTO VRB03KT 10SM CLR 24/18 A3008 10 68 1200 VRB/03 RMK AO2 T02440183
94728KNYC NYC20250816194009708/16/25 19:40:31  5-MIN KNYC 170040Z AUTO 10SM CLR 24/18 A3008 20 66 1200 M /M RMK AO2 T02440178
94728KNYC NYC20250816194510408/16/25 19:45:31  5-MIN KNYC 170045Z AUTO 10SM CLR 24/18 A3007 20 66 1200 M /M RMK AO2 SLP173 T02440178
94728KNYC NYC20250816195011408/16/25 19:50:31  5-MIN KNYC 170050Z AUTO 16004KT 10SM CLR 24/18 A3007 20 68 1200 180/04 RMK AO2 SLP172 T02440183
94728KNYC NYC20250816195510708/16/25 19:55:31  5-MIN KNYC 170055Z AUTO VRB04KT 10SM CLR 24/18 A3007 20 68 1200 VRB/04 RMK AO2 T02440183
94728KNYC NYC20250816200009708/16/25 20:00:31  5-MIN KNYC 170100Z AUTO 10SM CLR 24/18 A3006 30 68 1200 M /M RMK AO2 T02440183
94728KNYC NYC20250816200510708/16/25 20:05:31  5-MIN KNYC 170105Z AUTO VRB04KT 10SM CLR 24/18 A3007 20 68 1200 VRB/04 RMK AO2 T02440183
94728KNYC NYC20250816201009708/16/25 20:10:31  5-MIN KNYC 170110Z AUTO 10SM CLR 24/18 A3006 30 68 1200 M /M RMK AO2 T02440183
94728KNYC NYC20250816201510708/16/25 20:15:31  5-MIN KNYC 170115Z AUTO 15004KT 10SM CLR 24/18 A3006 30 68 1200 170/04 RMK AO2 T02440183
94728KNYC NYC20250816202010708/16/25 20:20:31  5-MIN KNYC 170120Z AUTO VRB04KT 10SM CLR 24/19 A3006 30 71 1200 VRB/04 RMK AO2 T02440189
94728KNYC NYC20250816202509708/16/25 20:25:31  5-MIN KNYC 170125Z AUTO 10SM CLR 24/18 A3006 30 68 1200 M /M RMK AO2 T02440183
94728KNYC NYC20250816203010708/16/25 20:30:31  5-MIN KNYC 170130Z AUTO VRB03KT 10SM CLR 24/18 A3006 30 68 1200 VRB/03 RMK AO2 T02440183
94728KNYC NYC20250816203509708/16/25 20:35:31  5-MIN KNYC 170135Z AUTO 10SM CLR 24/18 A3006 30 68 1200 M /M RMK AO2 T02440183
94728KNYC NYC20250816204009708/16/25 20:40:31  5-MIN KNYC 170140Z AUTO 10SM CLR 24/19 A3006 30 73 1100 M /M RMK AO2 T02390189
94728KNYC NYC20250816204510408/16/25 20:45:31  5-MIN KNYC 170145Z AUTO 10SM CLR 24/18 A3006 30 68 1200 M /M RMK AO2 SLP169 T02440183
94728KNYC NYC20250816205011408/16/25 20:50:31  5-MIN KNYC 170150Z AUTO 00000KT 10SM CLR 24/19 A3006 30 71 1200 000/00 RMK AO2 SLP169 T02440189
94728KNYC NYC20250816205510708/16/25 20:55:31  5-MIN KNYC 170155Z AUTO 19003KT 10SM CLR 24/19 A3006 30 73 1100 210/03 RMK AO2 T02390189
94728KNYC NYC20250816210010708/16/25 21:00:31  5-MIN KNYC 170200Z AUTO 00000KT 10SM CLR 24/19 A3006 30 73 1100 000/00 RMK AO2 T02390189
94728KNYC NYC20250816210509708/16/25 21:05:31  5-MIN KNYC 170205Z AUTO 10SM CLR 24/19 A3006 30 73 1100 M /M RMK AO2 T02390189
94728KNYC NYC20250816211010708/16/25 21:10:31  5-MIN KNYC 170210Z AUTO VRB03KT 10SM CLR 24/19 A3006 30 73 1100 VRB/03 RMK AO2 T02390189
94728KNYC NYC20250816211509708/16/25 21:15:31  5-MIN KNYC 170215Z AUTO 10SM CLR 24/19 A3006 30 73 1100 M /M RMK AO2 T02390189
94728KNYC NYC20250816212010708/16/25 21:20:31  5-MIN KNYC 170220Z AUTO 00000KT 10SM CLR 24/19 A3006 30 73 1100 000/00 RMK AO2 T02390189
94728KNYC NYC20250816212510708/16/25 21:25:31  5-MIN KNYC 170225Z AUTO 00000KT 10SM CLR 24/19 A3005 30 73 1100 000/00 RMK AO2 T02390189
94728KNYC NYC20250816213010708/16/25 21:30:31  5-MIN KNYC 170230Z AUTO VRB03KT 10SM CLR 24/19 A3005 30 73 1100 VRB/03 RMK AO2 T02390189
94728KNYC NYC20250816213510708/16/25 21:35:31  5-MIN KNYC 170235Z AUTO VRB04KT 10SM CLR 24/19 A3005 40 73 1100 VRB/04 RMK AO2 T02390189
94728KNYC NYC20250816214010708/16/25 21:40:31  5-MIN KNYC 170240Z AUTO VRB04KT 10SM CLR 24/19 A3005 40 73 1100 VRB/04 RMK AO2 T02390189
94728KNYC NYC20250816214512008/16/25 21:45:31  5-MIN KNYC 170245Z AUTO VRB03KT 10SM CLR 24/19 A3005 40 71 1200 VRB/03 RMK AO2 SLP166 T02440189 55006
94728KNYC NYC20250816215012308/16/25 21:50:31  5-MIN KNYC 170250Z AUTO VRB03KT 10SM FEW090 24/19 A3005 40 71 1200 VRB/03 RMK AO2 SLP165 T02440189 55006
94728KNYC NYC20250816215511008/16/25 21:55:31  5-MIN KNYC 170255Z AUTO 00000KT 10SM SCT090 24/19 A3005 40 71 1200 000/00 RMK AO2 T02440189
94728KNYC NYC20250816220010008/16/25 22:00:31  5-MIN KNYC 170300Z AUTO 10SM BKN090 24/19 A3005 40 73 1100 M /M RMK AO2 T02390189
94728KNYC NYC20250816220511008/16/25 22:05:31  5-MIN KNYC 170305Z AUTO 00000KT 10SM BKN090 24/19 A3005 40 73 1100 000/00 RMK AO2 T02390189
94728KNYC NYC20250816221011008/16/25 22:10:31  5-MIN KNYC 170310Z AUTO VRB03KT 10SM BKN090 24/19 A3005 30 73 1100 VRB/03 RMK AO2 T02390189
94728KNYC NYC20250816221511008/16/25 22:15:31  5-MIN KNYC 170315Z AUTO 00000KT 10SM BKN090 24/19 A3006 30 71 1200 000/00 RMK AO2 T02440189
94728KNYC NYC20250816222011008/16/25 22:20:31  5-MIN KNYC 170320Z AUTO VRB03KT 10SM OVC090 24/19 A3006 30 71 1200 VRB/03 RMK AO2 T02440189
94728KNYC NYC20250816222511008/16/25 22:25:31  5-MIN KNYC 170325Z AUTO 00000KT 10SM OVC085 24/19 A3006 30 71 1200 000/00 RMK AO2 T02440189
94728KNYC NYC20250816223011008/16/25 22:30:31  5-MIN KNYC 170330Z AUTO 00000KT 10SM OVC085 24/19 A3006 30 71 1200 000/00 RMK AO2 T02440189
94728KNYC NYC20250816223511008/16/25 22:35:31  5-MIN KNYC 170335Z AUTO 00000KT 10SM OVC085 24/19 A3006 30 71 1200 000/00 RMK AO2 T02440189
94728KNYC NYC20250816224011708/16/25 22:40:31  5-MIN KNYC 170340Z AUTO 00000KT 10SM FEW047 OVC085 24/19 A3006 30 71 1200 000/00 RMK AO2 T02440189
94728KNYC NYC20250816224512408/16/25 22:45:31  5-MIN KNYC 170345Z AUTO VRB03KT 10SM FEW047 OVC085 24/18 A3005 40 68 1200 VRB/03 RMK AO2 SLP167 T02440183
94728KNYC NYC20250816225012408/16/25 22:50:31  5-MIN KNYC 170350Z AUTO VRB03KT 10SM FEW047 OVC085 24/18 A3005 40 68 1200 VRB/03 RMK AO2 SLP166 T02440183
94728KNYC NYC20250816225510008/16/25 22:55:31  5-MIN KNYC 170355Z AUTO 10SM OVC085 24/18 A3005 40 68 1200 M /M RMK AO2 T02440183
94728KNYC NYC20250816230011008/16/25 23:00:31  5-MIN KNYC 170400Z AUTO VRB04KT 10SM OVC085 24/18 A3005 40 68 1200 VRB/04 RMK AO2 T02440183
94728KNYC NYC20250816230511008/16/25 23:05:31  5-MIN KNYC 170405Z AUTO 00000KT 10SM OVC090 24/18 A3005 40 68 1200 000/00 RMK AO2 T02440183
94728KNYC NYC20250816231011008/16/25 23:10:31  5-MIN KNYC 170410Z AUTO 20003KT 10SM BKN095 24/18 A3005 40 66 1200 210/03 RMK AO2 T02440178
94728KNYC NYC20250816231511008/16/25 23:15:31  5-MIN KNYC 170415Z AUTO 00000KT 10SM BKN095 24/18 A3005 40 68 1100 000/00 RMK AO2 T02390178
94728KNYC NYC20250816232011008/16/25 23:20:31  5-MIN KNYC 170420Z AUTO 00000KT 10SM SCT095 24/18 A3004 40 68 1100 000/00 RMK AO2 T02390178
94728KNYC NYC20250816232511008/16/25 23:25:31  5-MIN KNYC 170425Z AUTO VRB05KT 10SM SCT100 24/18 A3004 40 68 1100 VRB/05 RMK AO2 T02390178
94728KNYC NYC20250816233010008/16/25 23:30:31  5-MIN KNYC 170430Z AUTO 10SM FEW100 24/18 A3004 50 68 1100 M /M RMK AO2 T02390178
94728KNYC NYC20250816233511008/16/25 23:35:31  5-MIN KNYC 170435Z AUTO 22003KT 10SM FEW100 24/18 A3004 50 68 1100 240/03 RMK AO2 T02390178
94728KNYC NYC20250816234011008/16/25 23:40:31  5-MIN KNYC 170440Z AUTO VRB03KT 10SM FEW100 24/18 A3004 50 68 1100 VRB/03 RMK AO2 T02390178
94728KNYC NYC20250816234512708/16/25 23:45:31  5-MIN KNYC 170445Z AUTO 00000KT 10SM SCT100 24/18 A3004 50 68 1100 000/00 RMK AO2 SLP163 T02390178 402890233
94728KNYC NYC20250816235012708/16/25 23:50:31  5-MIN KNYC 170450Z AUTO VRB03KT 10SM BKN100 24/17 A3004 50 66 1100 VRB/03 RMK AO2 SLP162 T02390172 402890233
94728KNYC NYC20250816235511008/16/25 23:55:31  5-MIN KNYC 170455Z AUTO 00000KT 10SM BKN100 24/17 A3004 50 66 1100 000/00 RMK AO2 T02390172
94728KNYC NYC20250817000011008/17/25 00:00:31  5-MIN KNYC 170500Z AUTO VRB04KT 10SM BKN100 24/17 A3003 50 66 1100 VRB/04 RMK AO2 T02390172
94728KNYC NYC20250817000511008/17/25 00:05:31  5-MIN KNYC 170505Z AUTO VRB03KT 10SM BKN100 24/17 A3003 60 66 1100 VRB/03 RMK AO2 T02390172
94728KNYC NYC20250817001010008/17/25 00:10:31  5-MIN KNYC 170510Z AUTO 10SM SCT100 24/17 A3003 60 66 1100 M /M RMK AO2 T02390172
94728KNYC NYC20250817001511008/17/25 00:15:31  5-MIN KNYC 170515Z AUTO 00000KT 10SM FEW100 24/18 A3003 60 68 1100 000/00 RMK AO2 T02390178
94728KNYC NYC20250817002011008/17/25 00:20:31  5-MIN KNYC 170520Z AUTO VRB03KT 10SM FEW100 24/17 A3003 60 66 1100 VRB/03 RMK AO2 T02390172
94728KNYC NYC20250817002509708/17/25 00:25:31  5-MIN KNYC 170525Z AUTO 10SM CLR 23/17 A3003 60 68 1100 M /M RMK AO2 T02330172
94728KNYC NYC20250817003010708/17/25 00:30:31  5-MIN KNYC 170530Z AUTO VRB04KT 10SM CLR 23/18 A3003 60 70 1100 VRB/04 RMK AO2 T02330178
94728KNYC NYC20250817003510708/17/25 00:35:31  5-MIN KNYC 170535Z AUTO VRB03KT 10SM CLR 23/18 A3003 60 70 1100 VRB/03 RMK AO2 T02330178
94728KNYC NYC20250817004010708/17/25 00:40:31  5-MIN KNYC 170540Z AUTO VRB04KT 10SM CLR 23/18 A3003 60 70 1100 VRB/04 RMK AO2 T02330178
94728KNYC NYC20250817004513208/17/25 00:45:31  5-MIN KNYC 170545Z AUTO VRB03KT 10SM CLR 23/18 A3002 60 70 1100 VRB/03 RMK AO2 SLP157 T02330178 10250 20233 58008
94728KNYC NYC20250817005013208/17/25 00:50:31  5-MIN KNYC 170550Z AUTO 24005KT 10SM CLR 24/18 A3003 60 68 1100 250/05 RMK AO2 SLP157 T02390178 10250 20233 58008
94728KNYC NYC20250817005511708/17/25 00:55:31  5-MIN KNYC 170555Z AUTO 00000KT 10SM FEW080 SCT110 24/18 A3003 60 68 1100 000/00 RMK AO2 T02390178
94728KNYC NYC20250817010010708/17/25 01:00:31  5-MIN KNYC 170600Z AUTO 10SM FEW080 BKN110 24/18 A3003 60 68 1100 M /M RMK AO2 T02390178
94728KNYC NYC20250817010511708/17/25 01:05:31  5-MIN KNYC 170605Z AUTO 22005KT 10SM FEW080 BKN110 23/18 A3003 60 70 1100 240/05 RMK AO2 T02330178
94728KNYC NYC20250817011011708/17/25 01:10:31  5-MIN KNYC 170610Z AUTO VRB04KT 10SM FEW080 BKN110 24/18 A3003 60 68 1100 VRB/04 RMK AO2 T02390178
94728KNYC NYC20250817011511708/17/25 01:15:31  5-MIN KNYC 170615Z AUTO VRB04KT 10SM FEW080 BKN110 23/18 A3003 60 70 1100 VRB/04 RMK AO2 T02330178
94728KNYC NYC20250817012011708/17/25 01:20:31  5-MIN KNYC 170620Z AUTO VRB03KT 10SM FEW080 SCT110 23/18 A3002 60 73 1100 VRB/03 RMK AO2 T02330183
94728KNYC NYC20250817012510708/17/25 01:25:31  5-MIN KNYC 170625Z AUTO 10SM FEW080 SCT110 23/18 A3002 60 73 1100 M /M RMK AO2 T02330183
94728KNYC NYC20250817013011708/17/25 01:30:31  5-MIN KNYC 170630Z AUTO VRB05KT 10SM FEW080 FEW110 23/18 A3003 60 73 1100 VRB/05 RMK AO2 T02330183
94728KNYC NYC20250817013510708/17/25 01:35:31  5-MIN KNYC 170635Z AUTO VRB04KT 10SM CLR 23/18 A3003 60 70 1100 VRB/04 RMK AO2 T02330178
94728KNYC NYC20250817014011008/17/25 01:40:31  5-MIN KNYC 170640Z AUTO VRB04KT 10SM FEW100 23/18 A3003 60 73 1100 VRB/04 RMK AO2 T02330183
94728KNYC NYC20250817014511708/17/25 01:45:31  5-MIN KNYC 170645Z AUTO VRB04KT 10SM FEW100 23/18 A3002 60 70 1100 VRB/04 RMK AO2 SLP157 T02330178
94728KNYC NYC20250817015011708/17/25 01:50:31  5-MIN KNYC 170650Z AUTO VRB04KT 10SM FEW100 23/18 A3002 60 73 1100 VRB/04 RMK AO2 SLP157 T02330183
94728KNYC NYC20250817015510008/17/25 01:55:31  5-MIN KNYC 170655Z AUTO 10SM FEW100 23/18 A3002 70 73 1100 M /M RMK AO2 T02330183
94728KNYC NYC20250817020011008/17/25 02:00:31  5-MIN KNYC 170700Z AUTO VRB05KT 10SM FEW100 23/18 A3002 70 73 1100 VRB/05 RMK AO2 T02330183
94728KNYC NYC20250817020511008/17/25 02:05:31  5-MIN KNYC 170705Z AUTO 22003KT 10SM FEW100 23/18 A3001 70 73 1100 230/03 RMK AO2 T02330183
94728KNYC NYC20250817021011008/17/25 02:10:31  5-MIN KNYC 170710Z AUTO VRB03KT 10SM FEW100 23/18 A3001 70 73 1100 VRB/03 RMK AO2 T02330183
94728KNYC NYC20250817021510708/17/25 02:15:31  5-MIN KNYC 170715Z AUTO 20003KT 10SM CLR 23/18 A3001 80 73 1100 220/03 RMK AO2 T02330183
94728KNYC NYC20250817022010708/17/25 02:20:31  5-MIN KNYC 170720Z AUTO VRB03KT 10SM CLR 23/18 A3001 70 76 1000 VRB/03 RMK AO2 T02280183
94728KNYC NYC20250817022510708/17/25 02:25:31  5-MIN KNYC 170725Z AUTO 21003KT 10SM CLR 23/18 A3001 70 76 1000 220/03 RMK AO2 T02280183
94728KNYC NYC20250817023010708/17/25 02:30:31  5-MIN KNYC 170730Z AUTO 00000KT 10SM CLR 23/18 A3001 70 73 1100 000/00 RMK AO2 T02330183
94728KNYC NYC20250817023510708/17/25 02:35:31  5-MIN KNYC 170735Z AUTO VRB04KT 10SM CLR 23/18 A3001 80 73 1100 VRB/04 RMK AO2 T02330183
94728KNYC NYC20250817024009708/17/25 02:40:31  5-MIN KNYC 170740Z AUTO 10SM CLR 23/18 A3001 70 73 1100 M /M RMK AO2 T02330183
94728KNYC NYC20250817024511408/17/25 02:45:31  5-MIN KNYC 170745Z AUTO 00000KT 10SM CLR 23/18 A3001 80 73 1100 000/00 RMK AO2 SLP152 T02330183
94728KNYC NYC20250817025010408/17/25 02:50:31  5-MIN KNYC 170750Z AUTO 10SM CLR 23/18 A3001 80 73 1100 M /M RMK AO2 SLP151 T02330183
94728KNYC NYC20250817025509708/17/25 02:55:31  5-MIN KNYC 170755Z AUTO 10SM CLR 23/18 A3001 80 76 1000 M /M RMK AO2 T02280183
94728KNYC NYC20250817030011008/17/25 03:00:31  5-MIN KNYC 170800Z AUTO 24003KT 10SM FEW100 23/19 A3001 80 78 1000 250/03 RMK AO2 T02280189
94728KNYC NYC20250817030511008/17/25 03:05:31  5-MIN KNYC 170805Z AUTO VRB03KT 10SM FEW100 23/19 A3001 80 78 1000 VRB/03 RMK AO2 T02280189
94728KNYC NYC20250817031011008/17/25 03:10:31  5-MIN KNYC 170810Z AUTO 00000KT 10SM FEW100 23/19 A3001 80 76 1100 000/00 RMK AO2 T02330189
94728KNYC NYC20250817031511008/17/25 03:15:31  5-MIN KNYC 170815Z AUTO VRB03KT 10SM SCT100 23/19 A3000 80 76 1100 VRB/03 RMK AO2 T02330189
94728KNYC NYC20250817032011008/17/25 03:20:31  5-MIN KNYC 170820Z AUTO VRB03KT 10SM SCT100 23/19 A3000 80 78 1000 VRB/03 RMK AO2 T02280189
94728KNYC NYC20250817032510008/17/25 03:25:31  5-MIN KNYC 170825Z AUTO 10SM SCT100 23/19 A3000 80 78 1000 M /M RMK AO2 T02280189
94728KNYC NYC20250817033011008/17/25 03:30:31  5-MIN KNYC 170830Z AUTO VRB03KT 10SM FEW095 23/19 A3000 80 78 1100 VRB/03 RMK AO2 T02280189
94728KNYC NYC20250817033511008/17/25 03:35:31  5-MIN KNYC 170835Z AUTO 22004KT 10SM FEW095 23/19 A3000 80 78 1000 240/04 RMK AO2 T02280189
94728KNYC NYC20250817034011008/17/25 03:40:31  5-MIN KNYC 170840Z AUTO 22005KT 10SM FEW100 23/19 A3000 80 78 1000 230/05 RMK AO2 T02280189
94728KNYC NYC20250817034511008/17/25 03:45:31  5-MIN KNYC 170845Z AUTO 10SM CLR 23/19 A3000 80 78 1000 M /M RMK AO2 SLP149 T02280189 58008
94728KNYC NYC20250817035012008/17/25 03:50:31  5-MIN KNYC 170850Z AUTO VRB04KT 10SM CLR 23/19 A3000 80 78 1000 VRB/04 RMK AO2 SLP149 T02280189 58008
94728KNYC NYC20250817035510708/17/25 03:55:31  5-MIN KNYC 170855Z AUTO 00000KT 10SM CLR 23/19 A3000 80 81 1000 000/00 RMK AO2 T02280194
94728KNYC NYC20250817040009708/17/25 04:00:31  5-MIN KNYC 170900Z AUTO 10SM CLR 23/19 A3000 80 81 1000 M /M RMK AO2 T02280194
94728KNYC NYC20250817040510708/17/25 04:05:31  5-MIN KNYC 170905Z AUTO VRB03KT 10SM CLR 23/19 A3000 80 78 1100 VRB/03 RMK AO2 T02330194
94728KNYC NYC20250817041010708/17/25 04:10:31  5-MIN KNYC 170910Z AUTO VRB03KT 10SM CLR 23/19 A3000 90 81 1100 VRB/03 RMK AO2 T02280194
94728KNYC NYC20250817041510708/17/25 04:15:31  5-MIN KNYC 170915Z AUTO VRB04KT 10SM CLR 23/19 A3000 90 81 1100 VRB/04 RMK AO2 T02280194
94728KNYC NYC20250817042010708/17/25 04:20:31  5-MIN KNYC 170920Z AUTO VRB04KT 10SM CLR 23/19 A3000 90 81 1100 VRB/04 RMK AO2 T02280194
94728KNYC NYC20250817042510708/17/25 04:25:31  5-MIN KNYC 170925Z AUTO VRB03KT 10SM CLR 23/19 A3000 90 81 1100 VRB/03 RMK AO2 T02280194
94728KNYC NYC20250817043010708/17/25 04:30:31  5-MIN KNYC 170930Z AUTO VRB04KT 10SM CLR 23/19 A3000 90 81 1100 VRB/04 RMK AO2 T02280194
94728KNYC NYC20250817043510708/17/25 04:35:31  5-MIN KNYC 170935Z AUTO VRB03KT 10SM CLR 23/19 A2999 90 81 1100 VRB/03 RMK AO2 T02280194
94728KNYC NYC20250817044010708/17/25 04:40:31  5-MIN KNYC 170940Z AUTO 00000KT 10SM CLR 23/19 A3000 90 81 1100 000/00 RMK AO2 T02280194
94728KNYC NYC20250817044511408/17/25 04:45:31  5-MIN KNYC 170945Z AUTO 00000KT 10SM CLR 23/19 A3000 90 81 1100 000/00 RMK AO2 SLP147 T02280194
94728KNYC NYC20250817045011408/17/25 04:50:31  5-MIN KNYC 170950Z AUTO VRB03KT 10SM CLR 23/19 A3000 90 81 1100 VRB/03 RMK AO2 SLP147 T02280194
94728KNYC NYC20250817045510608/17/25 04:55:31  5-MIN KNYC 170955Z AUTO 25004KT 9SM CLR 23/19 A3000 90 81 1100 260/04 RMK AO2 T02280194
94728KNYC NYC20250817050010608/17/25 05:00:31  5-MIN KNYC 171000Z AUTO 25003KT 9SM CLR 23/19 A3000 90 81 1100 260/03 RMK AO2 T02280194
94728KNYC NYC20250817050510608/17/25 05:05:31  5-MIN KNYC 171005Z AUTO VRB03KT 9SM CLR 23/19 A3000 90 81 1100 VRB/03 RMK AO2 T02280194
94728KNYC NYC20250817051010608/17/25 05:10:31  5-MIN KNYC 171010Z AUTO 00000KT 9SM CLR 23/19 A3000 90 81 1100 000/00 RMK AO2 T02280194
94728KNYC NYC20250817051510608/17/25 05:15:31  5-MIN KNYC 171015Z AUTO 00000KT 9SM CLR 23/19 A3000 90 81 1100 000/00 RMK AO2 T02280194
94728KNYC NYC20250817052010608/17/25 05:20:31  5-MIN KNYC 171020Z AUTO 00000KT 9SM CLR 23/19 A3000 90 81 1100 000/00 RMK AO2 T02280194
94728KNYC NYC20250817052510608/17/25 05:25:31  5-MIN KNYC 171025Z AUTO 00000KT 9SM CLR 23/19 A3000 90 81 1100 000/00 RMK AO2 T02280194
94728KNYC NYC20250817053010608/17/25 05:30:31  5-MIN KNYC 171030Z AUTO VRB03KT 9SM CLR 23/19 A3000 90 81 1100 VRB/03 RMK AO2 T02280194
94728KNYC NYC20250817053510608/17/25 05:35:31  5-MIN KNYC 171035Z AUTO 00000KT 9SM CLR 23/19 A3000 90 81 1100 000/00 RMK AO2 T02280194
94728KNYC NYC20250817054010608/17/25 05:40:31  5-MIN KNYC 171040Z AUTO 00000KT 9SM CLR 23/19 A2999 90 78 1100 000/00 RMK AO2 T02330194
94728KNYC NYC20250817054511508/17/25 05:45:31  5-MIN KNYC 171045Z AUTO 00000KT 9SM CLR 23/19 A2999 90 78 1100 000/00 RMK AO2 SLP146 T02330194 $
94728KNYC NYC20250817055011508/17/25 05:50:31  5-MIN KNYC 171050Z AUTO VRB04KT 9SM CLR 23/19 A2999 90 78 1100 VRB/04 RMK AO2 SLP145 T02330194 $
94728KNYC NYC20250817055510808/17/25 05:55:31  5-MIN KNYC 171055Z AUTO 00000KT 9SM CLR 23/19 A2999 90 78 1100 000/00 RMK AO2 T02330194 $
94728KNYC NYC20250817060010808/17/25 06:00:31  5-MIN KNYC 171100Z AUTO VRB03KT 9SM CLR 23/19 A2999 90 78 1100 VRB/03 RMK AO2 T02330194 $
94728KNYC NYC20250817060510808/17/25 06:05:31  5-MIN KNYC 171105Z AUTO 00000KT 9SM CLR 23/19 A2999 90 78 1100 000/00 RMK AO2 T02330194 $
94728KNYC NYC20250817061010808/17/25 06:10:31  5-MIN KNYC 171110Z AUTO VRB03KT 9SM CLR 23/19 A2999 90 78 1100 VRB/03 RMK AO2 T02330194 $
94728KNYC NYC20250817061510108/17/25 06:15:31  5-MIN KNYC 171115Z AUTO 9SM FEW014 23/19 A2999 90 78 1100 M /M RMK AO2 T02330194 $
94728KNYC NYC20250817062010908/17/25 06:20:31  5-MIN KNYC 171120Z AUTO VRB05KT 9SM CLR 23/20 A2999 100 81 1100 VRB/05 RMK AO2 T02330200 $
94728KNYC NYC20250817062510808/17/25 06:25:31  5-MIN KNYC 171125Z AUTO 00000KT 9SM CLR 23/19 A2999 90 78 1100 000/00 RMK AO2 T02330194 $
94728KNYC NYC20250817063010908/17/25 06:30:31  5-MIN KNYC 171130Z AUTO VRB05KT 9SM CLR 23/20 A2999 100 81 1100 VRB/05 RMK AO2 T02330200 $
94728KNYC NYC20250817063511208/17/25 06:35:31  5-MIN KNYC 171135Z AUTO VRB03KT 9SM FEW013 23/20 A2999 100 81 1100 VRB/03 RMK AO2 T02330200 $
94728KNYC NYC20250817064010908/17/25 06:40:31  5-MIN KNYC 171140Z AUTO VRB05KT 9SM CLR 23/20 A2998 100 81 1100 VRB/05 RMK AO2 T02330200 $
94728KNYC NYC20250817064512408/17/25 06:45:31  5-MIN KNYC 171145Z AUTO 9SM CLR 23/20 A2998 100 81 1100 M /M RMK AO2 SLP142 T02330200 10239 20228 58008 $
94728KNYC NYC20250817065013408/17/25 06:50:31  5-MIN KNYC 171150Z AUTO 24003KT 9SM CLR 24/20 A2998 100 78 1200 260/03 RMK AO2 SLP142 T02390200 10239 20228 58008 $
94728KNYC NYC20250817065509908/17/25 06:55:31  5-MIN KNYC 171155Z AUTO 9SM CLR 24/20 A2998 100 78 1200 M /M RMK AO2 T02390200 $
94728KNYC NYC20250817070010908/17/25 07:00:31  5-MIN KNYC 171200Z AUTO VRB06KT 9SM CLR 24/20 A2998 110 78 1200 VRB/06 RMK AO2 T02390200 $
94728KNYC NYC20250817070510908/17/25 07:05:31  5-MIN KNYC 171205Z AUTO VRB03KT 9SM CLR 24/20 A2998 100 78 1200 VRB/03 RMK AO2 T02390200 $
94728KNYC NYC20250817071012508/17/25 07:10:31  5-MIN KNYC 171210Z AUTO 24007KT 180V290 9SM CLR 24/20 A2998 110 78 1200 250/07 190V300 RMK AO2 T02390200 $
94728KNYC NYC20250817071510908/17/25 07:15:31  5-MIN KNYC 171215Z AUTO 00000KT 9SM CLR 24/20 A2997 110 78 1200 000/00 RMK AO2 T02390200 $
94728KNYC NYC20250817072010908/17/25 07:20:31  5-MIN KNYC 171220Z AUTO 23005KT 9SM CLR 24/20 A2997 110 78 1200 240/05 RMK AO2 T02390200 $
94728KNYC NYC20250817072510908/17/25 07:25:31  5-MIN KNYC 171225Z AUTO 23004KT 9SM CLR 24/20 A2997 110 76 1300 240/04 RMK AO2 T02440200 $
94728KNYC NYC20250817073009908/17/25 07:30:31  5-MIN KNYC 171230Z AUTO 9SM CLR 24/20 A2997 110 76 1300 M /M RMK AO2 T02440200 $
94728KNYC NYC20250817073510008/17/25 07:35:31  5-MIN KNYC 171235Z AUTO 10SM CLR 24/20 A2997 110 76 1300 M /M RMK AO2 T02440200 $
94728KNYC NYC20250817074011008/17/25 07:40:31  5-MIN KNYC 171240Z AUTO 25003KT 10SM CLR 24/20 A2997 110 76 1300 270/03 RMK AO2 T02440200 $
94728KNYC NYC20250817074512308/17/25 07:45:31  5-MIN KNYC 171245Z AUTO 23009G14KT 10SM CLR 24/20 A2997 110 76 1300 240/09G14 RMK AO2 SLP138 T02440200 $
94728KNYC NYC20250817075012308/17/25 07:50:31  5-MIN KNYC 171250Z AUTO VRB03G14KT 10SM CLR 25/20 A2997 110 73 1300 VRB/03G14 RMK AO2 SLP138 T02500200 $
94728KNYC NYC20250817075510008/17/25 07:55:31  5-MIN KNYC 171255Z AUTO 10SM CLR 25/20 A2997 110 73 1300 M /M RMK AO2 T02500200 $
94728KNYC NYC20250817080011008/17/25 08:00:31  5-MIN KNYC 171300Z AUTO 25007KT 10SM CLR 25/20 A2997 120 73 1300 260/07 RMK AO2 T02500200 $
94728KNYC NYC20250817080512608/17/25 08:05:31  5-MIN KNYC 171305Z AUTO 23007KT 200V260 10SM CLR 25/20 A2996 120 73 1300 240/07 210V270 RMK AO2 T02500200 $
94728KNYC NYC20250817081011008/17/25 08:10:31  5-MIN KNYC 171310Z AUTO VRB06KT 10SM CLR 25/20 A2996 120 73 1300 VRB/06 RMK AO2 T02500200 $
94728KNYC NYC20250817081512608/17/25 08:15:31  5-MIN KNYC 171315Z AUTO 25008KT 210V270 10SM CLR 26/20 A2996 120 71 1400 260/08 220V280 RMK AO2 T02560200 $
94728KNYC NYC20250817082011008/17/25 08:20:31  5-MIN KNYC 171320Z AUTO VRB04KT 10SM CLR 26/20 A2996 120 71 1400 VRB/04 RMK AO2 T02560200 $
94728KNYC NYC20250817082511008/17/25 08:25:31  5-MIN KNYC 171325Z AUTO 25007KT 10SM CLR 26/20 A2996 130 71 1400 260/07 RMK AO2 T02560200 $
94728KNYC NYC20250817083011008/17/25 08:30:31  5-MIN KNYC 171330Z AUTO 24004KT 10SM CLR 26/20 A2995 130 71 1400 250/04 RMK AO2 T02560200 $
94728KNYC NYC20250817083511008/17/25 08:35:31  5-MIN KNYC 171335Z AUTO VRB04KT 10SM CLR 26/20 A2995 130 71 1400 VRB/04 RMK AO2 T02560200 $
94728KNYC NYC20250817084011008/17/25 08:40:31  5-MIN KNYC 171340Z AUTO 00000KT 10SM CLR 26/21 A2995 130 71 1500 000/00 RMK AO2 T02610206 $
94728KNYC NYC20250817084511708/17/25 08:45:31  5-MIN KNYC 171345Z AUTO VRB03KT 10SM CLR 26/21 A2995 130 71 1500 VRB/03 RMK AO2 SLP131 T02610206 $
94728KNYC NYC20250817085011708/17/25 08:50:31  5-MIN KNYC 171350Z AUTO VRB05KT 10SM CLR 27/21 A2995 130 69 1500 VRB/05 RMK AO2 SLP132 T02670206 $
94728KNYC NYC20250817085511008/17/25 08:55:31  5-MIN KNYC 171355Z AUTO 26009KT 10SM CLR 27/21 A2995 130 69 1500 270/09 RMK AO2 T02670206 $
94728KNYC NYC20250817090011608/17/25 09:00:31  5-MIN KNYC 171400Z AUTO VRB04G15KT 10SM CLR 27/21 A2995 130 69 1500 VRB/04G15 RMK AO2 T02670206 $
94728KNYC NYC20250817090510008/17/25 09:05:31  5-MIN KNYC 171405Z AUTO 10SM CLR 27/21 A2995 130 69 1500 M /M RMK AO2 T02670206 $
94728KNYC NYC20250817091010008/17/25 09:10:31  5-MIN KNYC 171410Z AUTO 10SM CLR 26/21 A2995 130 71 1500 M /M RMK AO2 T02610206 $
94728KNYC NYC20250817091511008/17/25 09:15:31  5-MIN KNYC 171415Z AUTO VRB05KT 10SM CLR 27/21 A2995 130 69 1500 VRB/05 RMK AO2 T02670206 $
94728KNYC NYC20250817092011008/17/25 09:20:31  5-MIN KNYC 171420Z AUTO VRB05KT 10SM CLR 27/21 A2995 130 69 1500 VRB/05 RMK AO2 T02670206 $
94728KNYC NYC20250817092511608/17/25 09:25:31  5-MIN KNYC 171425Z AUTO VRB05G15KT 10SM CLR 27/21 A2995 130 69 1500 VRB/05G15 RMK AO2 T02670206 $
94728KNYC NYC20250817093010008/17/25 09:30:31  5-MIN KNYC 171430Z AUTO 10SM CLR 27/21 A2995 130 66 1600 M /M RMK AO2 T02720206 $
94728KNYC NYC20250817093511008/17/25 09:35:31  5-MIN KNYC 171435Z AUTO VRB03KT 10SM CLR 27/21 A2995 130 69 1500 VRB/03 RMK AO2 T02670206 $
94728KNYC NYC20250817094010008/17/25 09:40:31  5-MIN KNYC 171440Z AUTO 10SM CLR 27/21 A2995 130 66 1600 M /M RMK AO2 T02720206 $
94728KNYC NYC20250817094512308/17/25 09:45:31  5-MIN KNYC 171445Z AUTO VRB06KT 10SM CLR 27/21 A2995 130 66 1600 VRB/06 RMK AO2 SLP131 T02720206 58007 $
94728KNYC NYC20250817095013908/17/25 09:50:31  5-MIN KNYC 171450Z AUTO 23008KT 190V250 10SM CLR 28/21 A2995 130 66 1700 240/08 200V260 RMK AO2 SLP131 T02780211 58007 $
94728KNYC NYC20250817095511008/17/25 09:55:31  5-MIN KNYC 171455Z AUTO VRB03KT 10SM CLR 28/21 A2995 130 64 1700 VRB/03 RMK AO2 T02780206 $
94728KNYC NYC20250817100012608/17/25 10:00:31  5-MIN KNYC 171500Z AUTO 23007KT 210V280 10SM CLR 28/21 A2995 130 64 1700 250/07 220V290 RMK AO2 T02780206 $
94728KNYC NYC20250817100511008/17/25 10:05:31  5-MIN KNYC 171505Z AUTO VRB04KT 10SM CLR 28/21 A2995 130 64 1700 VRB/04 RMK AO2 T02780206 $
94728KNYC NYC20250817101011008/17/25 10:10:31  5-MIN KNYC 171510Z AUTO 00000KT 10SM CLR 28/21 A2994 140 64 1700 000/00 RMK AO2 T02780206 $
94728KNYC NYC20250817101511008/17/25 10:15:31  5-MIN KNYC 171515Z AUTO 00000KT 10SM CLR 28/21 A2994 140 64 1700 000/00 RMK AO2 T02830211 $
94728KNYC NYC20250817102010008/17/25 10:20:31  5-MIN KNYC 171520Z AUTO 10SM CLR 29/21 A2994 140 60 1800 M /M RMK AO2 T02890206 $
94728KNYC NYC20250817102511008/17/25 10:25:31  5-MIN KNYC 171525Z AUTO VRB03KT 10SM CLR 29/21 A2994 140 60 1800 VRB/03 RMK AO2 T02890206 $
94728KNYC NYC20250817103011008/17/25 10:30:31  5-MIN KNYC 171530Z AUTO VRB04KT 10SM CLR 28/21 A2994 140 64 1700 VRB/04 RMK AO2 T02830211 $
94728KNYC NYC20250817103511008/17/25 10:35:31  5-MIN KNYC 171535Z AUTO VRB03KT 10SM CLR 29/21 A2994 140 60 1800 VRB/03 RMK AO2 T02890206 $
94728KNYC NYC20250817104010008/17/25 10:40:31  5-MIN KNYC 171540Z AUTO 10SM CLR 28/21 A2994 140 62 1700 M /M RMK AO2 T02830206 $
94728KNYC NYC20250817104511708/17/25 10:45:31  5-MIN KNYC 171545Z AUTO VRB03KT 10SM CLR 29/21 A2994 140 58 1900 VRB/03 RMK AO2 SLP127 T02940206 $
94728KNYC NYC20250817105010708/17/25 10:50:31  5-MIN KNYC 171550Z AUTO 10SM CLR 29/21 A2993 150 58 1900 M /M RMK AO2 SLP126 T02940206 $
94728KNYC NYC20250817105511008/17/25 10:55:31  5-MIN KNYC 171555Z AUTO 24004KT 10SM CLR 29/21 A2993 150 58 1900 250/04 RMK AO2 T02940206 $
94728KNYC NYC20250817110011008/17/25 11:00:31  5-MIN KNYC 171600Z AUTO 25008KT 10SM CLR 29/21 A2993 150 60 1800 260/08 RMK AO2 T02890206 $
94728KNYC NYC20250817110511008/17/25 11:05:31  5-MIN KNYC 171605Z AUTO 00000KT 10SM CLR 29/21 A2993 150 58 1900 000/00 RMK AO2 T02940206 $
94728KNYC NYC20250817111010008/17/25 11:10:31  5-MIN KNYC 171610Z AUTO 10SM CLR 29/21 A2993 150 60 1900 M /M RMK AO2 T02940211 $
94728KNYC NYC20250817111511008/17/25 11:15:31  5-MIN KNYC 171615Z AUTO 00000KT 10SM CLR 29/21 A2993 150 58 1900 000/00 RMK AO2 T02940206 $
94728KNYC NYC20250817112011008/17/25 11:20:31  5-MIN KNYC 171620Z AUTO 27005KT 10SM CLR 30/21 A2993 150 58 1900 280/05 RMK AO2 T03000211 $
94728KNYC NYC20250817112511008/17/25 11:25:31  5-MIN KNYC 171625Z AUTO 24004KT 10SM CLR 29/21 A2992 160 58 1900 250/04 RMK AO2 T02940206 $
94728KNYC NYC20250817113011008/17/25 11:30:31  5-MIN KNYC 171630Z AUTO VRB05KT 10SM CLR 30/21 A2992 160 56 2000 VRB/05 RMK AO2 T03000206 $
94728KNYC NYC20250817113511308/17/25 11:35:31  5-MIN KNYC 171635Z AUTO VRB03KT 10SM FEW030 30/21 A2992 160 58 2000 VRB/03 RMK AO2 T03000211 $
94728KNYC NYC20250817114010308/17/25 11:40:31  5-MIN KNYC 171640Z AUTO 10SM FEW030 31/21 A2992 160 56 2000 M /M RMK AO2 T03060211 $
94728KNYC NYC20250817114512008/17/25 11:45:31  5-MIN KNYC 171645Z AUTO 00000KT 10SM FEW030 31/21 A2992 160 54 2000 000/00 RMK AO2 SLP121 T03060206 $
94728KNYC NYC20250817115012008/17/25 11:50:31  5-MIN KNYC 171650Z AUTO VRB03KT 10SM FEW030 30/21 A2992 160 58 2000 VRB/03 RMK AO2 SLP120 T03000211 $
94728KNYC NYC20250817115511308/17/25 11:55:31  5-MIN KNYC 171655Z AUTO VRB06KT 10SM FEW030 30/21 A2992 160 58 2000 VRB/06 RMK AO2 T03000211 $
94728KNYC NYC20250817120011308/17/25 12:00:31  5-MIN KNYC 171700Z AUTO VRB03KT 10SM FEW030 30/21 A2991 170 58 2000 VRB/03 RMK AO2 T03000211 $
94728KNYC NYC20250817234010908/17/25 23:40:31  5-MIN KNYC 180440Z AUTO 36003KT 9SM CLR 24/22 A2993 150 84 1300 010/03 RMK AO2 T02440217 $
94728KNYC NYC20250817234512608/17/25 23:45:31  5-MIN KNYC 180445Z AUTO VRB03KT 9SM CLR 24/22 A2994 140 84 1300 VRB/03 RMK AO2 SLP127 T02440217 403280228 $
94728KNYC NYC20250817235012608/17/25 23:50:31  5-MIN KNYC 180450Z AUTO VRB03KT 9SM CLR 24/22 A2993 140 84 1300 VRB/03 RMK AO2 SLP127 T02440217 403280228 $
94728KNYC NYC20250817235511008/17/25 23:55:31  5-MIN KNYC 180455Z AUTO 00000KT 10SM CLR 24/22 A2994 140 84 1300 000/00 RMK AO2 T02440217 $
94728KNYC NYC20250818000011308/18/25 00:00:31  5-MIN KNYC 180500Z AUTO VRB04KT 10SM FEW015 24/21 A2994 140 84 1200 VRB/04 RMK AO2 T02390211 $
94728KNYC NYC20250818000511308/18/25 00:05:31  5-MIN KNYC 180505Z AUTO VRB06KT 10SM SCT015 24/21 A2994 140 84 1200 VRB/06 RMK AO2 T02390211 $
94728KNYC NYC20250818001011308/18/25 00:10:31  5-MIN KNYC 180510Z AUTO 01005KT 10SM BKN015 24/21 A2994 140 81 1200 020/05 RMK AO2 T02390206 $
94728KNYC NYC20250818001511308/18/25 00:15:31  5-MIN KNYC 180515Z AUTO VRB06KT 10SM BKN015 24/21 A2994 140 81 1200 VRB/06 RMK AO2 T02390206 $
94728KNYC NYC20250818002012008/18/25 00:20:31  5-MIN KNYC 180520Z AUTO 03006KT 10SM BKN015 BKN047 24/20 A2995 130 78 1200 040/06 RMK AO2 T02390200 $
94728KNYC NYC20250818002512008/18/25 00:25:31  5-MIN KNYC 180525Z AUTO 02005KT 10SM BKN015 BKN047 24/20 A2995 130 78 1200 040/05 RMK AO2 T02390200 $
94728KNYC NYC20250818003012008/18/25 00:30:31  5-MIN KNYC 180530Z AUTO VRB06KT 10SM SCT015 BKN047 23/20 A2995 130 81 1200 VRB/06 RMK AO2 T02330200 $
94728KNYC NYC20250818003512008/18/25 00:35:31  5-MIN KNYC 180535Z AUTO VRB05KT 10SM SCT015 BKN047 23/19 A2995 130 78 1200 VRB/05 RMK AO2 T02330194 $
94728KNYC NYC20250818004013608/18/25 00:40:31  5-MIN KNYC 180540Z AUTO 04007KT 360V070 10SM FEW015 BKN047 23/19 A2995 130 78 1200 050/07 010V080 RMK AO2 T02330194 $
94728KNYC NYC20250818004516008/18/25 00:45:31  5-MIN KNYC 180545Z AUTO 02007G16KT 340V070 10SM BKN047 23/19 A2996 120 78 1100 030/07G16 350V080 RMK AO2 SLP134 T02280189 10250 20228 51009 $
94728KNYC NYC20250818005016008/18/25 00:50:31  5-MIN KNYC 180550Z AUTO 02007G16KT 340V070 10SM SCT047 23/18 A2996 120 76 1100 040/07G16 350V080 RMK AO2 SLP135 T02280183 10250 20228 51009 $
94728KNYC NYC20250818005511308/18/25 00:55:31  5-MIN KNYC 180555Z AUTO 04005KT 10SM FEW047 22/18 A2996 120 78 1000 060/05 RMK AO2 T02220183 $
94728KNYC NYC20250818010010308/18/25 01:00:31  5-MIN KNYC 180600Z AUTO 10SM FEW047 22/18 A2996 120 75 1000 M /M RMK AO2 T02220178 $
94728KNYC NYC20250818010511308/18/25 01:05:31  5-MIN KNYC 180605Z AUTO VRB06KT 10SM FEW047 22/18 A2996 120 78 1000 VRB/06 RMK AO2 T02170178 $
94728KNYC NYC20250818011011008/18/25 01:10:31  5-MIN KNYC 180610Z AUTO VRB05KT 10SM CLR 22/17 A2996 120 75 1000 VRB/05 RMK AO2 T02170172 $
94728KNYC NYC20250818011510008/18/25 01:15:31  5-MIN KNYC 180615Z AUTO 10SM CLR 22/17 A2996 120 73 1000 M /M RMK AO2 T02170167 $
94728KNYC NYC20250818012011208/18/25 01:20:31  5-MIN KNYC 180620Z AUTO VRB05KT 10SM FEW029 21/17 A2997 120 75 900 VRB/05 RMK AO2 T02110167 $
94728KNYC NYC20250818012511808/18/25 01:25:31  5-MIN KNYC 180625Z AUTO 01009G15KT 10SM SCT029 21/17 A2997 110 75 900 030/09G15 RMK AO2 T02110167 $
94728KNYC NYC20250818013013408/18/25 01:30:31  5-MIN KNYC 180630Z AUTO 36008G15KT 350V080 10SM BKN029 21/16 A2997 110 73 900 020/08G15 360V090 RMK AO2 T02110161 $
94728KNYC NYC20250818013511208/18/25 01:35:31  5-MIN KNYC 180635Z AUTO VRB05KT 10SM BKN029 21/16 A2997 110 73 800 VRB/05 RMK AO2 T02060156 $
94728KNYC NYC20250818014013408/18/25 01:40:31  5-MIN KNYC 180640Z AUTO 01008G16KT 290V140 10SM BKN031 21/16 A2997 110 73 800 020/08G16 300V150 RMK AO2 T02060156 $
94728KNYC NYC20250818014510808/18/25 01:45:31  5-MIN KNYC 180645Z AUTO VRB05G22KT 10SM OVC031 21/15 A2998 110 70 800 VRB/05G22 RMK AO2 $
94728KNYC NYC20250818015014108/18/25 01:50:31  5-MIN KNYC 180650Z AUTO 01008G22KT 340V070 10SM OVC033 20/15 A2998 100 72 800 020/08G22 350V080 RMK AO2 SLP142 T02000150 $
94728KNYC NYC20250818015513408/18/25 01:55:31  5-MIN KNYC 180655Z AUTO 01008G18KT 200V070 10SM OVC033 20/15 A2999 100 72 700 020/08G18 210V080 RMK AO2 T02000150 $
94728KNYC NYC20250818020013408/18/25 02:00:31  5-MIN KNYC 180700Z AUTO 03008G18KT 360V080 10SM OVC033 20/15 A2999 100 72 700 040/08G18 010V090 RMK AO2 T02000150 $
94728KNYC NYC20250818020511808/18/25 02:05:31  5-MIN KNYC 180705Z AUTO VRB05G18KT 10SM OVC035 20/15 A2999 100 72 700 VRB/05G18 RMK AO2 T02000150 $
94728KNYC NYC20250818021011108/18/25 02:10:31  5-MIN KNYC 180710Z AUTO VRB06KT 10SM BKN037 20/15 A2999 90 72 700 VRB/06 RMK AO2 T02000150 $
94728KNYC NYC20250818021511208/18/25 02:15:31  5-MIN KNYC 180715Z AUTO VRB06KT 10SM BKN037 19/14 A2999 100 72 700 VRB/06 RMK AO2 T01940144 $
94728KNYC NYC20250818022010108/18/25 02:20:31  5-MIN KNYC 180720Z AUTO 10SM BKN037 19/14 A2999 90 72 700 M /M RMK AO2 T01940144 $
94728KNYC NYC20250818022511808/18/25 02:25:31  5-MIN KNYC 180725Z AUTO VRB06KT 10SM BKN039 BKN049 19/14 A2999 90 70 700 VRB/06 RMK AO2 T01940139 $
94728KNYC NYC20250818023014008/18/25 02:30:31  5-MIN KNYC 180730Z AUTO 35008G18KT 300V030 10SM BKN041 BKN049 19/14 A2999 90 70 700 010/08G18 310V040 RMK AO2 T01940139 $
94728KNYC NYC20250818023511708/18/25 02:35:31  5-MIN KNYC 180735Z AUTO VRB04G18KT 10SM BKN043 19/14 A2999 90 70 700 VRB/04G18 RMK AO2 T01940139 $
94728KNYC NYC20250818024011108/18/25 02:40:31  5-MIN KNYC 180740Z AUTO VRB05KT 10SM BKN045 19/14 A2999 90 70 700 VRB/05 RMK AO2 T01940139 $
94728KNYC NYC20250818024510808/18/25 02:45:31  5-MIN KNYC 180745Z AUTO 10SM BKN045 19/14 A3000 90 70 700 M /M RMK AO2 SLP147 T01940139 $
94728KNYC NYC20250818025012508/18/25 02:50:31  5-MIN KNYC 180750Z AUTO VRB06KT 10SM FEW025 BKN047 19/14 A3000 90 70 700 VRB/06 RMK AO2 SLP147 T01940139 $
94728KNYC NYC20250818025514008/18/25 02:55:31  5-MIN KNYC 180755Z AUTO 03009G17KT 350V060 10SM SCT025 BKN047 19/13 A3000 90 67 700 040/09G17 360V070 RMK AO2 T01940133 $
94728KNYC NYC20250818030012408/18/25 03:00:31  5-MIN KNYC 180800Z AUTO 02005G17KT 10SM BKN025 BKN047 19/14 A3000 90 70 700 030/05G17 RMK AO2 T01940139 $
94728KNYC NYC20250818030513408/18/25 03:05:31  5-MIN KNYC 180805Z AUTO 03007KT 340V090 10SM BKN025 BKN049 19/14 A3000 90 70 700 040/07 350V100 RMK AO2 T01940139 $
94728KNYC NYC20250818031011708/18/25 03:10:31  5-MIN KNYC 180810Z AUTO 03008G16KT 10SM BKN025 19/13 A3000 80 67 700 040/08G16 RMK AO2 T01940133 $
94728KNYC NYC20250818031511708/18/25 03:15:31  5-MIN KNYC 180815Z AUTO VRB05G16KT 10SM OVC025 19/13 A3000 80 67 700 VRB/05G16 RMK AO2 T01940133 $
94728KNYC NYC20250818032011108/18/25 03:20:31  5-MIN KNYC 180820Z AUTO VRB06KT 10SM OVC025 19/14 A3000 80 70 700 VRB/06 RMK AO2 T01940139 $
94728KNYC NYC20250818032513308/18/25 03:25:31  5-MIN KNYC 180825Z AUTO 03009G15KT 350V070 10SM OVC025 19/14 A3000 80 70 700 040/09G15 360V080 RMK AO2 T01940139 $
94728KNYC NYC20250818033013308/18/25 03:30:31  5-MIN KNYC 180830Z AUTO 03009G15KT 340V070 10SM OVC025 19/14 A3000 80 70 700 040/09G15 350V080 RMK AO2 T01940139 $
94728KNYC NYC20250818033511708/18/25 03:35:31  5-MIN KNYC 180835Z AUTO 04006G15KT 10SM OVC025 20/14 A3000 80 67 700 050/06G15 RMK AO2 T02000139 $
94728KNYC NYC20250818034011108/18/25 03:40:31  5-MIN KNYC 180840Z AUTO VRB06KT 10SM OVC025 19/14 A3000 80 70 700 VRB/06 RMK AO2 T01940139 $
94728KNYC NYC20250818034514608/18/25 03:45:31  5-MIN KNYC 180845Z AUTO 03008G16KT 350V070 10SM OVC025 20/14 A3001 80 67 700 050/08G16 360V080 RMK AO2 SLP151 T02000139 53020 $
94728KNYC NYC20250818035014608/18/25 03:50:31  5-MIN KNYC 180850Z AUTO 02007G17KT 310V060 10SM OVC024 20/14 A3001 80 67 700 030/07G17 320V070 RMK AO2 SLP150 T02000139 53020 $
94728KNYC NYC20250818035513308/18/25 03:55:31  5-MIN KNYC 180855Z AUTO 02009G17KT 340V040 10SM OVC024 20/14 A3001 80 70 700 030/09G17 350V050 RMK AO2 T02000144 $
94728KNYC NYC20250818040013308/18/25 04:00:31  5-MIN KNYC 180900Z AUTO 04011G19KT 010V070 10SM OVC022 20/14 A3001 70 67 700 050/11G19 020V080 RMK AO2 T02000139 $
94728KNYC NYC20250818040513308/18/25 04:05:31  5-MIN KNYC 180905Z AUTO 03009G19KT 350V070 10SM OVC022 20/13 A3002 70 65 700 050/09G19 360V080 RMK AO2 T02000133 $
94728KNYC NYC20250818041013308/18/25 04:10:31  5-MIN KNYC 180910Z AUTO 02010G19KT 340V080 10SM OVC022 20/13 A3002 70 65 700 030/10G19 350V090 RMK AO2 T02000133 $
94728KNYC NYC20250818041513308/18/25 04:15:31  5-MIN KNYC 180915Z AUTO 01010G18KT 340V050 10SM OVC022 20/14 A3002 60 67 700 020/10G18 350V060 RMK AO2 T02000139 $
94728KNYC NYC20250818042013308/18/25 04:20:31  5-MIN KNYC 180920Z AUTO 03011G18KT 010V070 10SM OVC022 20/14 A3002 60 67 700 040/11G18 020V080 RMK AO2 T02000139 $
94728KNYC NYC20250818042513308/18/25 04:25:31  5-MIN KNYC 180925Z AUTO 04007G17KT 010V090 10SM OVC022 20/13 A3003 60 65 700 060/07G17 020V100 RMK AO2 T02000133 $
94728KNYC NYC20250818043013308/18/25 04:30:31  5-MIN KNYC 180930Z AUTO 03007G19KT 320V080 10SM OVC022 20/14 A3003 60 67 700 040/07G19 330V090 RMK AO2 T02000139 $
94728KNYC NYC20250818043513308/18/25 04:35:31  5-MIN KNYC 180935Z AUTO 05008G19KT 360V080 10SM OVC022 20/14 A3003 50 67 700 060/08G19 010V090 RMK AO2 T02000139 $
94728KNYC NYC20250818044011708/18/25 04:40:31  5-MIN KNYC 180940Z AUTO 03009G17KT 10SM OVC022 20/14 A3003 50 67 700 040/09G17 RMK AO2 T02000139 $
94728KNYC NYC20250818044514008/18/25 04:45:31  5-MIN KNYC 180945Z AUTO 04008G17KT 360V110 10SM OVC022 20/14 A3004 50 67 700 050/08G17 010V120 RMK AO2 SLP162 T02000139 $
94728KNYC NYC20250818045014008/18/25 04:50:31  5-MIN KNYC 180950Z AUTO 04009G18KT 350V120 10SM OVC022 20/14 A3004 50 67 700 060/09G18 360V130 RMK AO2 SLP162 T02000139 $
94728KNYC NYC20250818045513308/18/25 04:55:31  5-MIN KNYC 180955Z AUTO 01007G18KT 340V040 10SM OVC022 20/14 A3004 50 67 700 030/07G18 350V050 RMK AO2 T02000139 $
94728KNYC NYC20250818050011708/18/25 05:00:31  5-MIN KNYC 181000Z AUTO VRB06G17KT 10SM OVC023 20/14 A3004 40 67 700 VRB/06G17 RMK AO2 T02000139 $
94728KNYC NYC20250818050513308/18/25 05:05:31  5-MIN KNYC 181005Z AUTO 04008G15KT 350V100 10SM OVC023 20/14 A3005 40 67 700 050/08G15 360V110 RMK AO2 T02000139 $
94728KNYC NYC20250818051011708/18/25 05:10:31  5-MIN KNYC 181010Z AUTO 05008G15KT 10SM OVC023 20/14 A3005 40 67 700 060/08G15 RMK AO2 T02000139 $
94728KNYC NYC20250818051512708/18/25 05:15:31  5-MIN KNYC 181015Z AUTO 04007KT 310V080 10SM OVC023 20/13 A3005 30 65 700 050/07 320V090 RMK AO2 T02000133 $
94728KNYC NYC20250818052013308/18/25 05:20:31  5-MIN KNYC 181020Z AUTO 05010G17KT 010V080 10SM OVC023 20/13 A3006 30 65 700 060/10G17 020V090 RMK AO2 T02000133 $
94728KNYC NYC20250818052511708/18/25 05:25:31  5-MIN KNYC 181025Z AUTO 06011G18KT 10SM OVC023 20/13 A3006 30 65 700 070/11G18 RMK AO2 T02000133 $
94728KNYC NYC20250818053013308/18/25 05:30:31  5-MIN KNYC 181030Z AUTO 03008G18KT 320V100 10SM OVC023 19/13 A3007 20 67 600 040/08G18 330V110 RMK AO2 T01940133 $
94728KNYC NYC20250818053513308/18/25 05:35:31  5-MIN KNYC 181035Z AUTO 04008G16KT 360V080 10SM OVC023 19/13 A3007 20 67 600 060/08G16 010V090 RMK AO2 T01940133 $
94728KNYC NYC20250818054013308/18/25 05:40:31  5-MIN KNYC 181040Z AUTO 03008G18KT 340V080 10SM OVC023 19/13 A3007 20 67 600 040/08G18 350V090 RMK AO2 T01940133 $
94728KNYC NYC20250818054514008/18/25 05:45:31  5-MIN KNYC 181045Z AUTO 05008G18KT 360V070 10SM OVC023 19/13 A3008 10 67 600 060/08G18 010V080 RMK AO2 SLP176 T01940133 $
94728KNYC NYC20250818055014008/18/25 05:50:31  5-MIN KNYC 181050Z AUTO 02008G20KT 340V060 10SM OVC023 19/13 A3008 10 65 600 040/08G20 350V070 RMK AO2 SLP177 T01940128 $
94728KNYC NYC20250818055513308/18/25 05:55:31  5-MIN KNYC 181055Z AUTO 04008G20KT 010V080 10SM OVC023 19/13 A3008 10 65 600 050/08G20 020V090 RMK AO2 T01940128 $
94728KNYC NYC20250818060013308/18/25 06:00:31  5-MIN KNYC 181100Z AUTO 03009G17KT 360V140 10SM OVC023 19/13 A3008 10 65 600 050/09G17 010V150 RMK AO2 T01940128 $
94728KNYC NYC20250818060513308/18/25 06:05:31  5-MIN KNYC 181105Z AUTO 05008G17KT 240V100 10SM OVC024 19/13 A3009 10 65 600 060/08G17 250V110 RMK AO2 T01940128 $
94728KNYC NYC20250818061011608/18/25 06:10:31  5-MIN KNYC 181110Z AUTO VRB06G17KT 10SM OVC024 19/13 A3009 0 65 600 VRB/06G17 RMK AO2 T01940128 $
94728KNYC NYC20250818061511608/18/25 06:15:31  5-MIN KNYC 181115Z AUTO 06007G17KT 10SM OVC024 19/13 A3009 0 65 600 080/07G17 RMK AO2 T01940128 $
94728KNYC NYC20250818062011608/18/25 06:20:31  5-MIN KNYC 181120Z AUTO 06010G17KT 10SM OVC024 19/13 A3009 0 65 600 070/10G17 RMK AO2 T01940128 $
94728KNYC NYC20250818062511608/18/25 06:25:31  5-MIN KNYC 181125Z AUTO 05009G19KT 10SM OVC024 19/13 A3010 0 65 600 060/09G19 RMK AO2 T01940128 $
94728KNYC NYC20250818063011608/18/25 06:30:31  5-MIN KNYC 181130Z AUTO 05011G19KT 10SM OVC024 19/13 A3010 0 65 500 060/11G19 RMK AO2 T01940128 $
94728KNYC NYC20250818063511608/18/25 06:35:31  5-MIN KNYC 181135Z AUTO 03008G18KT 10SM OVC024 19/13 A3010 0 65 500 050/08G18 RMK AO2 T01940128 $
94728KNYC NYC20250818064013408/18/25 06:40:31  5-MIN KNYC 181140Z AUTO 05008G16KT 020V090 10SM OVC024 19/12 A3010 -10 62 500 060/08G16 030V100 RMK AO2 T01940122 $
94728KNYC NYC20250818064514908/18/25 06:45:31  5-MIN KNYC 181145Z AUTO VRB06G15KT 10SM OVC024 19/13 A3011 -10 65 500 VRB/06G15 RMK AO2 SLP187 70066 T01940128 10222 20194 53010 $
94728KNYC NYC20250818065015908/18/25 06:50:31  5-MIN KNYC 181150Z AUTO 05007KT 010V080 10SM OVC024 19/13 A3011 -10 65 500 060/07 020V090 RMK AO2 SLP188 70066 T01940128 10222 20194 53010 $
94728KNYC NYC20250818065513408/18/25 06:55:31  5-MIN KNYC 181155Z AUTO 04008G18KT 020V080 10SM OVC024 19/13 A3012 -20 65 500 060/08G18 030V090 RMK AO2 T01940128 $
94728KNYC NYC20250818070011808/18/25 07:00:31  5-MIN KNYC 181200Z AUTO 06007G18KT 10SM OVC024 19/13 A3012 -20 65 500 070/07G18 RMK AO2 T01940128 $
94728KNYC NYC20250818070511208/18/25 07:05:31  5-MIN KNYC 181205Z AUTO VRB06KT 10SM OVC024 19/13 A3012 -20 65 500 VRB/06 RMK AO2 T01940128 $
94728KNYC NYC20250818071011208/18/25 07:10:31  5-MIN KNYC 181210Z AUTO 04006KT 10SM OVC025 19/13 A3012 -20 65 500 060/06 RMK AO2 T01940128 $
94728KNYC NYC20250818071511808/18/25 07:15:31  5-MIN KNYC 181215Z AUTO 05010G15KT 10SM OVC025 19/13 A3013 -30 65 500 060/10G15 RMK AO2 T01940128 $
94728KNYC NYC20250818072011808/18/25 07:20:31  5-MIN KNYC 181220Z AUTO 05010G18KT 10SM OVC025 19/13 A3013 -30 65 500 060/10G18 RMK AO2 T01940128 $
94728KNYC NYC20250818072511808/18/25 07:25:31  5-MIN KNYC 181225Z AUTO 05010G19KT 10SM OVC025 19/13 A3013 -30 65 500 060/10G19 RMK AO2 T01940128 $
94728KNYC NYC20250818073013408/18/25 07:30:31  5-MIN KNYC 181230Z AUTO 02008G19KT 350V080 10SM OVC025 19/13 A3013 -30 65 500 040/08G19 360V090 RMK AO2 T01940128 $
94728KNYC NYC20250818073513408/18/25 07:35:31  5-MIN KNYC 181235Z AUTO 05008G17KT 010V090 10SM OVC025 19/13 A3013 -30 65 500 060/08G17 020V100 RMK AO2 T01940128 $
94728KNYC NYC20250818074013408/18/25 07:40:31  5-MIN KNYC 181240Z AUTO 04010G20KT 360V080 10SM OVC025 19/13 A3014 -30 65 500 050/10G20 010V090 RMK AO2 T01940128 $
94728KNYC NYC20250818074512508/18/25 07:45:31  5-MIN KNYC 181245Z AUTO 04008G20KT 10SM OVC025 19/13 A3014 -40 65 500 050/08G20 RMK AO2 SLP196 T01940128 $
94728KNYC NYC20250818075014108/18/25 07:50:31  5-MIN KNYC 181250Z AUTO 04008G16KT 010V070 10SM OVC025 19/13 A3014 -40 67 400 060/08G16 020V080 RMK AO2 SLP196 T01890128 $
94728KNYC NYC20250818075511808/18/25 07:55:31  5-MIN KNYC 181255Z AUTO 05011G17KT 10SM OVC025 19/13 A3014 -40 70 400 070/11G17 RMK AO2 T01890133 $
94728KNYC NYC20250818080011808/18/25 08:00:31  5-MIN KNYC 181300Z AUTO 02011G17KT 10SM OVC024 19/13 A3014 -40 70 400 040/11G17 RMK AO2 T01890133 $
94728KNYC NYC20250818080511808/18/25 08:05:31  5-MIN KNYC 181305Z AUTO VRB06G17KT 10SM OVC024 19/13 A3014 -40 70 400 VRB/06G17 RMK AO2 T01890133 $
94728KNYC NYC20250818081011808/18/25 08:10:31  5-MIN KNYC 181310Z AUTO 04010G14KT 10SM OVC022 19/13 A3014 -40 70 400 060/10G14 RMK AO2 T01890133 $
94728KNYC NYC20250818081512808/18/25 08:15:31  5-MIN KNYC 181315Z AUTO 05008KT 360V080 10SM OVC022 19/13 A3014 -40 70 400 060/08 010V090 RMK AO2 T01890133 $
94728KNYC NYC20250818082011808/18/25 08:20:31  5-MIN KNYC 181320Z AUTO VRB06G15KT 10SM OVC023 19/13 A3015 -40 67 500 VRB/06G15 RMK AO2 T01940133 $
94728KNYC NYC20250818082511808/18/25 08:25:31  5-MIN KNYC 181325Z AUTO 06012G17KT 10SM OVC023 19/13 A3015 -50 67 500 080/12G17 RMK AO2 T01940133 $
94728KNYC NYC20250818083011808/18/25 08:30:31  5-MIN KNYC 181330Z AUTO 05010G21KT 10SM OVC023 19/13 A3015 -50 65 500 060/10G21 RMK AO2 T01940128 $
94728KNYC NYC20250818083513408/18/25 08:35:31  5-MIN KNYC 181335Z AUTO 04008G21KT 350V080 10SM OVC024 19/13 A3015 -50 65 500 060/08G21 360V090 RMK AO2 T01940128 $
94728KNYC NYC20250818084011808/18/25 08:40:31  5-MIN KNYC 181340Z AUTO 06008G17KT 10SM OVC024 19/13 A3016 -50 65 500 070/08G17 RMK AO2 T01940128 $
94728KNYC NYC20250818084512508/18/25 08:45:31  5-MIN KNYC 181345Z AUTO 07008G19KT 10SM OVC025 19/13 A3016 -60 65 500 080/08G19 RMK AO2 SLP203 T01940128 $
94728KNYC NYC20250818085012508/18/25 08:50:31  5-MIN KNYC 181350Z AUTO VRB04G19KT 10SM OVC025 19/13 A3016 -60 65 500 VRB/04G19 RMK AO2 SLP204 T01940128 $
94728KNYC NYC20250818085511808/18/25 08:55:31  5-MIN KNYC 181355Z AUTO 07010G15KT 10SM OVC026 19/13 A3016 -60 65 500 090/10G15 RMK AO2 T01940128 $
94728KNYC NYC20250818090013408/18/25 09:00:31  5-MIN KNYC 181400Z AUTO 06007G18KT 030V100 10SM OVC026 19/12 A3016 -60 62 500 070/07G18 040V110 RMK AO2 T01940122 $
94728KNYC NYC20250818090511808/18/25 09:05:31  5-MIN KNYC 181405Z AUTO 04010G18KT 10SM OVC026 19/12 A3017 -60 62 500 050/10G18 RMK AO2 T01940122 $
94728KNYC NYC20250818091011808/18/25 09:10:31  5-MIN KNYC 181410Z AUTO 05010G16KT 10SM OVC026 19/12 A3017 -60 62 500 060/10G16 RMK AO2 T01940122 $
94728KNYC NYC20250818091514108/18/25 09:15:31  5-MIN KNYC 181415Z AUTO 05009G18KT 020V080 10SM BKN027 OVC035 19/12 A3017 -60 62 500 070/09G18 030V090 RMK AO2 T01940122 $
94728KNYC NYC20250818092012508/18/25 09:20:31  5-MIN KNYC 181420Z AUTO 04009G18KT 10SM BKN027 OVC035 19/12 A3017 -70 62 500 050/09G18 RMK AO2 T01940122 $
94728KNYC NYC20250818092512508/18/25 09:25:31  5-MIN KNYC 181425Z AUTO VRB06G15KT 10SM BKN027 OVC035 19/12 A3017 -70 62 500 VRB/06G15 RMK AO2 T01940122 $
94728KNYC NYC20250818093012508/18/25 09:30:31  5-MIN KNYC 181430Z AUTO 07007G15KT 10SM BKN027 OVC035 19/12 A3017 -70 62 500 080/07G15 RMK AO2 T01940122 $
94728KNYC NYC20250818093514108/18/25 09:35:31  5-MIN KNYC 181435Z AUTO 06009G16KT 030V120 10SM BKN027 OVC035 20/13 A3018 -70 63 500 080/09G16 040V130 RMK AO2 T02000128 $
94728KNYC NYC20250818094012508/18/25 09:40:31  5-MIN KNYC 181440Z AUTO 05011G16KT 10SM BKN027 OVC035 19/12 A3018 -70 62 500 060/11G16 RMK AO2 T01940122 $
94728KNYC NYC20250818094515408/18/25 09:45:31  5-MIN KNYC 181445Z AUTO 07007G18KT 030V110 10SM BKN027 OVC035 19/12 A3018 -70 62 500 080/07G18 040V120 RMK AO2 SLP209 T01940122 51036 $
94728KNYC NYC20250818095015408/18/25 09:50:31  5-MIN KNYC 181450Z AUTO 05008G18KT 020V090 10SM SCT027 OVC035 19/12 A3018 -70 62 500 060/08G18 030V100 RMK AO2 SLP210 T01940122 51036 $
94728KNYC NYC20250818095512508/18/25 09:55:31  5-MIN KNYC 181455Z AUTO 05010G15KT 10SM SCT027 OVC033 20/12 A3018 -80 60 500 070/10G15 RMK AO2 T02000122 $
94728KNYC NYC20250818100012508/18/25 10:00:31  5-MIN KNYC 181500Z AUTO 05010G15KT 10SM SCT027 OVC033 20/13 A3018 -80 63 500 060/10G15 RMK AO2 T02000128 $
94728KNYC NYC20250818100514108/18/25 10:05:31  5-MIN KNYC 181505Z AUTO 07008G16KT 040V100 10SM BKN027 OVC033 20/12 A3018 -70 60 500 080/08G16 050V110 RMK AO2 T02000122 $
94728KNYC NYC20250818101012508/18/25 10:10:31  5-MIN KNYC 181510Z AUTO 04009G16KT 10SM BKN027 OVC033 20/13 A3018 -80 63 500 060/09G16 RMK AO2 T02000128 $
94728KNYC NYC20250818101512508/18/25 10:15:31  5-MIN KNYC 181515Z AUTO 02008G16KT 10SM BKN027 OVC033 21/13 A3018 -80 60 600 040/08G16 RMK AO2 T02060128 $
94728KNYC NYC20250818102011208/18/25 10:20:31  5-MIN KNYC 181520Z AUTO VRB06KT 10SM OVC028 21/13 A3018 -80 60 600 VRB/06 RMK AO2 T02060128 $
94728KNYC NYC20250818102511208/18/25 10:25:31  5-MIN KNYC 181525Z AUTO 04008KT 10SM OVC028 21/13 A3019 -80 60 600 050/08 RMK AO2 T02060128 $
94728KNYC NYC20250818103011208/18/25 10:30:31  5-MIN KNYC 181530Z AUTO VRB06KT 10SM OVC028 21/13 A3019 -80 60 600 VRB/06 RMK AO2 T02060128 $
94728KNYC NYC20250818103511208/18/25 10:35:31  5-MIN KNYC 181535Z AUTO 06008KT 10SM OVC028 20/13 A3019 -80 63 500 070/08 RMK AO2 T02000128 $
94728KNYC NYC20250818104012808/18/25 10:40:31  5-MIN KNYC 181540Z AUTO 03008KT 360V070 10SM OVC028 20/13 A3018 -80 63 500 040/08 010V080 RMK AO2 T02000128 $
94728KNYC NYC20250818104512508/18/25 10:45:31  5-MIN KNYC 181545Z AUTO 05010G16KT 10SM OVC028 21/13 A3018 -80 60 600 070/10G16 RMK AO2 SLP212 T02060128 $
94728KNYC NYC20250818105013208/18/25 10:50:31  5-MIN KNYC 181550Z AUTO 04006G16KT 10SM BKN028 OVC036 21/13 A3018 -80 60 600 050/06G16 RMK AO2 SLP212 T02060128 $
94728KNYC NYC20250818105512508/18/25 10:55:31  5-MIN KNYC 181555Z AUTO 05010G18KT 10SM BKN028 OVC036 21/13 A3018 -80 58 700 060/10G18 RMK AO2 T02110128 $
94728KNYC NYC20250818110012508/18/25 11:00:31  5-MIN KNYC 181600Z AUTO 05009G18KT 10SM BKN028 OVC036 21/13 A3018 -80 58 700 060/09G18 RMK AO2 T02110128 $
94728KNYC NYC20250818110512508/18/25 11:05:31  5-MIN KNYC 181605Z AUTO VRB05G18KT 10SM SCT028 OVC036 21/13 A3018 -80 58 700 VRB/05G18 RMK AO2 T02110128 $
94728KNYC NYC20250818111012508/18/25 11:10:31  5-MIN KNYC 181610Z AUTO 07009G17KT 10SM FEW028 OVC036 21/13 A3018 -80 58 700 090/09G17 RMK AO2 T02110128 $
94728KNYC NYC20250818111513208/18/25 11:15:31  5-MIN KNYC 181615Z AUTO 05009G17KT 10SM FEW028 BKN036 OVC060 22/13 A3018 -80 56 700 060/09G17 RMK AO2 T02170128 $
94728KNYC NYC20250818112014808/18/25 11:20:31  5-MIN KNYC 181620Z AUTO 06010G17KT 020V080 10SM FEW028 BKN038 OVC060 22/13 A3018 -80 56 700 070/10G17 030V090 RMK AO2 T02170128 $
94728KNYC NYC20250818112513408/18/25 11:25:31  5-MIN KNYC 181625Z AUTO 06007G17KT 010V100 10SM OVC038 21/13 A3018 -80 58 700 070/07G17 020V110 RMK AO2 T02110128 $
94728KNYC NYC20250818113013408/18/25 11:30:31  5-MIN KNYC 181630Z AUTO 05007G17KT 350V060 10SM OVC038 21/13 A3018 -80 61 700 060/07G17 360V070 RMK AO2 T02110133 $
94728KNYC NYC20250818113511208/18/25 11:35:31  5-MIN KNYC 181635Z AUTO 07008KT 10SM OVC037 21/13 A3018 -80 58 700 080/08 RMK AO2 T02110128 $
94728KNYC NYC20250818114013408/18/25 11:40:31  5-MIN KNYC 181640Z AUTO 10007G15KT 040V130 10SM OVC037 21/13 A3018 -80 58 700 120/07G15 050V140 RMK AO2 T02110128 $
94728KNYC NYC20250818114511908/18/25 11:45:31  5-MIN KNYC 181645Z AUTO VRB05KT 10SM OVC039 21/13 A3018 -80 58 700 VRB/05 RMK AO2 SLP211 T02110128 $
94728KNYC NYC20250818115011908/18/25 11:50:31  5-MIN KNYC 181650Z AUTO 06007KT 10SM OVC039 22/13 A3018 -80 58 700 070/07 RMK AO2 SLP210 T02170133 $
94728KNYC NYC20250818115511908/18/25 11:55:31  5-MIN KNYC 181655Z AUTO VRB05KT 10SM BKN039 OVC060 22/13 A3018 -80 58 700 VRB/05 RMK AO2 T02170133 $
94728KNYC NYC20250818120012508/18/25 12:00:31  5-MIN KNYC 181700Z AUTO 08010G15KT 10SM BKN039 OVC065 22/13 A3018 -80 56 700 090/10G15 RMK AO2 T02170128 $
94728KNYC NYC20250818120512508/18/25 12:05:31  5-MIN KNYC 181705Z AUTO 08008G15KT 10SM BKN039 OVC060 22/13 A3018 -80 56 700 100/08G15 RMK AO2 T02170128 $
94728KNYC NYC20250818121012508/18/25 12:10:31  5-MIN KNYC 181710Z AUTO VRB04G14KT 10SM BKN039 OVC060 22/13 A3018 -80 56 700 VRB/04G14 RMK AO2 T02170128 $
94728KNYC NYC20250818121511908/18/25 12:15:31  5-MIN KNYC 181715Z AUTO 06006KT 10SM BKN040 OVC060 22/13 A3018 -80 56 800 070/06 RMK AO2 T02220133 $
94728KNYC NYC20250818122010908/18/25 12:20:31  5-MIN KNYC 181720Z AUTO 10SM BKN040 OVC065 22/13 A3018 -80 58 700 M /M RMK AO2 T02170133 $
94728KNYC NYC20250818122513508/18/25 12:25:31  5-MIN KNYC 181725Z AUTO 07007KT 040V110 10SM BKN040 OVC065 22/13 A3018 -80 56 800 080/07 050V120 RMK AO2 T02220133 $
94728KNYC NYC20250818123013408/18/25 12:30:31  5-MIN KNYC 181730Z AUTO 07007G16KT 050V130 10SM OVC039 22/13 A3018 -70 56 700 080/07G16 060V140 RMK AO2 T02170128 $
94728KNYC NYC20250818123511808/18/25 12:35:31  5-MIN KNYC 181735Z AUTO VRB06G16KT 10SM OVC039 22/13 A3018 -80 56 700 VRB/06G16 RMK AO2 T02170128 $
94728KNYC NYC20250818124012808/18/25 12:40:31  5-MIN KNYC 181740Z AUTO 08007KT 030V120 10SM OVC039 22/12 A3018 -80 54 700 100/07 040V130 RMK AO2 T02170122 $
94728KNYC NYC20250818124515308/18/25 12:45:31  5-MIN KNYC 181745Z AUTO 12007KT 070V160 10SM OVC039 22/12 A3018 -80 54 700 130/07 080V170 RMK AO2 SLP211 T02170122 10222 20189 51022 $
94728KNYC NYC20250818125015308/18/25 12:50:31  5-MIN KNYC 181750Z AUTO 07007KT 010V180 10SM OVC039 21/13 A3019 -80 58 600 080/07 020V190 RMK AO2 SLP212 T02110128 10222 20189 51022 $
94728KNYC NYC20250818125511208/18/25 12:55:31  5-MIN KNYC 181755Z AUTO VRB04KT 10SM OVC039 22/13 A3019 -80 56 700 VRB/04 RMK AO2 T02170128 $
94728KNYC NYC20250818130011208/18/25 13:00:31  5-MIN KNYC 181800Z AUTO 06006KT 10SM OVC039 22/13 A3018 -80 56 700 070/06 RMK AO2 T02170128 $
94728KNYC NYC20250818130512808/18/25 13:05:31  5-MIN KNYC 181805Z AUTO 09007KT 050V120 10SM OVC039 22/13 A3018 -80 56 700 110/07 060V130 RMK AO2 T02170128 $
94728KNYC NYC20250818131010208/18/25 13:10:31  5-MIN KNYC 181810Z AUTO 10SM OVC039 21/13 A3018 -80 58 700 M /M RMK AO2 T02110128 $
94728KNYC NYC20250818131511208/18/25 13:15:31  5-MIN KNYC 181815Z AUTO VRB06KT 10SM OVC040 22/13 A3018 -80 56 700 VRB/06 RMK AO2 T02170128 $
94728KNYC NYC20250818132011208/18/25 13:20:31  5-MIN KNYC 181820Z AUTO VRB03KT 10SM OVC040 22/13 A3019 -80 56 700 VRB/03 RMK AO2 T02170128 $
94728KNYC NYC20250818132510208/18/25 13:25:31  5-MIN KNYC 181825Z AUTO 10SM OVC040 22/13 A3019 -80 58 700 M /M RMK AO2 T02170133 $
94728KNYC NYC20250818133011208/18/25 13:30:31  5-MIN KNYC 181830Z AUTO 05004KT 10SM OVC040 22/13 A3019 -80 58 700 060/04 RMK AO2 T02170133 $
94728KNYC NYC20250818133510208/18/25 13:35:31  5-MIN KNYC 181835Z AUTO 10SM OVC040 22/13 A3019 -80 58 700 M /M RMK AO2 T02170133 $
94728KNYC NYC20250818134011208/18/25 13:40:31  5-MIN KNYC 181840Z AUTO VRB03KT 10SM OVC040 22/13 A3019 -80 58 700 VRB/03 RMK AO2 T02170133 $
94728KNYC NYC20250818134511908/18/25 13:45:31  5-MIN KNYC 181845Z AUTO 07004KT 10SM OVC040 22/13 A3019 -90 58 700 080/04 RMK AO2 SLP214 T02170133 $
94728KNYC NYC20250818135010908/18/25 13:50:31  5-MIN KNYC 181850Z AUTO 10SM OVC040 22/13 A3019 -80 56 800 M /M RMK AO2 SLP213 T02220133 $
94728KNYC NYC20250818135511208/18/25 13:55:31  5-MIN KNYC 181855Z AUTO 09006KT 10SM OVC040 22/13 A3019 -80 56 800 100/06 RMK AO2 T02220133 $
94728KNYC NYC20250818140011208/18/25 14:00:31  5-MIN KNYC 181900Z AUTO VRB03KT 10SM OVC040 22/13 A3019 -80 58 700 VRB/03 RMK AO2 T02170133 $
94728KNYC NYC20250818140511208/18/25 14:05:31  5-MIN KNYC 181905Z AUTO VRB03KT 10SM OVC040 22/14 A3018 -80 59 800 VRB/03 RMK AO2 T02220139 $
94728KNYC NYC20250818141011208/18/25 14:10:31  5-MIN KNYC 181910Z AUTO VRB04KT 10SM OVC040 22/14 A3018 -80 59 800 VRB/04 RMK AO2 T02220139 $
94728KNYC NYC20250818141511208/18/25 14:15:31  5-MIN KNYC 181915Z AUTO 08006KT 10SM OVC040 22/14 A3018 -80 59 800 090/06 RMK AO2 T02220139 $
94728KNYC NYC20250818142011208/18/25 14:20:31  5-MIN KNYC 181920Z AUTO VRB03KT 10SM OVC040 22/13 A3018 -80 56 800 VRB/03 RMK AO2 T02220133 $
94728KNYC NYC20250818142511208/18/25 14:25:31  5-MIN KNYC 181925Z AUTO 05005KT 10SM OVC039 22/13 A3018 -80 54 800 060/05 RMK AO2 T02220128 $
94728KNYC NYC20250818143011208/18/25 14:30:31  5-MIN KNYC 181930Z AUTO 07005KT 10SM OVC039 22/13 A3018 -70 56 800 080/05 RMK AO2 T02220133 $
94728KNYC NYC20250818143511208/18/25 14:35:31  5-MIN KNYC 181935Z AUTO VRB03KT 10SM OVC039 22/13 A3018 -70 56 800 VRB/03 RMK AO2 T02220133 $
94728KNYC NYC20250818144011208/18/25 14:40:31  5-MIN KNYC 181940Z AUTO 05005KT 10SM OVC039 22/13 A3018 -80 56 800 060/05 RMK AO2 T02220133 $
94728KNYC NYC20250818144511908/18/25 14:45:31  5-MIN KNYC 181945Z AUTO 05003KT 10SM OVC040 23/13 A3018 -80 55 800 060/03 RMK AO2 SLP211 T02280133 $
94728KNYC NYC20250818145011908/18/25 14:50:31  5-MIN KNYC 181950Z AUTO VRB03KT 10SM OVC040 23/13 A3018 -80 55 800 VRB/03 RMK AO2 SLP211 T02280133 $
94728KNYC NYC20250818145511208/18/25 14:55:31  5-MIN KNYC 181955Z AUTO 05004KT 10SM OVC040 23/14 A3018 -80 59 800 070/04 RMK AO2 T02280144 $
94728KNYC NYC20250818150011208/18/25 15:00:31  5-MIN KNYC 182000Z AUTO 06004KT 10SM OVC040 23/13 A3018 -80 53 800 070/04 RMK AO2 T02280128 $
94728KNYC NYC20250818150511208/18/25 15:05:31  5-MIN KNYC 182005Z AUTO 04004KT 10SM OVC040 23/13 A3018 -70 53 900 050/04 RMK AO2 T02330133 $
94728KNYC NYC20250818151011208/18/25 15:10:31  5-MIN KNYC 182010Z AUTO 00000KT 10SM OVC040 23/13 A3018 -80 53 900 000/00 RMK AO2 T02330133 $
94728KNYC NYC20250818151511208/18/25 15:15:31  5-MIN KNYC 182015Z AUTO 05004KT 10SM OVC040 23/14 A3018 -80 57 800 060/04 RMK AO2 T02280139 $
94728KNYC NYC20250818152011208/18/25 15:20:31  5-MIN KNYC 182020Z AUTO 00000KT 10SM OVC040 23/13 A3018 -80 55 800 000/00 RMK AO2 T02280133 $
94728KNYC NYC20250818152511908/18/25 15:25:31  5-MIN KNYC 182025Z AUTO 00000KT 10SM BKN042 OVC060 23/13 A3018 -80 55 800 000/00 RMK AO2 T02280133 $
94728KNYC NYC20250818153011908/18/25 15:30:31  5-MIN KNYC 182030Z AUTO 00000KT 10SM BKN042 OVC060 23/13 A3019 -80 55 800 000/00 RMK AO2 T02280133 $
94728KNYC NYC20250818153511908/18/25 15:35:31  5-MIN KNYC 182035Z AUTO 00000KT 10SM BKN042 OVC060 23/14 A3018 -80 57 800 000/00 RMK AO2 T02280139 $
94728KNYC NYC20250818154011908/18/25 15:40:31  5-MIN KNYC 182040Z AUTO 00000KT 10SM SCT042 OVC060 22/14 A3018 -80 61 800 000/00 RMK AO2 T02220144 $
94728KNYC NYC20250818154513208/18/25 15:45:31  5-MIN KNYC 182045Z AUTO 00000KT 10SM FEW043 OVC060 22/14 A3018 -80 61 800 000/00 RMK AO2 SLP210 T02220144 51002 $
94728KNYC NYC20250818155013208/18/25 15:50:31  5-MIN KNYC 182050Z AUTO 00000KT 10SM FEW045 OVC060 23/13 A3018 -80 53 900 000/00 RMK AO2 SLP210 T02330133 51002 $
94728KNYC NYC20250818155511208/18/25 15:55:31  5-MIN KNYC 182055Z AUTO VRB03KT 10SM OVC060 23/14 A3018 -70 57 900 VRB/03 RMK AO2 T02330144 $
94728KNYC NYC20250818160011208/18/25 16:00:31  5-MIN KNYC 182100Z AUTO 11004KT 10SM OVC060 23/13 A3018 -70 53 900 120/04 RMK AO2 T02330133 $
94728KNYC NYC20250818160511308/18/25 16:05:31  5-MIN KNYC 182105Z AUTO VRB03KT 10SM OVC060 24/13 A3018 -70 51 1000 VRB/03 RMK AO2 T02390133 $
94728KNYC NYC20250818161011308/18/25 16:10:31  5-MIN KNYC 182110Z AUTO 06004KT 10SM BKN060 24/13 A3018 -80 51 1000 080/04 RMK AO2 T02390133 $
94728KNYC NYC20250818161511308/18/25 16:15:31  5-MIN KNYC 182115Z AUTO VRB05KT 10SM BKN060 24/14 A3018 -80 53 1000 VRB/05 RMK AO2 T02390139 $
94728KNYC NYC20250818162011308/18/25 16:20:31  5-MIN KNYC 182120Z AUTO VRB04KT 10SM OVC060 24/13 A3018 -80 51 1000 VRB/04 RMK AO2 T02390133 $
94728KNYC NYC20250818162511208/18/25 16:25:31  5-MIN KNYC 182125Z AUTO VRB03KT 10SM BKN060 23/13 A3018 -80 53 900 VRB/03 RMK AO2 T02330133 $
94728KNYC NYC20250818163011208/18/25 16:30:31  5-MIN KNYC 182130Z AUTO 06007KT 10SM BKN060 23/13 A3018 -80 51 900 070/07 RMK AO2 T02330128 $
94728KNYC NYC20250818163511208/18/25 16:35:31  5-MIN KNYC 182135Z AUTO 06005KT 10SM SCT060 23/13 A3018 -80 55 800 070/05 RMK AO2 T02280133 $
94728KNYC NYC20250818164011208/18/25 16:40:31  5-MIN KNYC 182140Z AUTO VRB04KT 10SM SCT060 23/13 A3018 -70 53 900 VRB/04 RMK AO2 T02330133 $
94728KNYC NYC20250818164511908/18/25 16:45:31  5-MIN KNYC 182145Z AUTO VRB05KT 10SM FEW060 23/12 A3018 -70 49 900 VRB/05 RMK AO2 SLP210 T02330122 $
94728KNYC NYC20250818165011608/18/25 16:50:31  5-MIN KNYC 182150Z AUTO VRB03KT 10SM CLR 23/13 A3018 -70 51 900 VRB/03 RMK AO2 SLP209 T02330128 $
94728KNYC NYC20250818165510908/18/25 16:55:31  5-MIN KNYC 182155Z AUTO VRB04KT 10SM CLR 23/13 A3017 -70 51 900 VRB/04 RMK AO2 T02330128 $
94728KNYC NYC20250818170010908/18/25 17:00:31  5-MIN KNYC 182200Z AUTO VRB04KT 10SM CLR 23/13 A3018 -70 53 900 VRB/04 RMK AO2 T02330133 $
94728KNYC NYC20250818170510908/18/25 17:05:31  5-MIN KNYC 182205Z AUTO VRB04KT 10SM CLR 23/13 A3018 -70 53 900 VRB/04 RMK AO2 T02330133 $
94728KNYC NYC20250818171010908/18/25 17:10:31  5-MIN KNYC 182210Z AUTO VRB03KT 10SM CLR 23/13 A3018 -70 55 900 VRB/03 RMK AO2 T02280133 $
94728KNYC NYC20250818171510908/18/25 17:15:31  5-MIN KNYC 182215Z AUTO VRB03KT 10SM CLR 23/14 A3018 -70 57 900 VRB/03 RMK AO2 T02280139 $
94728KNYC NYC20250818172009908/18/25 17:20:31  5-MIN KNYC 182220Z AUTO 10SM CLR 23/14 A3017 -70 57 900 M /M RMK AO2 T02280139 $
94728KNYC NYC20250818172510908/18/25 17:25:31  5-MIN KNYC 182225Z AUTO 07007KT 10SM CLR 23/14 A3017 -70 57 900 080/07 RMK AO2 T02280139 $
94728KNYC NYC20250818173010908/18/25 17:30:31  5-MIN KNYC 182230Z AUTO 09004KT 10SM CLR 23/13 A3017 -70 53 900 100/04 RMK AO2 T02330133 $
94728KNYC NYC20250818173510908/18/25 17:35:31  5-MIN KNYC 182235Z AUTO VRB04KT 10SM CLR 23/13 A3018 -70 51 900 VRB/04 RMK AO2 T02330128 $
94728KNYC NYC20250818174010908/18/25 17:40:31  5-MIN KNYC 182240Z AUTO VRB03KT 10SM CLR 23/13 A3017 -70 55 900 VRB/03 RMK AO2 T02280133 $
94728KNYC NYC20250818174511608/18/25 17:45:31  5-MIN KNYC 182245Z AUTO 00000KT 10SM CLR 22/13 A3017 -70 56 800 000/00 RMK AO2 SLP209 T02220133 $
94728KNYC NYC20250818175011608/18/25 17:50:31  5-MIN KNYC 182250Z AUTO VRB03KT 10SM CLR 22/14 A3018 -70 61 800 VRB/03 RMK AO2 SLP209 T02220144 $
94728KNYC NYC20250818175510908/18/25 17:55:31  5-MIN KNYC 182255Z AUTO 00000KT 10SM CLR 22/15 A3018 -70 63 800 000/00 RMK AO2 T02220150 $
94728KNYC NYC20250818180009908/18/25 18:00:31  5-MIN KNYC 182300Z AUTO 10SM CLR 22/15 A3018 -70 63 800 M /M RMK AO2 T02220150 $
94728KNYC NYC20250818180510908/18/25 18:05:31  5-MIN KNYC 182305Z AUTO 00000KT 10SM CLR 22/15 A3018 -70 63 800 000/00 RMK AO2 T02220150 $
94728KNYC NYC20250818181010908/18/25 18:10:31  5-MIN KNYC 182310Z AUTO 00000KT 10SM CLR 22/16 A3018 -70 68 700 000/00 RMK AO2 T02170156 $
94728KNYC NYC20250818181510908/18/25 18:15:31  5-MIN KNYC 182315Z AUTO VRB03KT 10SM CLR 22/16 A3018 -70 68 700 VRB/03 RMK AO2 T02170156 $
94728KNYC NYC20250818182010908/18/25 18:20:31  5-MIN KNYC 182320Z AUTO VRB03KT 10SM CLR 22/16 A3018 -80 68 700 VRB/03 RMK AO2 T02170156 $
94728KNYC NYC20250818182510908/18/25 18:25:31  5-MIN KNYC 182325Z AUTO 00000KT 10SM CLR 21/15 A3018 -80 68 700 000/00 RMK AO2 T02110150 $
94728KNYC NYC20250818183010908/18/25 18:30:31  5-MIN KNYC 182330Z AUTO 00000KT 10SM CLR 21/15 A3018 -80 68 600 000/00 RMK AO2 T02110150 $
94728KNYC NYC20250818183510908/18/25 18:35:31  5-MIN KNYC 182335Z AUTO 00000KT 10SM CLR 21/15 A3019 -80 68 600 000/00 RMK AO2 T02110150 $
94728KNYC NYC20250818184010908/18/25 18:40:31  5-MIN KNYC 182340Z AUTO 00000KT 10SM CLR 21/16 A3019 -80 70 600 000/00 RMK AO2 T02110156 $
94728KNYC NYC20250818184513408/18/25 18:45:31  5-MIN KNYC 182345Z AUTO VRB03KT 10SM CLR 21/15 A3019 -90 70 600 VRB/03 RMK AO2 SLP214 T02060150 10239 20206 58002 $
94728KNYC NYC20250818185013408/18/25 18:50:31  5-MIN KNYC 182350Z AUTO 00000KT 10SM CLR 21/15 A3019 -80 70 600 000/00 RMK AO2 SLP214 T02060150 10239 20206 58002 $
94728KNYC NYC20250818185510908/18/25 18:55:31  5-MIN KNYC 182355Z AUTO 19005KT 10SM CLR 21/15 A3019 -90 70 600 200/05 RMK AO2 T02060150 $
94728KNYC NYC20250818190010908/18/25 19:00:31  5-MIN KNYC 190000Z AUTO 00000KT 10SM CLR 21/15 A3019 -90 70 600 000/00 RMK AO2 T02060150 $
94728KNYC NYC20250818190509908/18/25 19:05:31  5-MIN KNYC 190005Z AUTO 10SM CLR 21/15 A3019 -90 70 600 M /M RMK AO2 T02060150 $
94728KNYC NYC20250818191010908/18/25 19:10:31  5-MIN KNYC 190010Z AUTO 00000KT 10SM CLR 21/15 A3020 -90 68 600 000/00 RMK AO2 T02110150 $
94728KNYC NYC20250818191509908/18/25 19:15:31  5-MIN KNYC 190015Z AUTO 10SM CLR 21/15 A3020 -90 68 600 M /M RMK AO2 T02110150 $
94728KNYC NYC20250818192010908/18/25 19:20:31  5-MIN KNYC 190020Z AUTO VRB03KT 10SM CLR 21/15 A3020 -90 70 600 VRB/03 RMK AO2 T02060150 $
94728KNYC NYC20250818192510908/18/25 19:25:31  5-MIN KNYC 190025Z AUTO VRB03KT 10SM CLR 21/15 A3020 -90 70 600 VRB/03 RMK AO2 T02060150 $
94728KNYC NYC20250818193011008/18/25 19:30:31  5-MIN KNYC 190030Z AUTO VRB03KT 10SM CLR 21/15 A3020 -100 70 600 VRB/03 RMK AO2 T02060150 $
94728KNYC NYC20250818193511008/18/25 19:35:31  5-MIN KNYC 190035Z AUTO VRB03KT 10SM CLR 21/15 A3020 -100 70 600 VRB/03 RMK AO2 T02060150 $
